{"type":"FeatureCollection","features":[{"type":"Feature","id":5997,"geometry":{"type":"MultiPolygon","coordinates":[[[[119.83895918500002,-2.8985664489999294,0],[119.83778572100005,-2.8987121579999666,0],[119.83684349100008,-2.8987751009999556,0],[119.83663749700008,-2.8988609309999447,0],[119.83525633700003,-2.8989093559999333,0],[119.83386039700008,-2.898874282999941,0],[119.83327293400009,-2.8991985319999571,0],[119.83315849300004,-2.8992900849999614,0],[119.8326854710001,-2.8995666499999402,0],[119.83244514500007,-2.8998260499999446,0],[119.83187675500005,-2.9006671909999682,0],[119.83172798200007,-2.9011001589999523,0],[119.83165931700012,-2.9011363979999487,0],[119.83113288900006,-2.9013004299999352,0],[119.83092247700006,-2.9014391109999451,0],[119.83075585400002,-2.90140215699995,0],[119.83182441400004,-2.9017325979999669,0],[119.83186531100012,-2.9018955229999506,0],[119.83223533600005,-2.9023647309999774,0],[119.83271980300003,-2.9024391169999717,0],[119.83285713200007,-2.9025554659999671,0],[119.83328819300004,-2.9027442929999552,0],[119.83344078100004,-2.9027786249999394,0],[119.83418083200002,-2.9039211269999328,0],[119.83442115800005,-2.9041118619999793,0],[119.83454704300004,-2.9041900629999304,0],[119.83465004000004,-2.9042167659999336,0],[119.83515739400002,-2.9042968749999432,0],[119.83545112600007,-2.9043769839999527,0],[119.83558845500011,-2.9047584529999426,0],[119.83560752900007,-2.9048042299999679,0],[119.83576011700006,-2.9049892429999318,0],[119.83599281300008,-2.905572890999963,0],[119.83619499200006,-2.9058818819999601,0],[119.83661842300012,-2.9064025879999349,0],[119.83861351000007,-2.90770721399997,0],[119.83869209500006,-2.907680791999951,0],[119.8400650000001,-2.9104233339999723,0],[119.84018392900009,-2.9106063579999386,0],[119.8403691630001,-2.9110972409999363,0],[119.84521114300003,-2.9112417749999508,0],[119.84632195800009,-2.9114079589999733,0],[119.84661554400009,-2.911430748999976,0],[119.84683022800004,-2.9116006599999764,0],[119.84688235300007,-2.9114466849999303,0],[119.84703654800001,-2.9113801869999634,0],[119.84700569400002,-2.9114540509999642,0],[119.84755536800003,-2.9115581749999251,0],[119.84760787100004,-2.9114900189999275,0],[119.84804482700008,-2.9115239159999646,0],[119.84913980100009,-2.9132511609999483,0],[119.84921413800009,-2.9131796229999622,0],[119.8492910970001,-2.9131464359999768,0],[119.84932669900002,-2.9131407159999299,0],[119.84968320100006,-2.9132391549999284,0],[119.84984002800002,-2.9132138719999716,0],[119.84989995100011,-2.9132157629999256,0],[119.85033944200006,-2.9130520729999603,0],[119.85062486100003,-2.9130824269999493,0],[119.85101213000007,-2.9129547329999355,0],[119.85115282900006,-2.9129694889999769,0],[119.85199416100011,-2.9143955129999313,0],[119.85220351800001,-2.9143519989999618,0],[119.85243635300003,-2.9142749019999314,0],[119.85268335900003,-2.9141595179999626,0],[119.85295414400002,-2.9140440719999674,0],[119.85313941000004,-2.9139623149999352,0],[119.85356703400009,-2.9138082179999287,0],[119.85373345900007,-2.9137982309999302,0],[119.85381606100009,-2.913809778999962,0],[119.8538406560001,-2.913923193999949,0],[119.85389802200007,-2.9140413899999658,0],[119.85396609800011,-2.9141631439999287,0],[119.85401979800008,-2.9142418999999791,0],[119.8540769650001,-2.9142812019999269,0],[119.85421269200003,-2.9143561639999689,0],[119.85443390300009,-2.9143842899999299,0],[119.85464075600009,-2.9143765909999502,0],[119.85469442900001,-2.9144445889999702,0],[119.85478739100006,-2.9145340049999504,0],[119.85481978100006,-2.914648677999935,0],[119.85459521100006,-2.9147030419999282,0],[119.85455968800011,-2.914760509999951,0],[119.85454931400011,-2.9148896369999306,0],[119.85453521900001,-2.9149578079999401,0],[119.85459969100009,-2.9150652269999568,0],[119.8546249210001,-2.9151691589999587,0],[119.85468583600004,-2.9152801739999745,0],[119.85471800000005,-2.9153051939999273,0],[119.85491390900006,-2.9152006979999783,0],[119.85493865000001,-2.9151109819999306,0],[119.85504186900005,-2.9150246529999322,0],[119.85514166600001,-2.9149957089999248,0],[119.85523083400005,-2.9149954809999485,0],[119.8557043290001,-2.9150674699999399,0],[119.85576159000004,-2.9151438269999517,0],[119.85588556300002,-2.9152726099999313,0],[119.85610933200007,-2.9153724499999498,0],[119.85623328100007,-2.9154916719999733,0],[119.85635741100009,-2.9156826129999445,0],[119.85642420800002,-2.9157685089999745,0],[119.85639123200008,-2.9158929109999576,0],[119.85631568500003,-2.9161082699999383,0],[119.85627809800008,-2.9162900609999269,0],[119.85633543200004,-2.9163951069999712,0],[119.85640213200008,-2.9164427519999663,0],[119.85651175400005,-2.9165381009999578,0],[119.85654998000007,-2.9166097249999439,0],[119.8565549650001,-2.9167005599999243,0],[119.85657967300006,-2.9170686709999245,0],[119.85661809300007,-2.9172167969999805,0],[119.85667551100005,-2.9173553129999732,0],[119.85679004600001,-2.9175128099999483,0],[119.85683310100001,-2.9176131099999338,0],[119.85684767000009,-2.9177326089999269,0],[119.85680048800009,-2.9178809549999301,0],[119.85673888100007,-2.9179671799999483,0],[119.85662530100001,-2.9181874159999666,0],[119.85659710500011,-2.9183213699999442,0],[119.85658323700011,-2.9184791929999392,0],[119.85661682900002,-2.9185986439999283,0],[119.85670751300006,-2.9187275119999754,0],[119.85684086500009,-2.9188036739999461,0],[119.85699334900005,-2.9189228219999563,0],[119.85724572600009,-2.9190512759999478,0],[119.85746484900005,-2.9191941609999503,0],[119.85748417400009,-2.9193136469999672,0],[119.85744643100008,-2.9194332809999537,0],[119.85736599600011,-2.9195960549999427,0],[119.85733777600001,-2.9197204459999284,0],[119.85736196500011,-2.9198829529999557,0],[119.85738688600009,-2.9199321279999708,0],[119.85755314800008,-2.9202601989999266,0],[119.85793480000007,-2.9207325889999538,0],[119.8580879860001,-2.9211290569999733,0],[119.85812644200007,-2.9212915279999265,0],[119.85795761800011,-2.9213980789999709,0],[119.8580226900001,-2.9215011599999343,0],[119.8579196930001,-2.9217548369999804,0],[119.85789680500011,-2.9217758179999578,0],[119.85788154600004,-2.9218311309999763,0],[119.85780906700006,-2.9219684599999596,0],[119.85777854900005,-2.9220027919999438,0],[119.85771751400011,-2.9221458439999424,0],[119.85768318200007,-2.9221687319999319,0],[119.85756111100011,-2.9224967959999617,0],[119.85732460000008,-2.9227771759999541,0],[119.85733604400002,-2.922790526999961,0],[119.85757255600004,-2.9231529239999645,0],[119.85762977600007,-2.9233932499999469,0],[119.85763359100008,-2.9235591889999455,0],[119.8577404020001,-2.9237365719999389,0],[119.85774421700012,-2.9237670899999557,0],[119.85792350800011,-2.9240512849999618,0],[119.85799980200011,-2.9242248539999309,0],[119.8580174330001,-2.9242878229999292,0],[119.85802650500011,-2.9243202209999595,0],[119.85818672200003,-2.9244270319999259,0],[119.85824394200006,-2.924478530999977,0],[119.85835838300011,-2.9246215819999293,0],[119.8585109710001,-2.9249401089999765,0],[119.85851860000002,-2.9249763489999623,0],[119.85853004500007,-2.9251060489999645,0],[119.85852241500004,-2.9252090449999741,0],[119.85857579000003,-2.925315793999971,0],[119.85858104300007,-2.925327392999975,0],[119.85865974400008,-2.9254837039999302,0],[119.85872459400002,-2.9257011409999336,0],[119.85876655600009,-2.9259185789999265,0],[119.85876274100008,-2.925998687999936,0],[119.85880851700006,-2.9261245729999246,0],[119.85880851700006,-2.9261379239999314,0],[119.85875892600006,-2.9263324739999348,0],[119.85870933500007,-2.9264907839999523,0],[119.85864830000003,-2.9266281129999356,0],[119.85865974400008,-2.9267768859999705,0],[119.85864830000003,-2.9269084929999281,0],[119.85863662500003,-2.9269610309999621,0],[119.85863304100008,-2.9269771579999428,0],[119.85853004500007,-2.9272022249999736,0],[119.8584842680001,-2.9272556299999337,0],[119.85844993600006,-2.9273891449999496,0],[119.8584079740001,-2.9274806979999539,0],[119.85828971900003,-2.9276351929999578,0],[119.85825538600011,-2.9276638029999731,0],[119.85821342500003,-2.927770614999929,0],[119.85808754000004,-2.9280166629999371,0],[119.85808372500003,-2.928108214999952,0],[119.85804557800009,-2.9282588959999316,0],[119.85809516900008,-2.928436278999925,0],[119.85809516900008,-2.928468703999954,0],[119.85806083700004,-2.9285449979999498,0],[119.8580966400001,-2.9288167139999359,0],[119.8580255280001,-2.9291059359999281,0],[119.8580500920001,-2.9294220999999538,0],[119.8583545680001,-2.9299545289999287,0],[119.85857581700009,-2.9312023749999412,0],[119.85864830000003,-2.93161392199994,0],[119.85873603800007,-2.9318180079999365,0],[119.85873985300009,-2.9319057459999271,0],[119.85877800000003,-2.9319553379999661,0],[119.85880088800002,-2.9319667819999609,0],[119.85890007000012,-2.9320964809999737,0],[119.85894584700009,-2.9320926669999494,0],[119.85897687800002,-2.9321217589999264,0],[119.85907295600009,-2.9321234809999623,0],[119.85914538500003,-2.9322452759999464,0],[119.85922274100005,-2.9322749619999513,0],[119.85929994200001,-2.9322901589999333,0],[119.85951418600007,-2.9323828469999285,0],[119.85979989400005,-2.9325255559999732,0],[119.86011428200004,-2.9327255699999455,0],[119.86040725100008,-2.9329184649999434,0],[119.86067166800001,-2.9331042619999721,0],[119.86098605600012,-2.9333042739999655,0],[119.86120048300006,-2.9334686819999547,0],[119.86140060700006,-2.9336187839999752,0],[119.8615720680001,-2.9337187519999475,0],[119.86167927200006,-2.9337973699999793,0],[119.86184371000002,-2.9339403909999646,0],[119.86194381700011,-2.9340333709999413,0],[119.86201548200006,-2.9341622859999461,0],[119.8623157830001,-2.9344328609999479,0],[119.86250649800002,-2.9346236269999508,0],[119.86269119300005,-2.9347845249999409,0],[119.86271762900003,-2.9348588629999313,0],[119.86234855700002,-2.9349899289999257,0],[119.86228370700007,-2.9350414279999768,0],[119.86222267200003,-2.9350223539999547,0],[119.86208152800009,-2.9349632259999794,0],[119.86201286300002,-2.9349250789999246,0],[119.86194419900005,-2.9349079129999609,0],[119.86188316300002,-2.9348869319999267,0],[119.86178398100003,-2.9348430629999598,0],[119.86171913100009,-2.9347934719999671,0],[119.86165809600004,-2.9347705839999776,0],[119.86148262000006,-2.9346981049999386,0],[119.86126899700002,-2.9345626829999674,0],[119.86118888900012,-2.9345302579999384,0],[119.86108207700011,-2.9344997409999678,0],[119.86100959800001,-2.9344844819999594,0],[119.86078453100004,-2.9344635009999251,0],[119.86062812800003,-2.9344387049999341,0],[119.86061668400009,-2.9344387049999341,0],[119.86057090800011,-2.9344348909999667,0],[119.86037635800005,-2.9343948359999672,0],[119.86032676700006,-2.934385299999974,0],[119.86009788500007,-2.9343566889999693,0],[119.86006355300003,-2.9343566889999693,0],[119.85999870300009,-2.9344558719999441,0],[119.85952949500006,-2.9346084589999464,0],[119.85906410200005,-2.9346199039999306,0],[119.85861623300002,-2.9347898659999601,0],[119.85869302800006,-2.9349921859999313,0],[119.85903249500006,-2.9353823439999474,0],[119.85958700000003,-2.9360299999999597,0],[119.85992363500009,-2.9366663369999628,0],[119.86001821500008,-2.9368399819999809,0],[119.85997259300007,-2.9368695379999394,0],[119.85994416100004,-2.9369097739999575,0],[119.85991959700004,-2.9369748649999678,0],[119.8599177430001,-2.936993996999945,0],[119.85991972300008,-2.9370245929999328,0],[119.85991978200002,-2.9370475429999487,0],[119.8598989300001,-2.9370762859999786,0],[119.8598932860001,-2.9371011639999551,0],[119.85992578600008,-2.9371641939999336,0],[119.85993727700009,-2.9371947669999372,0],[119.85996210000008,-2.9372310409999614,0],[119.85999629700007,-2.9372137409999368,0],[119.86001536900005,-2.9372328169999378,0],[119.86000403800006,-2.9372653599999694,0],[119.85998508800003,-2.937294096999949,0],[119.85995324500004,-2.9373450309999498,0],[119.85986597200008,-2.9373558959999286,0],[119.85973779900007,-2.9374470729999302,0],[119.85960962500008,-2.9375382499999318,0],[119.85957446500004,-2.9375599769999781,0],[119.85943868600009,-2.9376438819999748,0],[119.85942115700004,-2.9376488879999556,0],[119.85928661200001,-2.937687306999976,0],[119.85898729200005,-2.9378028319999316,0],[119.85890650500005,-2.9378269469999623,0],[119.8588352910001,-2.9378749449999759,0],[119.85874518700007,-2.9379755869999258,0],[119.85870258000011,-2.9380521999999587,0],[119.85866939900006,-2.9380953179999665,0],[119.85858871000005,-2.9381576849999647,0],[119.8584699380001,-2.9382058049999387,0],[119.85836086000006,-2.9383256219999794,0],[119.85834672600004,-2.9383782539999288,0],[119.85834690900003,-2.9384499769999479,0],[119.85831858100005,-2.9385313329999576,0],[119.85827128000005,-2.9386318659999802,0],[119.8581953580001,-2.9386990019999644,0],[119.85808713200004,-2.9391535179999551,0],[119.85789335300001,-2.9395967799999312,0],[119.85785613500002,-2.9399220159999686,0],[119.85786640100002,-2.9402184399999669,0],[119.85794351600009,-2.9406198829999539,0],[119.85800117000008,-2.9408492449999244,0],[119.85809677300006,-2.9410402559999511,0],[119.85812577000002,-2.9412218769999754,0],[119.85811769400004,-2.94143778199998,0],[119.85810663000007,-2.9417335969999385,0],[119.85758683900008,-2.9446722599999475,0],[119.85828630500009,-2.9445889719999627,0],[119.85870372600004,-2.9446273429999792,0],[119.85894268900006,-2.9446808369999644,0],[119.85898449100011,-2.9447372699999619,0],[119.85908187500002,-2.9448804629999472,0],[119.85927639400006,-2.9450693059999367,0],[119.85944831900008,-2.9453500119999489,0],[119.85950220900008,-2.9455946829999675,0],[119.85947211400003,-2.9457286409999597,0],[119.85939262700003,-2.9458895029999326,0],[119.85929392200001,-2.9459739129999321,0],[119.85917235000011,-2.946043078999935,0],[119.8589763650001,-2.9461287389999598,0],[119.85886845800007,-2.9462312949999614,0],[119.85868982600005,-2.9463044339999556,0],[119.85849982900004,-2.9463967299999467,0],[119.85837078400004,-2.9465194669999732,0],[119.85832201700009,-2.9467911799999342,0],[119.85821890200009,-2.9471301649999759,0],[119.85821929700012,-2.9472850819999508,0],[119.85824900400007,-2.9477440259999526,0],[119.85828937800011,-2.947910315999934,0],[119.85831805900011,-2.947967619999929,0],[119.85840405900001,-2.9481223169999566,0],[119.85861526000008,-2.9481389849999573,0],[119.85887207300004,-2.9481383219999771,0],[119.8590662260001,-2.948183720999964,0],[119.85919208700011,-2.9483038899999769,0],[119.85927807300004,-2.9485485879999374,0],[119.85943179300011,-2.9487270029999308,0],[119.85974635000002,-2.9489901249999662,0],[119.85986109000009,-2.9492250759999479,0],[119.86009011600004,-2.9495171079999523,0],[119.86030240300011,-2.9499583649999295,0],[119.86045144500008,-2.9502161779999483,0],[119.86070303500003,-2.9504048729999681,0],[119.86105094600009,-2.950348604999931,0],[119.86160436600005,-2.9502590989999362,0],[119.8621181960001,-2.9503380979999747,0],[119.86252377100004,-2.9504862299999672,0],[119.86278109800003,-2.9506863829999475,0],[119.86300506400005,-2.9512308869999515,0],[119.86322887000006,-2.9517122759999666,0],[119.86355041400009,-2.9524745599999278,0],[119.86359648100006,-2.9526350979999734,0],[119.86375103900002,-2.952818304999937,0],[119.8638829460001,-2.9530704219999393,0],[119.86409435300004,-2.953167414999939,0],[119.86412887500001,-2.953276341999981,0],[119.86420952200001,-2.9535687569999709,0],[119.86421580300009,-2.95379251199995,0],[119.86425076600005,-2.9540735689999451,0],[119.86426262100008,-2.9542456689999312,0],[119.86432083900002,-2.9546930599999541,0],[119.86442981500011,-2.9549050739999529,0],[119.86453324700005,-2.9551802159999738,0],[119.86454195600004,-2.9556086099999561,0],[119.86451230400007,-2.9559146979999582,0],[119.86437863000003,-2.9561911309999687,0],[119.86433821300011,-2.9562747119999244,0],[119.86435358300002,-2.956457003999958,0],[119.86426865300007,-2.9567202029999748,0],[119.86426915700008,-2.9569162399999414,0],[119.86433466400001,-2.9571250959999702,0],[119.86434108300011,-2.9571455629999264,0],[119.86460340100007,-2.9574365479999756,0],[119.86470455000006,-2.9579335539999647,0],[119.86471941900004,-2.9581678069999384,0],[119.86471529000005,-2.9584116689999291,0],[119.86468778200003,-2.9584930149999309,0],[119.86465865000002,-2.9585791669999253,0],[119.86465431200008,-2.9587417459999301,0],[119.86466410600008,-2.9588516939999749,0],[119.86458388400001,-2.9590957549999644,0],[119.86457955800006,-2.9592631159999314,0],[119.86467506700001,-2.9594158729999549,0],[119.86477060200002,-2.9595781949999491,0],[119.86486169900002,-2.9598648439999806,0],[119.86490955200009,-2.9599794729999758,0],[119.8650857880001,-2.9600842059999763,0],[119.86516584700007,-2.960105652999971,0],[119.86520472600012,-2.9601160689999801,0],[119.86533326300002,-2.9601505029999657,0],[119.86558066300006,-2.9601881109999795,0],[119.86578526200003,-2.9602258319999351,0],[119.86598995800011,-2.9603018029999362,0],[119.86613300200008,-2.9604448729999717,0],[119.86624765800002,-2.9606453939999255,0],[119.86625857000001,-2.9607606289999353,0],[119.86627210100005,-2.9609035269999708,0],[119.86624426700007,-2.9611761419999425,0],[119.86623529700012,-2.961386546999961,0],[119.86631699400004,-2.9617162529999632,0],[119.86632334700005,-2.9619131399999787,0],[119.8663273300001,-2.9620365809999498,0],[119.86646085000007,-2.9621748939999293,0],[119.86702230700007,-2.9622786249999535,0],[119.86732508500006,-2.9623973719999412,0],[119.86750831900008,-2.9626340539999774,0],[119.86765399900003,-2.9630620889999477,0],[119.86773849000008,-2.9633678799999643,0],[119.86778465800012,-2.9635666659999629,0],[119.86792959000002,-2.9637039939999568,0],[119.86815794800009,-2.9637340009999775,0],[119.8684928560001,-2.9637713789999793,0],[119.86862996100001,-2.9638245739999434,0],[119.86876710600006,-2.963893068999937,0],[119.86900314000002,-2.963907709999944,0],[119.86918583800002,-2.9639359239999408,0],[119.86937710300003,-2.9639669819999312,0],[119.86959696200006,-2.9640209179999601,0],[119.86982560300009,-2.9641608939999742,0],[119.86992279200001,-2.9642266259999701,0],[119.87007993400005,-2.9643036739999502,0],[119.87018851400001,-2.9643607689999385,0],[119.87045992100002,-2.9644862889999786,0],[119.87050254600001,-2.964417325999932,0],[119.8706161450001,-2.9642076039999665,0],[119.87070109100011,-2.9639520559999255,0],[119.87074769500009,-2.9636230189999537,0],[119.8705470750001,-2.963284061999957,0],[119.87053702100002,-2.9630737069999782,0],[119.87046042300005,-2.9628778679999641,0],[119.87037422700007,-2.962648584999954,0],[119.87032122300002,-2.9623809639999763,0],[119.87045917800003,-2.9623949499999753,0],[119.8706732390001,-2.962413516999959,0],[119.87083982700005,-2.9624656789999335,0],[119.87104427700001,-2.9624460199999589,0],[119.87112966000007,-2.9623597319999249,0],[119.87114050800005,-2.9623264369999447,0],[119.87122975400007,-2.9622630899999649,0],[119.87132096200003,-2.962222689999976,0],[119.8714843890001,-2.9621553239999798,0],[119.87150509700007,-2.9620711169999367,0],[119.87150675800001,-2.9619773969999414,0],[119.87149334800006,-2.9619410939999398,0],[119.87147329200002,-2.9619095889999585,0],[119.87138480500005,-2.9618983439999624,0],[119.87118075400008,-2.9618862419999346,0],[119.87104755400003,-2.9618722439999488,0],[119.8709809610001,-2.9618676369999548,0],[119.87080491000006,-2.9618346239999482,0],[119.87070962100006,-2.961767932999976,0],[119.87070454500008,-2.9616436309999585,0],[119.87077558600004,-2.9615286909999554,0],[119.8708372640001,-2.9614711539999803,0],[119.87092739000002,-2.9613800729999298,0],[119.87095037800009,-2.9611452309999322,0],[119.87093463500003,-2.961056077999956,0],[119.87084534600001,-2.9609164899999314,0],[119.87080235900009,-2.9608448819999467,0],[119.87081151400002,-2.9607061959999328,0],[119.87081128000011,-2.960615349999955,0],[119.87079203500002,-2.9605293359999791,0],[119.87075851000009,-2.9604385759999445,0],[119.87071552300006,-2.9603669679999598,0],[119.87066773100003,-2.9602762459999781,0],[119.87067190800008,-2.9600515089999249,0],[119.87069056200005,-2.9599080169999752,0],[119.87063778000004,-2.9597264609999456,0],[119.87053761300001,-2.9596119689999796,0],[119.87040410600002,-2.9594784369999729,0],[119.87029408300009,-2.9592300899999486,0],[119.87025554400009,-2.9590389339999774,0],[119.87021706700011,-2.9588716849999628,0],[119.87023095300003,-2.9587234249999597,0],[119.87026869200008,-2.958603792999952,0],[119.8702873950001,-2.9584794269999293,0],[119.87028721000001,-2.9584077059999458,0],[119.87024858600012,-2.9581830819999482,0],[119.87023404800004,-2.9580779289999555,0],[119.87022436400002,-2.9580110139999647,0],[119.87026647700009,-2.9577431449999381,0],[119.87036581900009,-2.9575372869999796,0],[119.87056065900003,-2.9574794039999688,0],[119.87065557700009,-2.9574026539999636,0],[119.87077409000005,-2.9572541229999274,0],[119.87090698200006,-2.9571485849999704,0],[119.87108263800008,-2.9570285929999613,0],[119.87110137800005,-2.9569185719999496,0],[119.87116203800008,-2.9567737779999561,0],[119.87124500600009,-2.9566731519999507,0],[119.87130637600001,-2.9564960799999653,0],[119.87130374600008,-2.9563980699999775,0],[119.87126533000003,-2.95625472699993,0],[119.87122710600011,-2.9561854959999323,0],[119.87119115500002,-2.956075617999943,0],[119.8712597870001,-2.9559487309999781,0],[119.87125479800011,-2.9558578979999766,0],[119.87124511400009,-2.9557909829999289,0],[119.87123537500008,-2.95570255399997,0],[119.87123517200007,-2.9556236609999473,0],[119.87122553100005,-2.9555734799999414,0],[119.87120143900006,-2.9554516179999268,0],[119.87118464600007,-2.955394283999965,0],[119.87093689700009,-2.9552204069999561,0],[119.87057525000012,-2.955140063999977,0],[119.87043239200011,-2.9550687139999354,0],[119.87029904600001,-2.9549973399999772,0],[119.87014656600002,-2.9548829829999477,0],[119.87004643700004,-2.954782831999978,0],[119.86998908500004,-2.9546730089999755,0],[119.86995561000003,-2.9546013749999247,0],[119.86988384400001,-2.9544342119999669,0],[119.8698358800001,-2.9542765499999746,0],[119.86983575800002,-2.9542287369999372,0],[119.86983535200011,-2.9540709519999382,0],[119.86985409300007,-2.953960929999937,0],[119.86992032900002,-2.953826878999962,0],[119.87005764500009,-2.953592232999938,0],[119.87028994000002,-2.953304745999958,0],[119.87045116900003,-2.9531226339999535,0],[119.87052707700002,-2.9530507159999502,0],[119.87102446300003,-2.9525115159999586,0],[119.87119542500011,-2.9524154439999393,0],[119.87134352900011,-2.9523079569999595,0],[119.87154126100006,-2.9522653659999492,0],[119.87176952700008,-2.952260947999946,0],[119.87184938400003,-2.952245439999956,0],[119.87207742500004,-2.9521530459999781,0],[119.87227905900011,-2.9521486959999379,0],[119.87235534700005,-2.9522249999999417,0],[119.87248507700008,-2.9523700169999643,0],[119.87256908300003,-2.9524883779999413,0],[119.87263786100004,-2.9526029519999497,0],[119.8727484210001,-2.9526906429999258,0],[119.87286385400012,-2.9525928489999274,0],[119.87283399600005,-2.9524462099999482,0],[119.87366438300012,-2.9521789019999574,0],[119.87394356800007,-2.9520945019999658,0],[119.87408604100006,-2.9520164339999724,0],[119.87420471900009,-2.9519324519999373,0],[119.87429964900002,-2.9518604829999617,0],[119.87447782100003,-2.9517942759999301,0],[119.87542310100002,-2.9518217019999611,0],[119.87591061000001,-2.9518383649999578,0],[119.87614570900007,-2.9519485059999511,0],[119.8763927120001,-2.9520642269999371,0],[119.87677358600001,-2.9522246059999588,0],[119.87878985300006,-2.9520838309999249,0],[119.87899650400004,-2.9520694019999496,0],[119.8791509890001,-2.9520391169999698,0],[119.87921043500012,-2.9520389609999711,0],[119.87931748500012,-2.9520566129999679,0],[119.87943048000011,-2.9520742499999528,0],[119.8795554400001,-2.9521217379999598,0],[119.87968645400008,-2.9522110469999348,0],[119.88003077300004,-2.9527333289999547,0],[119.88018214100009,-2.9530842789999383,0],[119.88033335800003,-2.9533766719999335,0],[119.88041134300011,-2.9535033439999552,0],[119.88050366300001,-2.9535421409999572,0],[119.88131966300011,-2.953769364999971,0],[119.88140227500003,-2.9538081859999465,0],[119.88142669400008,-2.953866679999976,0],[119.88142692100007,-2.9539545159999534,0],[119.88141587400003,-2.9547651229999587,0],[119.88150932300005,-2.9547869209999362,0],[119.88152001300011,-2.9547894139999471,0],[119.88179440100009,-2.9548923099999342,0],[119.88181599300003,-2.9549239599999737,0],[119.88183027000002,-2.9549489449999555,0],[119.88185049500009,-2.9549822569999264,0],[119.88187666900001,-2.9550036729999647,0],[119.88192725100009,-2.9550151619999383,0],[119.88195606900001,-2.9549896379999723,0],[119.88201788300012,-2.9549669509999603,0],[119.88211741900011,-2.95492158899998,0],[119.88217377800004,-2.9548959029999651,0],[119.8822179980001,-2.9548757499999283,0],[119.88231988300004,-2.9548293169999624,0],[119.88232736400005,-2.9548121199999287,0],[119.88234857000009,-2.9547633709999559,0],[119.88238424000008,-2.9546813739999607,0],[119.88242211300008,-2.9545908349999763,0],[119.88246129000004,-2.9544969449999599,0],[119.88246307100007,-2.9544654649999416,0],[119.88246603400012,-2.9544130819999737,0],[119.88254285700009,-2.9543624599999703,0],[119.88256816300009,-2.9543457829999511,0],[119.88259913900004,-2.9543253719999711,0],[119.88263091300007,-2.9543411859999651,0],[119.88265340600003,-2.9543999579999536,0],[119.88270472200008,-2.9544361719999301,0],[119.88274755200007,-2.9544706729999461,0],[119.88276777700003,-2.9545111249999536,0],[119.88279633100001,-2.9545372989999805,0],[119.88283440200007,-2.9545289699999557,0],[119.88287366300005,-2.9544992279999747,0],[119.88291801200012,-2.9544416479999427,0],[119.88291649400003,-2.954390961999934,0],[119.88295303000007,-2.9543469399999367,0],[119.88299216600001,-2.9542856069999743,0],[119.8830961430001,-2.9542696089999367,0],[119.88317704500002,-2.9542743669999254,0],[119.88323058300011,-2.9542529529999797,0],[119.88329125900009,-2.9542232089999629,0],[119.88336502200002,-2.9541887069999575,0],[119.88339357600012,-2.9541613429999529,0],[119.88344235500006,-2.9541220819999694,0],[119.88345544200001,-2.9541042359999778,0],[119.88348994400008,-2.9540721129999383,0],[119.88352087700002,-2.9540399909999451,0],[119.88355300000001,-2.9540102469999283,0],[119.88360415800003,-2.9539971599999717,0],[119.88368387000003,-2.9539876429999481,0],[119.88371837200009,-2.9540126279999299,0],[119.88374930500004,-2.9540328529999442,0],[119.88379808400009,-2.9540518889999703,0],[119.88386589900006,-2.9540578379999261,0],[119.88394918000006,-2.9540602159999594,0],[119.88398184400012,-2.9540651589999243,0],[119.88402527500011,-2.9540331489999403,0],[119.88406987400003,-2.9540014369999312,0],[119.88412081900003,-2.9539554839999482,0],[119.88417284900004,-2.9539257769999381,0],[119.88423231400009,-2.9538549169999442,0],[119.88426777600012,-2.9538377469999659,0],[119.88432146100001,-2.9538310979999665,0],[119.88436272500007,-2.9538549179999336,0],[119.88436227900002,-2.9538817019999328,0],[119.88436158100001,-2.9539235979999603,0],[119.88434417000008,-2.9539674169999444,0],[119.88434179100011,-2.954004298999962,0],[119.88433703200008,-2.9540495079999687,0],[119.88434417000008,-2.9541113739999787,0],[119.88437748300009,-2.954145877999963,0],[119.88438343100006,-2.9541946559999701,0],[119.8843881900001,-2.9542470049999565,0],[119.88442388200008,-2.95426009199997,0],[119.8844607640001,-2.9542624699999465,0],[119.88450121500011,-2.9542529529999797,0],[119.88453571700006,-2.9542362959999764,0],[119.88456189100009,-2.9541970359999254,0],[119.88457629300001,-2.9541424319999692,0],[119.88460179500009,-2.9540997949999337,0],[119.8846305510001,-2.9540658679999297,0],[119.88464741300004,-2.9540285579999477,0],[119.88466117400003,-2.9540182309999636,0],[119.88468092800008,-2.9540034059999698,0],[119.88472012500006,-2.9540185749999637,0],[119.88475695900001,-2.9540034059999698,0],[119.88483990700001,-2.9539652999999362,0],[119.88515541200002,-2.9538573269999802,0],[119.88518744800001,-2.9538463619999789,0],[119.88519517500004,-2.9538480019999724,0],[119.88522016200011,-2.9538533019999704,0],[119.88522060500009,-2.9539974909999387,0],[119.88526154300007,-2.9542027949999579,0],[119.88530938100007,-2.9543268359999502,0],[119.88542619300006,-2.9544412819999479,0],[119.88545744100009,-2.9544641159999401,0],[119.88548813400007,-2.9544865439999626,0],[119.88555236700006,-2.9544983289999323,0],[119.88577584800009,-2.9544834009999477,0],[119.88614889900009,-2.9543772369999601,0],[119.88661216100002,-2.9542220059999522,0],[119.88681173200007,-2.9541483919999791,0],[119.8869730240001,-2.9539925769999513,0],[119.88705584100001,-2.9538345769999523,0],[119.88706760100001,-2.953784341999949,0],[119.88695327200003,-2.9537105299999666,0],[119.88690319600005,-2.9536556749999363,0],[119.88689114600004,-2.9535935489999474,0],[119.88699501100007,-2.9534833079999316,0],[119.88721809600008,-2.9533153779999566,0],[119.88749342000006,-2.9531186239999556,0],[119.88758446200006,-2.9529843489999621,0],[119.88775437200002,-2.9529068459999621,0],[119.88822378900011,-2.9528670519999309,0],[119.88874509700008,-2.9529989679999744,0],[119.88913537200006,-2.9534283889999529,0],[119.88914129200009,-2.9534376689999249,0],[119.88938739700006,-2.9538321549999296,0],[119.88946960100009,-2.9543032099999778,0],[119.8894742760001,-2.9543299989999809,0],[119.88947960200005,-2.9543605159999515,0],[119.88955148800005,-2.9545481009999435,0],[119.88953898700004,-2.9549811069999805,0],[119.88957035200008,-2.9556007339999724,0],[119.8895827450001,-2.9558455579999645,0],[119.88964303000012,-2.9562899539999421,0],[119.88965349700004,-2.9563648569999259,0],[119.88973527000007,-2.956596612999931,0],[119.8897793860001,-2.9566439889999288,0],[119.88998418300002,-2.9566905459999475,0],[119.89000326300004,-2.9566878199999564,0],[119.89002232000007,-2.9566786179999553,0],[119.89007239600005,-2.9566451029999712,0],[119.89008856400005,-2.9566334279999751,0],[119.89009944100007,-2.9566211009999392,0],[119.89010372300004,-2.9566151079999372,0],[119.89011063700002,-2.9566041219999306,0],[119.89011524200009,-2.9565951359999758,0],[119.89011752600004,-2.9565834969999401,0],[119.89011696500006,-2.9565671939999447,0],[119.89011886200001,-2.9565476139999305,0],[119.89012124600004,-2.9565285229999745,0],[119.89012829100011,-2.9565176529999349,0],[119.89014215300006,-2.956505199999981,0],[119.89017298200008,-2.956486492999943,0],[119.89021617000003,-2.9564708569999425,0],[119.89026091000005,-2.9564583229999357,0],[119.89029177100008,-2.9564520329999482,0],[119.89041999200003,-2.9564827419999347,0],[119.89044931700005,-2.9564795609999805,0],[119.89048017800008,-2.9564732699999468,0],[119.89059575900001,-2.956394242999977,0],[119.89062181500003,-2.9563776949999578,0],[119.89064649500006,-2.9563620209999613,0],[119.89071044700006,-2.9563335889999394,0],[119.89084367800001,-2.9563406979999627,0],[119.89091911200001,-2.9563769179999326,0],[119.89093249900009,-2.9563833439999598,0],[119.89103197800011,-2.956449088999932,0],[119.89116698700002,-2.95671740399996,0],[119.89122556100006,-2.9566843649999441,0],[119.8912403600001,-2.9566604209999809,0],[119.89126698700011,-2.9566125369999554,0],[119.89124756700005,-2.9565466239999409,0],[119.89132814600009,-2.9563758459999576,0],[119.89134640700001,-2.9563371439999742,0],[119.89140502900011,-2.9563104899999644,0],[119.89148852000005,-2.9563247049999291,0],[119.89158977700004,-2.956370905999961,0],[119.89159287900009,-2.9563751519999641,0],[119.89162352900007,-2.9564171059999467,0],[119.89166971600002,-2.95650061799995,0],[119.89168037500008,-2.9566143429999556,0],[119.89204454200001,-2.9566836409999269,0],[119.89217244500003,-2.9566498809999757,0],[119.89224525900011,-2.9563734429999613,0],[119.89225060800004,-2.9563531369999509,0],[119.8922668030001,-2.9560291329999586,0],[119.89227192400006,-2.9559266779999689,0],[119.89288774500005,-2.9560275059999412,0],[119.8929665070001,-2.9560404009999388,0],[119.89303934000009,-2.9562767309999458,0],[119.89315125400003,-2.9562625149999349,0],[119.89323297100009,-2.9563051579999637,0],[119.89327877100004,-2.9563707359999398,0],[119.89332356800003,-2.9564348749999567,0],[119.89344969500007,-2.9565201649999722,0],[119.89349055300011,-2.9565219409999486,0],[119.89351719900003,-2.95656814299997,0],[119.89377216000003,-2.9566244449999317,0],[119.89385522800001,-2.9565811699999358,0],[119.89388637900004,-2.9565430849999643,0],[119.89421173000005,-2.956620983999926,0],[119.89442805400006,-2.9567265799999518,0],[119.89467461300001,-2.9567496629999255,0],[119.89477936300011,-2.9567594699999518,0],[119.89488320000009,-2.956551741999931,0],[119.89481263000005,-2.9563667149999446,0],[119.89476898000009,-2.9562522689999469,0],[119.89483820400005,-2.9560272309999505,0],[119.89495934500007,-2.9559077859999547,0],[119.89575022500003,-2.9562072599999283,0],[119.89584367700002,-2.9562713089999306,0],[119.89584367700002,-2.9563640099999589,0],[119.89584367700002,-2.9566919569999754,0],[119.8958075270001,-2.9568517969999562,0],[119.89576041500004,-2.9570601079999506,0],[119.89576015700004,-2.9570612519999599,0],[119.89569138400009,-2.9573653399999671,0],[119.89578051000001,-2.9574016929999516,0],[119.89586963500005,-2.9574380469999255,0],[119.89599596900007,-2.9573514909999403,0],[119.89609980300008,-2.957332451999946,0],[119.8962174830001,-2.9573861129999273,0],[119.89635073900001,-2.9574761279999393,0],[119.89644592200011,-2.9575072889999774,0],[119.89653591400008,-2.9574622809999482,0],[119.89661551900008,-2.9574657419999539,0],[119.89664036000011,-2.9574861439999722,0],[119.89677992600002,-2.957600766999974,0],[119.89697029000001,-2.9576094209999724,0],[119.89712258300005,-2.957555756999966,0],[119.89716236300001,-2.9571986349999406,0],[119.89718238300009,-2.9570189039999377,0],[119.8971902830001,-2.9569479779999597,0],[119.89719180600002,-2.9569343069999263,0],[119.89725309200003,-2.9569478129999425,0],[119.89739601500003,-2.9569793139999661,0],[119.89752408100003,-2.9571472289999292,0],[119.8975829200001,-2.9571610749999309,0],[119.89770463800005,-2.9569466279999688,0],[119.89773521200004,-2.9568927619999386,0],[119.89774504800005,-2.9568067669999323,0],[119.89774683700011,-2.9567911259999278,0],[119.89775932100008,-2.9566819759999703,0],[119.89777681400005,-2.9565290319999349,0],[119.89777713000001,-2.9565262669999584,0],[119.89778193800009,-2.9564842289999547,0],[119.89772828900004,-2.9561553269999763,0],[119.89778193800009,-2.9557969989999719,0],[119.8977727460001,-2.9557118309999737,0],[119.89774905700006,-2.95549232999997,0],[119.89776290100008,-2.955355577999967,0],[119.89780950300008,-2.9552277199999253,0],[119.8978840420001,-2.9550232129999472,0],[119.89789442600011,-2.9549037699999303,0],[119.89784136600008,-2.9547098419999429,0],[119.89780443600011,-2.9545748699999308,0],[119.89780962600003,-2.9543844519999425,0],[119.89781789500012,-2.9543634789999373,0],[119.89785808300007,-2.9542615469999305,0],[119.89786327500008,-2.9540693979999446,0],[119.89788608400011,-2.9538156909999316,0],[119.89790654000001,-2.9535881629999494,0],[119.89788771100007,-2.9535371549999354,0],[119.89779300200007,-2.9532805819999339,0],[119.8977819370001,-2.9532506059999264,0],[119.89783558700003,-2.9530117199999495,0],[119.89803114400002,-2.9525858789999688,0],[119.89803596800004,-2.9525361769999563,0],[119.89804845000003,-2.9524075789999529,0],[119.8979965310001,-2.9522552449999466,0],[119.89804458600008,-2.952103726999951,0],[119.89807613800008,-2.9520042409999405,0],[119.89792211500003,-2.9519176889999699,0],[119.89790827100001,-2.9518345969999586,0],[119.89800300800005,-2.9515472519999548,0],[119.89807950200009,-2.9513152389999391,0],[119.89814364000006,-2.9511207039999476,0],[119.89817651300007,-2.9510209989999794,0],[119.89857800800007,-2.9507094069999766,0],[119.89866354100002,-2.9505981839999436,0],[119.89871645700009,-2.9505293749999737,0],[119.89884625000002,-2.9502385579999668,0],[119.89911413000004,-2.9499515299999644,0],[119.89935677400001,-2.9496915429999717,0],[119.89942772900008,-2.9495305539999777,0],[119.89961636400005,-2.9495980649999751,0],[119.89982230500004,-2.949402455999973,0],[119.89989326000011,-2.9492605079999521,0],[119.89988669600007,-2.9492442669999264,0],[119.89987800900008,-2.9492227739999635,0],[119.89986037600011,-2.9491791479999279,0],[119.89989152600003,-2.9491272149999759,0],[119.90018053600011,-2.9491583749999677,0],[119.90032628200004,-2.9492215989999409,0],[119.90037558400002,-2.9492429849999553,0],[119.90051973100003,-2.949305514999935,0],[119.90068661800001,-2.949242169999934,0],[119.90074369700005,-2.9492205059999606,0],[119.90090738400011,-2.9491583739999783,0],[119.90119120000008,-2.9491358709999531,0],[119.9012740710001,-2.9490797579999253,0],[119.90132112700007,-2.948895302999972,0],[119.90134437200004,-2.9486896469999806,0],[119.90138167300006,-2.9484026719999292,0],[119.90159017600001,-2.9481152499999439,0],[119.90156183700003,-2.9477753399999642,0],[119.90154354700007,-2.9475559629999566,0],[119.90159305400005,-2.9473908789999541,0],[119.90174958000011,-2.9472326869999392,0],[119.90179402800004,-2.9470974529999694,0],[119.90178576800008,-2.946956370999942,0],[119.90184181500001,-2.9467918679999343,0],[119.90195750100008,-2.9467019159999381,0],[119.9020197860001,-2.946650950999981,0],[119.90204341700007,-2.946594111999957,0],[119.90206395200005,-2.9464894669999353,0],[119.9020874900001,-2.9463967689999322,0],[119.9021497440001,-2.946333850999963,0],[119.90221433200009,-2.9463083509999706,0],[119.90235313000005,-2.9461553189999563,0],[119.90243100300006,-2.9459256149999646,0],[119.90245873700007,-2.9456171509999649,0],[119.90257216500004,-2.9453443219999258,0],[119.90286413300009,-2.9451499139999555,0],[119.90285623700004,-2.9448558869999601,0],[119.90299821700012,-2.944590155999947,0],[119.90323339600002,-2.9445034759999658,0],[119.90336122100007,-2.9442808119999313,0],[119.90346060500008,-2.9440940829999249,0],[119.90353844000003,-2.9438500339999791,0],[119.90368777700007,-2.9436703459999762,0],[119.90382267900009,-2.9434261489999471,0],[119.90391491100002,-2.9432322659999386,0],[119.90407862600011,-2.943095570999958,0],[119.9041634460001,-2.9427941289999353,0],[119.90429825500007,-2.9425140719999376,0],[119.90445483600001,-2.9423773959999266,0],[119.90451866500007,-2.9422337909999783,0],[119.90460367100002,-2.9420040689999496,0],[119.90466019900009,-2.9417959349999592,0],[119.90473859200006,-2.9417670429999703,0],[119.90482333700004,-2.9414369149999402,0],[119.90491525400012,-2.9411211109999726,0],[119.90490037400002,-2.9408844769999405,0],[119.90477855000006,-2.9406696389999638,0],[119.90480673100001,-2.9405332989999806,0],[119.90503492300002,-2.9405040159999771,0],[119.90517714500004,-2.9403315179999368,0],[119.90522646500006,-2.940094715999976,0],[119.90525446000004,-2.9398866579999776,0],[119.90527532200008,-2.9396786189999489,0],[119.90526770600002,-2.9394921699999372,0],[119.90522975700003,-2.9392229239999779,0],[119.90467371000011,-2.9390853749999337,0],[119.90476816500006,-2.9388317199999392,0],[119.90449200900002,-2.9387033479999332,0],[119.90456070700009,-2.9383873499999709,0],[119.90457424800002,-2.9382941109999479,0],[119.90435718800006,-2.9381923739999252,0],[119.90425438800003,-2.9383413999999561,0],[119.90388967300009,-2.9381321219999563,0],[119.90379215300004,-2.9382153529999755,0],[119.90376635000007,-2.9382048909999412,0],[119.90369389200009,-2.9382843419999745,0],[119.90357375500002,-2.93825017599994,0],[119.90353575300003,-2.9382393679999268,0],[119.90350386200009,-2.9382860769999297,0],[119.90328729700002,-2.9382050709999703,0],[119.90331798200009,-2.9381344779999381,0],[119.90328682500001,-2.9380254689999674,0],[119.90299401800007,-2.9379303749999508,0],[119.90288666200001,-2.9378845699999374,0],[119.90278163000005,-2.9378371259999767,0],[119.90273975400009,-2.9377640009999482,0],[119.90277202800007,-2.9376912289999382,0],[119.90260731700005,-2.9375929379999661,0],[119.90266771900008,-2.9374673569999459,0],[119.90255221900009,-2.937376325999935,0],[119.90248100800011,-2.9373934399999371,0],[119.90224606300001,-2.9372061389999544,0],[119.90213439900003,-2.9372546099999681,0],[119.9020447900001,-2.9371233129999723,0],[119.90134010700001,-2.9370400909999717,0],[119.90073314800009,-2.9370277309999437,0],[119.90008200900002,-2.9374992949999523,0],[119.89932251800008,-2.9371102499999324,0],[119.89906485300003,-2.9367152469999382,0],[119.89720127700002,-2.9361773499999799,0],[119.8971072600001,-2.9361244359999432,0],[119.89689389900002,-2.9361782999999377,0],[119.89659399000004,-2.9360595489999355,0],[119.8963177710001,-2.9359072679999372,0],[119.89613220500007,-2.9358695009999565,0],[119.89593746000003,-2.9359608519999369,0],[119.89553931000012,-2.9364734889999795,0],[119.89506944300001,-2.9368380919999595,0],[119.89446282200004,-2.9376524929999732,0],[119.8940186640001,-2.9381369989999371,0],[119.89316782100002,-2.9386670719999302,0],[119.89258079700005,-2.9386597389999451,0],[119.89196956700005,-2.9369470709999632,0],[119.89186158400003,-2.93638124499995,0],[119.89166213700003,-2.9357544539999481,0],[119.89143884600003,-2.9351414299999306,0],[119.89142580900011,-2.9345103299999664,0],[119.8913773810001,-2.9334317909999754,0],[119.89140739200002,-2.9330349829999705,0],[119.89142286000003,-2.9323923339999283,0],[119.89167087400006,-2.9311925369999585,0],[119.8916928750001,-2.9308711739999467,0],[119.89170333100003,-2.9304982049999353,0],[119.89177026400012,-2.9298955859999296,0],[119.89176355500001,-2.92950544699994,0],[119.89171695900006,-2.9291383629999359,0],[119.89168765900001,-2.9288400859999797,0],[119.89168117200006,-2.9285360109999488,0],[119.89162275000001,-2.9280083049999348,0],[119.89158190500007,-2.9276584189999539,0],[119.89160974700008,-2.9273886799999786,0],[119.89177443100004,-2.9270726869999635,0],[119.89205252700003,-2.9264752559999465,0],[119.89215377500011,-2.9259012359999588,0],[119.89231836200008,-2.9252971069999489,0],[119.89257406700006,-2.9251198369999543,0],[119.89282479300005,-2.9249757469999622,0],[119.8930350710001,-2.924636684999939,0],[119.89299474200004,-2.9244876129999398,0],[119.89313051000011,-2.924022516999969,0],[119.89331777000007,-2.9236089259999289,0],[119.89351220600008,-2.9229520439999419,0],[119.89367050100009,-2.9223702269999308,0],[119.89346785700002,-2.9219767729999262,0],[119.8932747450001,-2.9217256599999359,0],[119.89279352200003,-2.9216074899999285,0],[119.89262582400011,-2.9214893469999765,0],[119.89241614900004,-2.9213215889999447,0],[119.8922708660001,-2.9210427349999577,0],[119.89219748100004,-2.9207348249999541,0],[119.89206947100001,-2.9208385079999744,0],[119.89204820500004,-2.9208538629999339,0],[119.89174653000009,-2.9207123519999527,0],[119.89175908300001,-2.9200533269999482,0],[119.89160206400004,-2.9196482779999542,0],[119.89168163900001,-2.9196129019999262,0],[119.89177801100004,-2.9195707479999555,0],[119.89180819700005,-2.9194731309999611,0],[119.89175666600011,-2.9194063259999439,0],[119.89163861600002,-2.9193626429999426,0],[119.89137793500004,-2.9193327169999748,0],[119.89134721100004,-2.9192199579999283,0],[119.89138486800005,-2.9190687699999671,0],[119.89138831600008,-2.9189291479999611,0],[119.89132920000009,-2.9188719249999622,0],[119.89132120000011,-2.9187189429999307,0],[119.89126017300009,-2.9186578989999248,0],[119.89127381600008,-2.9185339139999655,0],[119.89001454800007,-2.9180429929999718,0],[119.88918235200003,-2.9177866049999466,0],[119.88906577400007,-2.917785098999957,0],[119.88661339800001,-2.9177534259999334,0],[119.88438516100007,-2.9177564439999628,0],[119.88393288100008,-2.9177353289999246,0],[119.88348964600004,-2.916945056999964,0],[119.8832604910001,-2.9169631539999727,0],[119.88309766900011,-2.9172225579999349,0],[119.88263031300005,-2.9170476129999656,0],[119.8823322070001,-2.9168128479999496,0],[119.88219580400005,-2.9167783929999587,0],[119.88175508200004,-2.9163583489999496,0],[119.88179454100009,-2.9164774619999321,0],[119.88183048200005,-2.9165849499999581,0],[119.88183076200005,-2.9166949199999408,0],[119.88182633000008,-2.9168216379999308,0],[119.88178419400003,-2.9170823299999711,0],[119.88175126400006,-2.9172234649999496,0],[119.88174449600001,-2.917366923999964,0],[119.88173283900005,-2.9174577989999761,0],[119.88168794100011,-2.9175678859999721,0],[119.88159793900002,-2.917706776999978,0],[119.88151499000003,-2.9178145709999512,0],[119.88147008700003,-2.9179222669999376,0],[119.88134689300011,-2.9180994949999786,0],[119.8811949950001,-2.9182098579999547,0],[119.88106210100011,-2.9183129999999551,0],[119.88101242900007,-2.9184159269999554,0],[119.88096270900007,-2.9184997289999615,0],[119.88088218700011,-2.918626642999925,0],[119.88084204500001,-2.9187367179999342,0],[119.88082082800008,-2.9188084929999718,0],[119.88071891200002,-2.9189378509999528,0],[119.88049798500003,-2.9190197049999256,0],[119.88021042500009,-2.9190802109999368,0],[119.88007039100012,-2.919180980999954,0],[119.88003024900001,-2.9192910559999632,0],[119.88003605500012,-2.9195167209999795,0],[119.88004778000004,-2.9196390939999333,0],[119.88010528600012,-2.9198110759999736,0],[119.8801550070001,-2.9199142239999674,0],[119.88034583000001,-2.9202731319999771,0],[119.88040073900004,-2.920359054999949,0],[119.8804628900001,-2.9204879929999379,0],[119.88058917500007,-2.9205904649999752,0],[119.88062495200006,-2.9206334049999327,0],[119.88066788000003,-2.9206834989999493,0],[119.88070373000005,-2.9207551269999499,0],[119.88071574100002,-2.9208029099999635,0],[119.88073026400002,-2.9209032819999265,0],[119.88075901100001,-2.9209868809999762,0],[119.88075673000003,-2.9210251369999582,0],[119.88070952800001,-2.9211639199999695,0],[119.88068128100008,-2.9212763539999287,0],[119.8806790860001,-2.9213480799999729,0],[119.8807672050001,-2.921402837999949,0],[119.88081729700002,-2.9214648669999406,0],[119.88089364900009,-2.9215674699999568,0],[119.8809151160001,-2.9215937109999572,0],[119.88095805700004,-2.921648586999936,0],[119.88099385200007,-2.9216986979999433,0],[119.88101303300004,-2.921760805999952,0],[119.88097507900011,-2.9217967649999537,0],[119.88088958900005,-2.9218400169999654,0],[119.8807542620001,-2.9219216499999447,0],[119.88072121700009,-2.9220173629999522,0],[119.88075489000005,-2.9221678889999794,0],[119.88074800700008,-2.9222659239999302,0],[119.88071498600004,-2.9223711989999401,0],[119.88070607300006,-2.9226055089999363,0],[119.88070635300005,-2.9227154799999653,0],[119.88069027000006,-2.9229354639999769,0],[119.8806452020001,-2.9229786119999517,0],[119.88058827500004,-2.9230337439999516,0],[119.88056229600011,-2.9231031409999559,0],[119.88056258900008,-2.9232178929999577,0],[119.88057698400007,-2.9232680609999306,0],[119.88060326800007,-2.9233181969999578,0],[119.88062950900007,-2.9233515989999432,0],[119.88068435700006,-2.9234136149999586,0],[119.88075102100004,-2.9234469129999638,0],[119.88078451700005,-2.9235281099999497,0],[119.88076805000003,-2.9235974819999342,0],[119.88070875800008,-2.9236574019999466,0],[119.88066135400004,-2.9237172909999458,0],[119.88063546100011,-2.923820156999966,0],[119.8806475450001,-2.9238966279999659,0],[119.88068115800002,-2.924023247999969,0],[119.8807123680001,-2.9241403099999275,0],[119.88069826600008,-2.9242048939999563,0],[119.88066512400007,-2.9242623569999751,0],[119.88056304300005,-2.9243271679999339,0],[119.88053699700004,-2.9243702679999615,0],[119.88047305900011,-2.9244732319999684,0],[119.88044699500006,-2.9245091589999674,0],[119.88043999600006,-2.9245617719999473,0],[119.88041871700011,-2.9246096419999503,0],[119.88033797000003,-2.9246480999999562,0],[119.88030953400005,-2.924686425999937,0],[119.88021205600012,-2.924691457999927,0],[119.88020984900004,-2.9247584019999522,0],[119.88025220400004,-2.9247700879999456,0],[119.88016508200008,-2.9249194909999687,0],[119.88010042600001,-2.9249273079999512,0],[119.88005486900011,-2.9249656769999319,0],[119.87997146400005,-2.9250806439999337,0],[119.88004795400002,-2.9252372769999511,0],[119.8800311760001,-2.9253711969999472,0],[119.87998765400005,-2.9254611999999725,0],[119.87997823500007,-2.9254975619999755,0],[119.87991384200006,-2.9256086559999517,0],[119.87989303500001,-2.9256546109999704,0],[119.87985129800006,-2.9256987069999809,0],[119.87978486100008,-2.9257543429999373,0],[119.87973552000005,-2.9258003719999692,0],[119.87970146000009,-2.9258712229999446,0],[119.87968822800008,-2.925903769999934,0],[119.87963504300001,-2.9259345079999548,0],[119.87953425300009,-2.9259462449999774,0],[119.87947339100003,-2.9259502269999302,0],[119.87934215600001,-2.9259582149999801,0],[119.8792508680001,-2.9259661019999612,0],[119.87922048100006,-2.9259853059999728,0],[119.87911410100003,-2.926042956999936,0],[119.87901527500003,-2.9260785929999429,0],[119.87893911200001,-2.9260501009999302,0],[119.87879149300011,-2.9259739809999701,0],[119.87871036600006,-2.9258642179999583,0],[119.87865320100002,-2.9258261159999392,0],[119.87843924800006,-2.9258457919999614,0],[119.8783013960001,-2.9258700559999511,0],[119.87821311700009,-2.9259391349999646,0],[119.87802786000009,-2.9260228079999706,0],[119.87797926500002,-2.9259885079999322,0],[119.87790769700007,-2.9258968909999794,0],[119.87774763700008,-2.9257911569999351,0],[119.87758495100002,-2.9257743629999595,0],[119.87741660900008,-2.9257776669999771,0],[119.87725691600008,-2.9258153729999776,0],[119.87712288800003,-2.9258472759999563,0],[119.8770028560001,-2.9257729959999779,0],[119.87694570800011,-2.9257415869999477,0],[119.87676855000007,-2.9256445029999441,0],[119.87667716200008,-2.9256131819999496,0],[119.87650020900003,-2.9255964249999806,0],[119.87637785000004,-2.925728706999962,0],[119.87616412500006,-2.9258382739999433,0],[119.87596438900005,-2.9258387879999646,0],[119.87586161600007,-2.925818971999945,0],[119.87567609600001,-2.9257993679999572,0],[119.87520222300009,-2.9257173929999567,0],[119.87517605300002,-2.9257080879999648,0],[119.8750242000001,-2.9256541009999637,0],[119.87496709600009,-2.9256399029999329,0],[119.87481723300004,-2.9256163819999301,0],[119.87468166700012,-2.925604777999979,0],[119.8745674160001,-2.9255596489999789,0],[119.87442450900005,-2.9254667799999652,0],[119.87434110300001,-2.9253952759999606,0],[119.8742673050001,-2.9253619949999461,0],[119.87418881300005,-2.925352633999978,0],[119.87409370100011,-2.925352878999945,0],[119.87401526300005,-2.9253650349999702,0],[119.87396529200009,-2.9253508199999487,0],[119.8739153460001,-2.9253461669999297,0],[119.87388681200002,-2.9253462399999535,0],[119.87385596800004,-2.9253726169999368,0],[119.87377028700007,-2.9253417599999807,0],[119.87373936300003,-2.9253370569999788,0],[119.87369416100012,-2.9253276119999327,0],[119.87362039300001,-2.9253062849999765,0],[119.87359897500005,-2.9252991689999703,0],[119.87353949300007,-2.9252849779999792,0],[119.87346101300011,-2.9252803969999377,0],[119.87342766200004,-2.9252565759999243,0],[119.87340147600003,-2.9252446909999321,0],[119.87334438400001,-2.9252352759999667,0],[119.87326826300011,-2.9252235169999494,0],[119.87319680100006,-2.9251734979999355,0],[119.8731633650001,-2.9251162059999274,0],[119.87315131200012,-2.9250516879999395,0],[119.87318301000005,-2.9249870579999424,0],[119.8726696010001,-2.9247104379999769,0],[119.87265829300009,-2.9246769969999491,0],[119.87258400200005,-2.9246365469999773,0],[119.87255616200002,-2.9245561469999757,0],[119.87255028400011,-2.924451544999954,0],[119.87251205100006,-2.9243775309999478,0],[119.87244527700011,-2.9243012009999347,0],[119.87235949900003,-2.9242320919999543,0],[119.87226899000007,-2.9241725579999525,0],[119.87221861400008,-2.9241237579999506,0],[119.87222568800007,-2.9239133579999361,0],[119.87225588000001,-2.9238176519999683,0],[119.87229747700007,-2.9237180909999552,0],[119.87199678400009,-2.9236653139999476,0],[119.87182925000002,-2.9236121939999293,0],[119.87176444700003,-2.9235626339999499,0],[119.87165394100009,-2.9234940659999324,0],[119.87166125800002,-2.9233792929999254,0],[119.87168005600006,-2.9232912659999784,0],[119.87168364700005,-2.9232071049999604,0],[119.8716681950001,-2.9231153409999706,0],[119.87159951900003,-2.9230390159999615,0],[119.87142855000002,-2.9231312589999447,0],[119.87137176500005,-2.9232423329999619,0],[119.87119332300006,-2.9233881459999793,0],[119.87097682600006,-2.9235302329999513,0],[119.87089992200004,-2.9235844599999723,0],[119.87052912800004,-2.923642789999974,0],[119.86968957700003,-2.9233867529999316,0],[119.86925586200005,-2.9233878679999634,0],[119.86907650100011,-2.9233834879999563,0],[119.86899124200011,-2.9230313429999342,0],[119.86894816100005,-2.922921482999925,0],[119.86880506700004,-2.9227544999999395,0],[119.86867159300004,-2.9226305259999776,0],[119.86813364600005,-2.9224119639999344,0],[119.86731220000001,-2.921946003999949,0],[119.86744894900005,-2.9214866379999762,0],[119.86741061200007,-2.9213719809999361,0],[119.86740548000012,-2.9212237699999264,0],[119.86739101900002,-2.9211473059999662,0],[119.86734308000007,-2.9210688099999516,0],[119.86718117600003,-2.9209135549999701,0],[119.86701417000006,-2.9206940369999757,0],[119.86690409900007,-2.920421777999934,0],[119.86675137200007,-2.9202070059999414,0],[119.86670835300004,-2.9201210509999669,0],[119.86680780900008,-2.9199582269999382,0],[119.86680272600006,-2.9198291419999691,0],[119.86675954900011,-2.9196810289999462,0],[119.86672123700009,-2.9195759359999442,0],[119.86664483200002,-2.9194518159999348,0],[119.86655890300005,-2.9193229369999472,0],[119.86647780200008,-2.9192227359999379,0],[119.8664301120001,-2.9191702609999766,0],[119.86629190800011,-2.9190558609999471,0],[119.86600789200008,-2.9188280379999583,0],[119.86593342800006,-2.9187192129999744,0],[119.86591033900004,-2.9186159919999568,0],[119.86583554000003,-2.9183751999999572,0],[119.86577790500007,-2.9181515779999359,0],[119.86537716700002,-2.9176534229999334,0],[119.86533687100007,-2.9175158219999275,0],[119.86529095500009,-2.9174126599999681,0],[119.86511333300007,-2.9171319679999783,0],[119.86502350800004,-2.9169665689999533,0],[119.86487473900002,-2.9168120309999495,0],[119.86464032600009,-2.9166404999999713,0],[119.86448559000007,-2.9163826979999499,0],[119.86426238700005,-2.9161308109999595,0],[119.8640852310001,-2.9160337229999413,0],[119.86392541200007,-2.9160226559999387,0],[119.86385087600001,-2.9158851409999329,0],[119.86368538000011,-2.9158855649999396,0],[119.86352553200004,-2.9158630219999395,0],[119.8634740120001,-2.9158000389999756,0],[119.86345083600008,-2.9156623939999804,0],[119.86334190000002,-2.915461850999975,0],[119.86329594100005,-2.9153414779999594,0],[119.86323277400004,-2.9151867199999515,0],[119.86318683000002,-2.9150720829999273,0],[119.8631179570001,-2.9149173399999313,0],[119.8628951610001,-2.9148261069999535,0],[119.86260408700002,-2.9148153749999324,0],[119.86247845200012,-2.9147812699999349,0],[119.86251805100005,-2.9146434629999476,0],[119.86240917200007,-2.9144658729999264,0],[119.86228880800002,-2.9142596219999746,0],[119.86210006400006,-2.9140937109999641,0],[119.8617736330001,-2.9136412629999313,0],[119.86165344300002,-2.9135038649999387,0],[119.86153896000008,-2.9133664519999343,0],[119.86135608300003,-2.9132636389999789,0],[119.86127035100003,-2.913212218999945,0],[119.86120711300009,-2.9130287729999509,0],[119.86136643800012,-2.9128447579999488,0],[119.86137184100005,-2.9127242529999648,0],[119.86122327700002,-2.9126500409999494,0],[119.86105770800009,-2.9126217759999804,0],[119.86095472600005,-2.9125187589999655,0],[119.8607885780001,-2.9122609859999784,0],[119.86074248900002,-2.9120889719999354,0],[119.86074199600012,-2.9118938899999307,0],[119.86074164900003,-2.9117561849999447,0],[119.86073555100006,-2.9116012819999355,0],[119.86063843500006,-2.9115613639999651,0],[119.86070640900004,-2.9113603699999544,0],[119.8607631000001,-2.9112110439999697,0],[119.86083175700003,-2.9111416629999667,0],[119.86053118500001,-2.9110897859999341,0],[119.86034096000003,-2.9110902719999672,0],[119.86022684900001,-2.9111001259999512,0],[119.86019347500007,-2.911066739999967,0],[119.86014101800004,-2.9110094969999523,0],[119.8601124600001,-2.9110000069999273,0],[119.85994116100005,-2.9109621919999427,0],[119.85984119600005,-2.9109241959999395,0],[119.85981740600005,-2.910919473999968,0],[119.85974124400002,-2.9108909799999765,0],[119.85968881100007,-2.9108432989999642,0],[119.85965062100001,-2.9107860189999428,0],[119.85957449500006,-2.9107718689999729,0],[119.85947483200005,-2.9108534079999799,0],[119.85931777500002,-2.9108059939999293,0],[119.85931299600009,-2.9107964429999811,0],[119.85928432900005,-2.910743919999959,0],[119.85926045400004,-2.9107057309999504,0],[119.85924600700002,-2.9106340459999274,0],[119.85923647100003,-2.9106245069999659,0],[119.85922209600005,-2.910581509999929,0],[119.85920290400009,-2.9105146179999792,0],[119.85917903000006,-2.9104764279999245,0],[119.85916464200011,-2.9104286499999716,0],[119.8591312320001,-2.9103809209999554,0],[119.85909312700005,-2.9103571099999499,0],[119.85901219700008,-2.9103238459999261,0],[119.85891230400011,-2.910314537999966,0],[119.85880302100009,-2.9103530689999388,0],[119.85873651500003,-2.9103819259999568,0],[119.85866532500006,-2.9104394849999267,0],[119.85861782900008,-2.9104635139999573,0],[119.85855610200008,-2.9105019239999592,0],[119.85848954800008,-2.9105116549999366,0],[119.8584372360001,-2.9105117889999406,0],[119.85837547300002,-2.9105358529999421,0],[119.85834691500008,-2.9105263639999635,0],[119.85830405400009,-2.9105025659999342,0],[119.85825637700009,-2.9104548729999351,0],[119.85819445700008,-2.9104167779999557,0],[119.85809504000008,-2.9103868879999482,0],[119.85805578600002,-2.9105949739999346,0],[119.85802616900003,-2.9106368869999528,0],[119.85799650700005,-2.9106608699999583,0],[119.85789258300008,-2.9107029719999673,0],[119.85768771400001,-2.9107901579999407,0],[119.85756891400001,-2.9108263219999344,0],[119.85745903700001,-2.9108654509999496,0],[119.85733434500003,-2.9109225489999631,0],[119.85678536300009,-2.9112765819999709,0],[119.85676456400006,-2.9112796219999382,0],[119.85672293000005,-2.9112707629999477,0],[119.85670208600004,-2.911255874999938,0],[119.8565053960001,-2.9110501749999571,0],[119.85593506500004,-2.910499194999943,0],[119.85586667000007,-2.9105337959999247,0],[119.85568967400002,-2.9104998199999272,0],[119.85556110500011,-2.910434162999934,0],[119.85548397000002,-2.9103970639999375,0],[119.85544100300001,-2.9103311889999759,0],[119.85537502800003,-2.9101936509999291,0],[119.8553119720001,-2.9100819259999753,0],[119.85524334600007,-2.9100247229999354,0],[119.85512331600012,-2.909950437999953,0],[119.8549251280001,-2.909857547999934,0],[119.85482294900009,-2.9096577889999367,0],[119.85475816300004,-2.909363654999936,0],[119.85456160400008,-2.9089793159999431,0],[119.85433507400012,-2.9085380829999394,0],[119.8542376260001,-2.9083661979999533,0],[119.85403748500005,-2.9082060499999329,0],[119.85381183600009,-2.9081148199999802,0],[119.85358328400002,-2.908003512999926,0],[119.85338611900011,-2.9078921289999471,0],[119.85319259400001,-2.9079685099999324,0],[119.85296130300003,-2.9080280459999699,0],[119.85259995200011,-2.9081034059999524,0],[119.85244178500011,-2.9079490379999697,0],[119.85224441800005,-2.9077573229999416,0],[119.85202105300004,-2.9074394439999764,0],[119.85195702300007,-2.9072921549999364,0],[119.85190301700004,-2.9071025369999575,0],[119.85183282500009,-2.9070239329999481,0],[119.85171233400001,-2.9067660389999332,0],[119.85133519700003,-2.9065719119999471,0],[119.85100939200004,-2.9063661799999636,0],[119.85074689500004,-2.9063725839999393,0],[119.85054153700003,-2.9064075309999566,0],[119.85012494200009,-2.906408588999966,0],[119.84996503700006,-2.9063630919999355,0],[119.84933136800009,-2.9062786329999426,0],[119.84901186000002,-2.906308132999925,0],[119.84845275300006,-2.906372666999971,0],[119.84793919900005,-2.9063969209999527,0],[119.84785891600006,-2.9062422049999554,0],[119.84785847000001,-2.9060643329999607,0],[119.84789788500007,-2.9058519359999764,0],[119.84793160700008,-2.9056452889999491,0],[119.84794264700008,-2.9054960779999419,0],[119.84787965600003,-2.9054101709999713,0],[119.84792490700011,-2.9052493969999773,0],[119.84802682400004,-2.9049278219999337,0],[119.8480264640001,-2.9047843779999312,0],[119.84802604700008,-2.9046179829999801,0],[119.84800855300011,-2.9044688439999504,0],[119.84791117800012,-2.9043256469999505,0],[119.84787078400007,-2.9041478759999677,0],[119.84780172800004,-2.9039185389999602,0],[119.84777858400003,-2.9037923669999373,0],[119.84774382600006,-2.9035858929999563,0],[119.84782359100006,-2.9035340509999514,0],[119.84782314500001,-2.9033561799999461,0],[119.84787430500012,-2.9032757219999326,0],[119.84795408500008,-2.9032296169999654,0],[119.84810795200008,-2.9031431609999458,0],[119.84806166500005,-2.9028908139999317,0],[119.84792417100005,-2.9026788639999381,0],[119.84791205300007,-2.9023977419999483,0],[119.84789013000011,-2.9021281549999571,0],[119.84776516300008,-2.901961531999973,0],[119.84766139500005,-2.9018231749999472,0],[119.84737957000004,-2.9016990799999576,0],[119.84717421200003,-2.9017340259999287,0],[119.84688881600005,-2.9017117969999617,0],[119.84651206800004,-2.9016725869999505,0],[119.8461177690001,-2.9014612849999253,0],[119.84588346100008,-2.9013299069999334,0],[119.84560362800005,-2.9012502859999358,0],[119.8452324860001,-2.9011708949999502,0],[119.84457569000006,-2.9009659949999786,0],[119.84415281400004,-2.9007375509999633,0],[119.84338754500004,-2.9005157099999792,0],[119.84301620300005,-2.9003559889999337,0],[119.84277156600001,-2.900214516999938,0],[119.84256015200003,-2.9001098569999613,0],[119.84258625700011,-2.8999469319999776,0],[119.84263830700002,-2.8998416079999743,0],[119.84267129800003,-2.899721986999964,0],[119.84270442000002,-2.8996549609999533,0],[119.84272790000011,-2.8995353649999629,0],[119.8426990910001,-2.8994254619999538,0],[119.84262283300006,-2.8993587129999696,0],[119.84235122200005,-2.8994013959999734,0],[119.84158110700002,-2.8995238349999681,0],[119.84106772500002,-2.8996169359999726,0],[119.84038291000002,-2.8996186649999345,0],[119.84001189600008,-2.899590911999951,0],[119.83965222500001,-2.8995344409999575,0],[119.83938945400007,-2.89943182199994,0],[119.83918907200007,-2.899174124999945,0],[119.83904023700006,-2.8989908889999469,0],[119.83895918500002,-2.8985664489999294,0]]],[[[119.8647293030001,-2.8809928839999657,0],[119.86477473100001,-2.8808974049999279,0],[119.86481294200007,-2.880832977999944,0],[119.86487017000002,-2.880768603999968,0],[119.86492265700008,-2.8806994339999505,0],[119.86496561600006,-2.8806374109999524,0],[119.86499441700005,-2.8805371049999735,0],[119.86500178400001,-2.8804510799999434,0],[119.86499016000005,-2.8803554429999281,0],[119.86494754800003,-2.8802907919999257,0],[119.86483836200011,-2.8802307369999767,0],[119.86480983700005,-2.8802306579999595,0],[119.86463381600004,-2.8802708039999629,0],[119.86460046400009,-2.8802970029999528,0],[119.8645670730001,-2.8803375419999497,0],[119.86447642100006,-2.8804544079999346,0],[119.86440714300011,-2.8805785009999454,0],[119.86433325500002,-2.880649999999946,0],[119.86385244900009,-2.8808757309999464,0],[119.86349541900006,-2.8810420519999411,0],[119.8630693990001,-2.8812272999999777,0],[119.86292912800002,-2.8812340819999349,0],[119.86279838500002,-2.8812337199999547,0],[119.86264149300007,-2.8812332849999507,0],[119.86249163500008,-2.8812687219999589,0],[119.86215990400001,-2.881397824999965,0],[119.86207183900001,-2.8814382139999566,0],[119.86200284200004,-2.8814595329999406,0],[119.8619291120001,-2.8814736689999449,0],[119.86182939600008,-2.8814279809999448,0],[119.86177716400005,-2.8814039349999803,0],[119.86173679900003,-2.8813870929999439,0],[119.86168451500009,-2.8813821669999697,0],[119.86162033800008,-2.8813795989999562,0],[119.86149674700005,-2.8813720869999315,0],[119.86140166700011,-2.8813694339999643,0],[119.86134934400002,-2.8813788489999297,0],[119.86132313700011,-2.8814002869999626,0],[119.86130394200006,-2.8814647669999545,0],[119.86129903100004,-2.8815221159999282,0],[119.86119207200011,-2.8815701229999604,0],[119.86113592000004,-2.8815213449999533,0],[119.86103913700003,-2.8814465049999285,0],[119.86095190500009,-2.8813563949999548,0],[119.86089688100003,-2.8813103529999466,0],[119.86082278800006,-2.8812833779999778,0],[119.86075624900002,-2.8812755449999372,0],[119.86060220500008,-2.8812770299999784,0],[119.86056409700006,-2.8813036929999498,0],[119.86053359100003,-2.8813322909999783,0],[119.86044973700007,-2.8813970699999345,0],[119.86041922100003,-2.8814294899999595,0],[119.86034675600001,-2.8815019489999258,0],[119.86028953200002,-2.881564889999936,0],[119.86023992500009,-2.8816240259999404,0],[119.8601998470001,-2.8816755409999359,0],[119.86017305000007,-2.8817385669999567,0],[119.86015006200012,-2.8817996889999336,0],[119.86012135200008,-2.8818665339999257,0],[119.86012076100008,-2.8819201929999281,0],[119.85979674500004,-2.882148448999942,0],[119.8597450200001,-2.8822668289999456,0],[119.85968225900001,-2.8823981109999295,0],[119.85961967900005,-2.8824636659999783,0],[119.85956014400006,-2.8825023389999274,0],[119.85947094300002,-2.8825230059999285,0],[119.85925793800004,-2.8825280129999555,0],[119.85900561900007,-2.8827057609999542,0],[119.85894573600001,-2.8826866649999374,0],[119.85879122200004,-2.8826862359999268,0],[119.85870197300005,-2.8827248289999261,0],[119.85866030700004,-2.8827486129999329,0],[119.85856347200001,-2.8827495949999502,0],[119.85800779100009,-2.882351162999953,0],[119.8579185530001,-2.8822871779999559,0],[119.85792714400009,-2.8822179269999424,0],[119.85792481300007,-2.8822011899999325,0],[119.85787742700006,-2.8821436949999679,0],[119.85784182300006,-2.8821244759999445,0],[119.85780151000006,-2.8820885129999283,0],[119.85777778400006,-2.8820717149999382,0],[119.85776839400012,-2.8820286669999291,0],[119.85775660700006,-2.8819927829999301,0],[119.85773529800008,-2.8819616519999727,0],[119.85769495200009,-2.8819376399999328,0],[119.85766647200001,-2.8819208299999559,0],[119.85763559600002,-2.8819111829999429,0],[119.85758329900011,-2.881911038999931,0],[119.85752153300007,-2.8818965259999345,0],[119.85748116100001,-2.8818820739999751,0],[119.85746458000006,-2.8818605169999501,0],[119.8573862070001,-2.8818340079999416,0],[119.8573577200001,-2.881819587999928,0],[119.85733876200004,-2.8817980249999664,0],[119.85731509000004,-2.8817621069999291,0],[119.85729615100001,-2.8817333729999746,0],[119.85727715400003,-2.8817261509999526,0],[119.85718444600002,-2.8817258929999525,0],[119.85712832200011,-2.881720568999981,0],[119.85705705700002,-2.8817084629999385,0],[119.85664259600003,-2.8818850049999583,0],[119.85662422100006,-2.8819887529999733,0],[119.85667747700006,-2.8820725549999793,0],[119.85672484800011,-2.8821354279999696,0],[119.85674548300005,-2.8821952379999516,0],[119.85674530300003,-2.8822609649999436,0],[119.85668824700008,-2.8824789039999246,0],[119.85660185400002,-2.882559328999946,0],[119.85655727500011,-2.8825621939999451,0],[119.85649491600009,-2.8825470809999274,0],[119.8563136680001,-2.8825435899999547,0],[119.85625417400001,-2.8825673259999576,0],[119.85620355300011,-2.8826060259999622,0],[119.85613209100006,-2.882659604999958,0],[119.85602500500011,-2.882701132999955,0],[119.85588954100001,-2.882797107999977,0],[119.85578807000002,-2.8829581589999407,0],[119.85575216600012,-2.8830476869999302,0],[119.8556389900001,-2.8831429779999667,0],[119.85550810000007,-2.8831963899999664,0],[119.85540101400011,-2.8832379209999317,0],[119.8553414380001,-2.8832915309999407,0],[119.85530566600005,-2.8833332599999721,0],[119.85528168100006,-2.8834108699999774,0],[119.85517474300002,-2.8833986229999482,0],[119.85515097100006,-2.8833985579999535,0],[119.85510326400004,-2.8834581769999659,0],[119.85509116500009,-2.8835358209999526,0],[119.85498990700012,-2.883619193999948,0],[119.85484092500008,-2.8837681609999777,0],[119.85482288300011,-2.8838457899999526,0],[119.85480484100003,-2.8839234169999486,0],[119.85469171400007,-2.88400078199993,0],[119.85454905300003,-2.8840123349999658,0],[119.85446590300012,-2.8839941789999557,0],[119.85427003600012,-2.8839040049999767,0],[119.85422247700001,-2.8839098469999271,0],[119.85409157000004,-2.8839692359999276,0],[119.85398445100009,-2.8840227149999578,0],[119.85375549600008,-2.8840788439999301,0],[119.85349970800007,-2.8841677609999579,0],[119.85330952100003,-2.884173207999936,0],[119.85314312200001,-2.8841727439999545,0],[119.85300049400007,-2.8841723489999254,0],[119.85266175300001,-2.8841714049999609,0],[119.85240621200001,-2.8841706939999767,0],[119.85225767400004,-2.8841583309999805,0],[119.85214479400008,-2.8841460659999711,0],[119.85190117100001,-2.8841334389999247,0],[119.85163377700007,-2.8841207429999258,0],[119.85143377600002,-2.8841036719999806,0],[119.84946121700011,-2.8849490529999571,0],[119.84570590800001,-2.8865434049999408,0],[119.84302577400001,-2.887684973999967,0],[119.8424407120001,-2.8880071459999499,0],[119.8420061170001,-2.8879678579999677,0],[119.84170184700008,-2.8879670079999755,0],[119.84151632600003,-2.8880047309999668,0],[119.84105469200006,-2.8882755889999316,0],[119.84101157300006,-2.8883949719999578,0],[119.84092376500007,-2.8885571519999758,0],[119.84089479000011,-2.8887195949999409,0],[119.84088475300007,-2.8889107719999743,0],[119.84087429200008,-2.8892549129999452,0],[119.84070007000003,-2.8903634179999358,0],[119.84050810100007,-2.8910129779999352,0],[119.8403921470001,-2.8916818719999355,0],[119.84025696200001,-2.8924271949999252,0],[119.84014190700009,-2.8927710419999357,0],[119.83994940600007,-2.8936118069999566,0],[119.83989145400005,-2.8939366939999331,0],[119.83987095200007,-2.894472010999948,0],[119.83987031600009,-2.8947014559999502,0],[119.83983132800006,-2.8950455159999251,0],[119.83977284500008,-2.8955616049999549,0],[119.83980960600002,-2.8960206009999752,0],[119.83985461000009,-2.8963125979999518,0],[119.84011687400005,-2.8962124819999531,0],[119.84034116000009,-2.896139236999943,0],[119.84046659400008,-2.8960930179999309,0],[119.84071378300007,-2.8960503179999364,0],[119.84083176100012,-2.8960653219999699,0],[119.84092309800008,-2.8960765679999554,0],[119.84111319100009,-2.8960225349999291,0],[119.84102718200006,-2.895852300999934,0],[119.84102372700011,-2.895611320999933,0],[119.84107435200008,-2.8953156949999652,0],[119.84125940000001,-2.8951459629999476,0],[119.8415356910001,-2.8949501789999772,0],[119.84163872800002,-2.8950761519999446,0],[119.84180172100002,-2.8952163179999388,0],[119.84201885800007,-2.8953276579999283,0],[119.84219018200008,-2.8953759989999526,0],[119.8428295330001,-2.8954518459999576,0],[119.8437573110001,-2.8956216409999342,0],[119.8439716150001,-2.8957415939999578,0],[119.84409449700001,-2.8958158769999613,0],[119.84437741800002,-2.8959901649999438,0],[119.84447193800008,-2.8961333719999516,0],[119.84459791600011,-2.8963051899999641,0],[119.84477421500003,-2.8964407789999314,0],[119.84486313100001,-2.8963036029999785,0],[119.84483025500003,-2.8960294259999273,0],[119.84485341300001,-2.8957807289999664,0],[119.84490545000006,-2.8956706239999335,0],[119.84502782300001,-2.8956703139999718,0],[119.84519521000004,-2.8956767439999567,0],[119.84521786900007,-2.8953582029999438,0],[119.84522777000006,-2.8952442539999765,0],[119.84526500300001,-2.8949190189999285,0],[119.8452408280001,-2.8943864059999669,0],[119.84520624400011,-2.8942487859999346,0],[119.84511085400004,-2.8941380959999492,0],[119.84503426300012,-2.893937464999965,0],[119.8449861580001,-2.893717636999952,0],[119.84499720800011,-2.8935213559999511,0],[119.84497100800002,-2.893363843999964,0],[119.84536420300003,-2.8928799189999381,0],[119.8455872510001,-2.8926928769999449,0],[119.84572025300008,-2.8926303829999256,0],[119.84589605600002,-2.8925677789999327,0],[119.84643298600008,-2.8923847269999783,0],[119.84645645400008,-2.8922603489999688,0],[119.84654658400007,-2.8921692729999791,0],[119.84682664000002,-2.8919581809999499,0],[119.84717329800003,-2.8917564829999378,0],[119.84723961400005,-2.8916511229999742,0],[119.84737249600005,-2.8915408129999491,0],[119.84751963300005,-2.8914256849999447,0],[119.84773831900009,-2.8913964439999518,0],[119.84788556400008,-2.8913243499999339,0],[119.84805165200009,-2.8911804869999287,0],[119.84816076800007,-2.8910750189999703,0],[119.84838826100008,-2.8907636459999253,0],[119.8490670330001,-2.8902503129999673,0],[119.84917962600002,-2.8900474339999391,0],[119.84929463600008,-2.8899829319999526,0],[119.85040662900008,-2.8904161969999791,0],[119.85078740000006,-2.890545293999935,0],[119.85137374700003,-2.8907274219999408,0],[119.8518531090001,-2.8907262099999684,0],[119.8524240270001,-2.8908242229999246,0],[119.85310156500009,-2.8909602179999752,0],[119.8537107950001,-2.8911652379999282,0],[119.85444931900008,-2.891346978999934,0],[119.8549899730001,-2.8915139189999763,0],[119.85602516500001,-2.8917965949999598,0],[119.85649952400001,-2.8920765439999627,0],[119.85679596900002,-2.891955300999939,0],[119.85712064600011,-2.8917134929999406,0],[119.85759959000006,-2.8915458869999497,0],[119.85782192000011,-2.891453518999981,0],[119.85825513800012,-2.8912573379999458,0],[119.85867903000008,-2.8910290939999754,0],[119.85867176300007,-2.8909878199999639,0],[119.85859219400004,-2.8905358679999722,0],[119.85868802900006,-2.8900651299999254,0],[119.85913738900001,-2.8894787429999269,0],[119.85950665500002,-2.8888122289999387,0],[119.85989694000011,-2.888183913999967,0],[119.85999519500001,-2.8879197299999646,0],[119.86009333400011,-2.887609642999962,0],[119.86021812400008,-2.8873071409999511,0],[119.86033151000004,-2.8870084899999711,0],[119.86051719900001,-2.8867173089999483,0],[119.86092647700002,-2.8860774709999646,0],[119.86183979500004,-2.8861784389999343,0],[119.86195770300003,-2.8861666659999514,0],[119.86233813500007,-2.886161877999939,0],[119.86265746600009,-2.8860654409999711,0],[119.8637655550001,-2.8855336169999646,0],[119.86401624300004,-2.8853723269999705,0],[119.86412455300001,-2.8853261499999689,0],[119.86435251600005,-2.885205080999981,0],[119.86447727100006,-2.8848891899999671,0],[119.86444933100006,-2.8845564729999751,0],[119.8647293030001,-2.8809928839999657,0]]]]},"properties":{"OBJECTID":5997,"NAMOBJ":"Tikala","FCODE":"BA03070040","REMARK":null,"METADATA":"TASWIL1000020260612KECAMATAN_AR","SRS_ID":"4326","KDBBPS":null,"KDCBPS":null,"KDCPUM":"73.26.09","KDEBPS":null,"KDEPUM":null,"KDPBPS":null,"KDPKAB":"73.26","KDPPUM":"73","LUASWH":21.116168199228476,"TIPADM":3,"WADMKC":"Tikala","WADMKD":null,"WADMKK":"Toraja Utara","WADMPR":"Sulawesi Selatan","WIADKC":null,"WIADKK":null,"WIADPR":null,"WIADKD":null,"UUPP":null,"SHAPE_Length":0.38951227108056691,"SHAPE_Area":0.0017176813928748555}}]}