{"type":"FeatureCollection","features":[{"type":"Feature","id":2708,"geometry":{"type":"Polygon","coordinates":[[[106.90206587400007,-6.9120434009999485,0],[106.90205400700006,-6.9120431279999366,0],[106.90200500000009,-6.9120419999999285,0],[106.90191431600005,-6.9120400789999508,0],[106.90189262300004,-6.9120396199999732,0],[106.90176900000006,-6.9120369999999411,0],[106.90176726700008,-6.9120370559999742,0],[106.90161400000005,-6.9120419999999285,0],[106.90160004900008,-6.9120427469999299,0],[106.90153301100008,-6.9120463379999251,0],[106.90152969200005,-6.9120465159999753,0],[106.90144691400008,-6.9120509509999692,0],[106.90144690100004,-6.91205109699996,0],[106.90144689100003,-6.9120512059999442,0],[106.90144682600004,-6.9120519429999376,0],[106.90144626300008,-6.9120582209999384,0],[106.90143950600009,-6.9121335909999289,0],[106.90143921900005,-6.9121367839999266,0],[106.90143783500008,-6.912152219999939,0],[106.90143651600005,-6.9121669409999527,0],[106.90143400000005,-6.9121949999999401,0],[106.90143247200007,-6.9122021839999661,0],[106.90142072900005,-6.9122574219999251,0],[106.90141734200006,-6.912273354999968,0],[106.90140700000006,-6.9123219999999606,0],[106.90134600000005,-6.9126019999999357,0],[106.90131607800004,-6.912695375999931,0],[106.90130699700006,-6.9127237149999701,0],[106.90128800000008,-6.9127829999999335,0],[106.90100900000004,-6.913633999999945,0],[106.90100892100008,-6.9136354339999571,0],[106.90100880100005,-6.9136376179999388,0],[106.90100400000006,-6.9137249999999426,0],[106.90099772500008,-6.9138222569999357,0],[106.90099645900005,-6.9138418949999618,0],[106.90099000000004,-6.9139419999999632,0],[106.90101285900005,-6.9140037189999362,0],[106.90101845000004,-6.9140188169999419,0],[106.90105000000005,-6.9141039999999521,0],[106.90109403300005,-6.9141869189999738,0],[106.90110146900008,-6.9142009219999636,0],[106.90112700000009,-6.914248999999927,0],[106.90144000000004,-6.9148439999999596,0],[106.90144100000003,-6.9151059999999802,0],[106.90143254500003,-6.9151282719999472,0],[106.90142447500006,-6.9151495329999761,0],[106.90136017900005,-6.915318913999954,0],[106.90134800000004,-6.9153509999999301,0],[106.90126141100006,-6.9156090849999714,0],[106.90124533500006,-6.9156570009999427,0],[106.90124500000007,-6.9156579999999508,0],[106.90124610400005,-6.9156674149999731,0],[106.90126365400005,-6.9158171089999314,0],[106.90127900000005,-6.9159479999999576,0],[106.90135613900009,-6.916238342999975,0],[106.90137030500006,-6.9162916629999813,0],[106.90142300000008,-6.9164899999999534,0],[106.90146439800009,-6.9166464459999588,0],[106.90147555900006,-6.9166886239999599,0],[106.90150900000003,-6.9168149999999287,0],[106.90148176200006,-6.9171399109999356,0],[106.90148100000005,-6.917148999999938,0],[106.90146406200006,-6.9172183539999423,0],[106.90139428400005,-6.917504077999979,0],[106.90138600000006,-6.9175379999999791,0],[106.90131616900004,-6.9176853259999689,0],[106.90130400000004,-6.9177109999999402,0],[106.90122600000007,-6.9178829999999607,0],[106.90115100000008,-6.9182539999999335,0],[106.90112961600005,-6.9183558869999615,0],[106.90112296200004,-6.9183875939999666,0],[106.90111700000006,-6.9184159999999792,0],[106.90117100000003,-6.9186059999999543,0],[106.90120309400004,-6.9186582069999645,0],[106.90122152100008,-6.9186881799999469,0],[106.90132100000005,-6.9188499999999635,0],[106.90147600000006,-6.9189669999999523,0],[106.90155100000004,-6.9190299999999638,0],[106.90169955800008,-6.9191521649999572,0],[106.90174800000005,-6.9191919999999527,0],[106.90177952500005,-6.9192559379999352,0],[106.90178678900008,-6.9192706699999462,0],[106.90181900000005,-6.9193359999999302,0],[106.90181749500005,-6.91937687799998,0],[106.90181690800006,-6.9193928319999713,0],[106.90181300000006,-6.9194989999999734,0],[106.90175716300007,-6.9198556099999564,0],[106.90173800000008,-6.9199779999999578,0],[106.90170375800005,-6.9200728779999281,0],[106.90159400000005,-6.9203769999999736,0],[106.90141800000004,-6.9205939999999373,0],[106.90120000000007,-6.9207219999999552,0],[106.90113139800008,-6.9207821919999333,0],[106.90110619500007,-6.920804306999969,0],[106.90104607000006,-6.9208570609999356,0],[106.90104511700008,-6.9208578969999621,0],[106.90104505900007,-6.9208579479999344,0],[106.90104500000007,-6.9208579999999529,0],[106.90104358600007,-6.9208615349999718,0],[106.90103205800006,-6.9208903549999263,0],[106.90101158200008,-6.9209415439999589,0],[106.90098700000004,-6.9210029999999279,0],[106.90098590600007,-6.9210690249999516,0],[106.90098531900009,-6.9211044009999796,0],[106.90098400000005,-6.9211839999999256,0],[106.90106000000009,-6.9212919999999372,0],[106.90115688900005,-6.9213597279999703,0],[106.90126600000008,-6.9214359999999715,0],[106.90165768700007,-6.9217589169999769,0],[106.90165860700006,-6.9217596759999651,0],[106.90165900000005,-6.9217599999999493,0],[106.90171510100004,-6.9218820639999308,0],[106.90175000000005,-6.921957999999961,0],[106.90175073000006,-6.9220042659999308,0],[106.90175112500003,-6.9220293039999774,0],[106.90175300000004,-6.922147999999936,0],[106.90167111300008,-6.9223979689999737,0],[106.90165800000005,-6.9224379999999428,0],[106.90165798400005,-6.9224380329999349,0],[106.90164434200005,-6.9224668809999343,0],[106.90150857400005,-6.9227539669999487,0],[106.90143100000006,-6.9229179999999815,0],[106.90128500000009,-6.9230539999999792,0],[106.90125336200003,-6.9230719759999602,0],[106.90093300000007,-6.923253999999929,0],[106.90088472300005,-6.9233064029999696,0],[106.90086390700009,-6.9233289989999776,0],[106.90085140900004,-6.9233425649999276,0],[106.90081600000008,-6.9233809999999494,0],[106.90082116400004,-6.9234406189999618,0],[106.90082325300006,-6.9234647319999567,0],[106.90082698900005,-6.923507878999942,0],[106.90082699400006,-6.9235079389999328,0],[106.90082700000005,-6.9235079999999698,0],[106.90082837000006,-6.9235125159999598,0],[106.90086891600004,-6.9236461399999598,0],[106.90087951900006,-6.9236810849999415,0],[106.90094200000004,-6.9238869999999793,0],[106.90109500000005,-6.9240759999999568,0],[106.90125074400004,-6.924256790999948,0],[106.90128157300006,-6.9242925769999601,0],[106.90143529000005,-6.9244710139999484,0],[106.90143584400005,-6.924471657999959,0],[106.90143700000004,-6.9244729999999777,0],[106.90143100000006,-6.9246079999999779,0],[106.90135300000009,-6.9248169999999618,0],[106.90131745800005,-6.9248825219999617,0],[106.90126102800008,-6.9249865529999397,0],[106.90120600000006,-6.9250879999999597,0],[106.90119582300008,-6.9251024139999799,0],[106.90076400000004,-6.9257139999999708,0],[106.90066500000006,-6.9259859999999662,0],[106.90066450800003,-6.925987475999932,0],[106.90065600000008,-6.9260129999999549,0],[106.90064202100007,-6.9260489459999803,0],[106.90064201100006,-6.926048972999979,0],[106.90064200000006,-6.9260489999999777,0],[106.90065700000008,-6.926166999999964,0],[106.90066043800005,-6.9261910719999378,0],[106.90066317700007,-6.9262102379999533,0],[106.90066600000006,-6.9262299999999755,0],[106.90068497800007,-6.9262649369999281,0],[106.90069815100009,-6.9262891879999415,0],[106.90074371600008,-6.9263730679999753,0],[106.90075400000006,-6.9263919999999644,0],[106.90101600000008,-6.9268339999999284,0],[106.90102713200008,-6.9268913629999815,0],[106.90103822500004,-6.9269485169999712,0],[106.90106823100007,-6.9271031359999711,0],[106.90108800000007,-6.9272049999999581,0],[106.90111800000005,-6.9274029999999698,0],[106.90112003000007,-6.9274167219999754,0],[106.90113020100006,-6.9274854629999254,0],[106.90120900000005,-6.9280179999999518,0],[106.90127100000007,-6.9285419999999363,0],[106.90124430000009,-6.928642568999976,0],[106.90123859300007,-6.9286640669999429,0],[106.90121100000005,-6.9287679999999341,0],[106.90109123000008,-6.9291213559999392,0],[106.90103000000005,-6.9293019999999501,0],[106.90099100000003,-6.9294199999999364,0],[106.90085661900008,-6.9298099699999511,0],[106.90083800000008,-6.9298639999999523,0],[106.90080890300004,-6.930267472999958,0],[106.90080800000004,-6.9302799999999252,0],[106.90083412300004,-6.9303800669999305,0],[106.90084123600008,-6.930407311999943,0],[106.90086655800008,-6.9305043079999678,0],[106.90086676200008,-6.9305050909999295,0],[106.90086700000006,-6.9305059999999798,0],[106.90102300000007,-6.9306679999999687,0],[106.90123900000003,-6.9308109999999488,0],[106.90131256500007,-6.9308701149999479,0],[106.90132485900006,-6.9308799939999517,0],[106.90140700000006,-6.930945999999949,0],[106.90148391100007,-6.9310933049999335,0],[106.90150168500008,-6.9311273449999362,0],[106.90152500000005,-6.9311719999999468,0],[106.90151700000007,-6.9312889999999356,0],[106.90140600000007,-6.9315879999999765,0],[106.90140574300005,-6.931589373999941,0],[106.90139580700009,-6.9316424259999394,0],[106.90138687100006,-6.9316901359999292,0],[106.90135070800005,-6.9318832219999535,0],[106.90135000000004,-6.9318869999999606,0],[106.90132090400004,-6.93210544599998,0],[106.90131162800009,-6.9321750879999513,0],[106.90129310400005,-6.9323141549999718,0],[106.90128500000009,-6.9323749999999791,0],[106.90116200000006,-6.9324479999999653,0],[106.90097737200006,-6.9325624829999697,0],[106.90096131200005,-6.9325724409999339,0],[106.90088300000008,-6.9326209999999264,0],[106.90080061900005,-6.9327325109999265,0],[106.90077665200005,-6.9327649519999568,0],[106.90075585800008,-6.9327930969999443,0],[106.90070255400008,-6.9328652499999635,0],[106.90070200000008,-6.9328659999999331,0],[106.90070132300008,-6.9328673529999492,0],[106.90069300000005,-6.9328839999999445,0],[106.90068794600006,-6.932899162999945,0],[106.90068722500007,-6.9329013229999532,0],[106.90068400000007,-6.9329109999999332,0],[106.90063767500004,-6.9330408419999685,0],[106.90061300000008,-6.9331099999999424,0],[106.90062091600004,-6.9331612679999353,0],[106.90062603700005,-6.9331944259999432,0],[106.90063400000008,-6.9332459999999401,0],[106.90065109100004,-6.9332637479999448,0],[106.90067559800008,-6.9332891979999545,0],[106.90068281100008,-6.9332966879999276,0],[106.90068600000006,-6.9332999999999743,0],[106.90068631500009,-6.9333006309999519,0],[106.90068702800005,-6.9333020559999454,0],[106.90069500000004,-6.9333179999999288,0],[106.90071900000004,-6.9333449999999743,0],[106.90089900000004,-6.9334439999999518,0],[106.90116278400006,-6.9335896719999255,0],[106.90146214900005,-6.9337549929999795,0],[106.90153475900007,-6.933795090999979,0],[106.90197100000006,-6.934035999999935,0],[106.90246419500005,-6.9344695299999444,0],[106.90272984700005,-6.9347030439999457,0],[106.90287200000006,-6.9348279999999249,0],[106.90311700000007,-6.9350349999999708,0],[106.90330100000006,-6.9353239999999801,0],[106.90333900000007,-6.9354949999999462,0],[106.90334884000004,-6.93572132099996,0],[106.90335045000006,-6.9357583589999763,0],[106.90335204700006,-6.9357940889999554,0],[106.90338489000004,-6.9358563179999351,0],[106.90342800000008,-6.9359379999999646,0],[106.90357200000005,-6.9360459999999762,0],[106.90366969900003,-6.9360892559999456,0],[106.90368043000007,-6.9360940069999515,0],[106.90383400000007,-6.9361619999999675,0],[106.90383471900009,-6.9361622639999609,0],[106.90388300000006,-6.9361799999999789,0],[106.90405599500008,-6.9362283559999582,0],[106.90406488400004,-6.9362308399999506,0],[106.90429800000004,-6.9362959999999703,0],[106.90461685100007,-6.9364057579999781,0],[106.90463075600007,-6.9364105449999442,0],[106.90481800000003,-6.9364749999999731,0],[106.90490343900007,-6.9365234159999432,0],[106.90511800000007,-6.9366449999999418,0],[106.90538900000007,-6.9369159999999397,0],[106.90583622400004,-6.9373723799999425,0],[106.90590748000005,-6.93744509499993,0],[106.90591286800009,-6.9374505929999373,0],[106.90602400000006,-6.9375639999999521,0],[106.90626600000007,-6.9377709999999411,0],[106.90651473100007,-6.938056248999942,0],[106.90661381100006,-6.9381698749999714,0],[106.90662474100009,-6.9381824089999782,0],[106.90662700000007,-6.9381849999999758,0],[106.90708600000005,-6.9385359999999423,0],[106.90709163400004,-6.9385423529999457,0],[106.90710629700004,-6.938558885999953,0],[106.90739378800004,-6.9388830629999347,0],[106.90743338500005,-6.9389277129999414,0],[106.90747000000005,-6.9389689999999291,0],[106.90747075900003,-6.938970458999961,0],[106.90749079300008,-6.9390089809999722,0],[106.90749848000007,-6.9390237609999303,0],[106.90774200000004,-6.9394919999999729,0],[106.90781343100008,-6.9396674259999713,0],[106.90781353800008,-6.9396676889999753,0],[106.90782336900008,-6.9396918319999372,0],[106.90787800000004,-6.9398259999999254,0],[106.90787747700006,-6.9398289379999483,0],[106.90787740500008,-6.939829346999943,0],[106.90784900000006,-6.9399889999999687,0],[106.90763000000004,-6.9405859999999393,0],[106.90758690900009,-6.9407929069999454,0],[106.90752858800005,-6.9410729389999801,0],[106.90742185500005,-6.9415854319999539,0],[106.90738300000004,-6.9417719999999576,0],[106.90742700000004,-6.9419979999999555,0],[106.90752300000008,-6.9420699999999442,0],[106.90754434300004,-6.9420733429999473,0],[106.90768900000006,-6.9420959999999354,0],[106.90778103000008,-6.942106181999975,0],[106.90863800000005,-6.9422009999999545,0],[106.90879700000005,-6.9423359999999548,0],[106.90897200000006,-6.9425699999999324,0],[106.90909000000005,-6.9428589999999417,0],[106.90911360800004,-6.942937226999959,0],[106.90916149700007,-6.9430959129999792,0],[106.90925900000008,-6.9434189999999489,0],[106.90929643100009,-6.9435310089999689,0],[106.90930283600005,-6.9435501749999275,0],[106.90932063900004,-6.9436034479999762,0],[106.90925742700006,-6.943660007999938,0],[106.90907700300005,-6.9438214459999585,0],[106.90880268200004,-6.9440791729999773,0],[106.90863131000003,-6.9442948359999264,0],[106.90858350700006,-6.9443549939999798,0],[106.90856924700006,-6.944503402999942,0],[106.90856588800006,-6.944538363999925,0],[106.90853882300007,-6.9449092779999546,0],[106.90853110300009,-6.9450150689999646,0],[106.90853736100007,-6.9451306969999678,0],[106.90855093900007,-6.9453815769999778,0],[106.90858897600003,-6.9457113599999616,0],[106.90859887400006,-6.9457363189999342,0],[106.90875589600006,-6.9461322649999602,0],[106.90884783500007,-6.9462596969999595,0],[106.90912510400005,-6.9466440039999497,0],[106.90927236400006,-6.9468704169999569,0],[106.90948201200007,-6.9471927509999318,0],[106.90957635200004,-6.9473377969999319,0],[106.90982259900005,-6.9477033929999266,0],[106.90992653100005,-6.9478371819999438,0],[106.91031388100004,-6.9483358049999424,0],[106.91043770400006,-6.9484951979999323,0],[106.91068165600007,-6.9487794289999556,0],[106.91069899700005,-6.9487996329999646,0],[106.91075525300005,-6.9489007939999397,0],[106.91079713600004,-6.9489761099999328,0],[106.91086850000005,-6.9491044379999494,0],[106.91088798200008,-6.949277823999978,0],[106.91091582600006,-6.9495256339999401,0],[106.91092135800005,-6.949574863999942,0],[106.91093197400005,-6.9496693489999757,0],[106.91094652700008,-6.9497796269999412,0],[106.91097991000004,-6.9500325839999277,0],[106.91098340600007,-6.9500590769999349,0],[106.91102666400008,-6.9503868719999673,0],[106.91106090500006,-6.9506032869999785,0],[106.91108945800005,-6.9507837569999538,0],[106.91123940200004,-6.9511069549999434,0],[106.91140423800005,-6.9514622499999632,0],[106.91140525400004,-6.9514644399999383,0],[106.91141782800008,-6.9514915429999746,0],[106.91150599400004,-6.9514487569999801,0],[106.91157531000005,-6.951415117999943,0],[106.91169780900009,-6.9514603989999273,0],[106.91178109000003,-6.9514247069999442,0],[106.91187329400009,-6.9514782449999757,0],[106.91199821600009,-6.9515139369999588,0],[106.91201011300006,-6.9516120899999692,0],[106.91203688200005,-6.9517102429999795,0],[106.91207852300005,-6.9517280879999248,0],[106.91201606200008,-6.9519333169999413,0],[106.91200119000007,-6.9520255209999391,0],[106.91201903600006,-6.9520879819999664,0],[106.91205281000003,-6.9521584959999814,0],[106.91208333300006,-6.9522222219999321,0],[106.91251309800003,-6.9514474209999548,0],[106.91257943700003,-6.9513780769999585,0],[106.91273299900007,-6.95121377199996,0],[106.91288205300003,-6.951063162999958,0],[106.91302108100007,-6.9509153299999298,0],[106.91311821300008,-6.9508049959999312,0],[106.91325544200004,-6.9506635549999487,0],[106.91338898600009,-6.9505139199999348,0],[106.91352074300005,-6.9503734119999763,0],[106.91366156200007,-6.9502173659999471,0],[106.91380328800005,-6.9500594909999336,0],[106.91380366200008,-6.9500590769999349,0],[106.91382760600004,-6.9500325829999383,0],[106.91385870600004,-6.949998169999958,0],[106.91398138100004,-6.9498686399999769,0],[106.91408863700008,-6.9497461019999491,0],[106.91413861800004,-6.9496939219999376,0],[106.91425127200006,-6.9495689929999571,0],[106.91429672500004,-6.9495250379999334,0],[106.91441030600004,-6.9494037539999454,0],[106.91445849000007,-6.9493588769999519,0],[106.91456120700008,-6.9492586079999796,0],[106.91460030100006,-6.9492219749999435,0],[106.91463937900005,-6.9491816929999572,0],[106.91471568600008,-6.9490952109999284,0],[106.91476200000005,-6.9490393979999681,0],[106.91516279400008,-6.9485979529999327,0],[106.91528725200004,-6.9484583859999702,0],[106.91542354100005,-6.94831056299995,0],[106.91555800900005,-6.9481636609999669,0],[106.91569433000006,-6.9480240459999436,0],[106.91585328500008,-6.9478516399999535,0],[106.91631801800008,-6.9473384479999254,0],[106.91657419700005,-6.9470503579999558,0],[106.91665162200007,-6.9469573499999342,0],[106.91675896000004,-6.9468612309999571,0],[106.91679894600009,-6.9468200359999628,0],[106.91691522600007,-6.9466896199999724,0],[106.91696154200008,-6.9466338069999551,0],[106.91707418600004,-6.9465061419999756,0],[106.91711325600005,-6.946464037999931,0],[106.91716233000005,-6.946413684999925,0],[106.91725777500005,-6.946320739999976,0],[106.91732048600005,-6.9462575659999288,0],[106.91745171500008,-6.9461462269999288,0],[106.91750534500005,-6.9460940309999728,0],[106.91759991300006,-6.9460102099999403,0],[106.91789903500006,-6.94574847399997,0],[106.91813356300008,-6.9455362699999341,0],[106.91822103200008,-6.9454571269999406,0],[106.91834774200004,-6.9453423919999295,0],[106.91837986600007,-6.945308693999948,0],[106.91867639900005,-6.9450388529999714,0],[106.91896294400004,-6.9447424969999361,0],[106.91901606200008,-6.9446883339999772,0],[106.91914862600004,-6.9445443869999508,0],[106.91920940300008,-6.9444736379999767,0],[106.91937876600008,-6.9442889109999442,0],[106.91945436400005,-6.9442115639999429,0],[106.91953588400008,-6.9441251179999313,0],[106.91964742800008,-6.9440041039999301,0],[106.91977756100005,-6.9438629209999476,0],[106.91988576800009,-6.9437455089999389,0],[106.91997012000007,-6.9436490039999512,0],[106.92039781200003,-6.94321238699996,0],[106.92043517200005,-6.943170423999959,0],[106.92048326100007,-6.9431286389999514,0],[106.92060218100005,-6.9430548459999386,0],[106.92066569900004,-6.943018360999929,0],[106.92086011900005,-6.9429066869999474,0],[106.92126878300007,-6.9427363879999575,0],[106.92158421500005,-6.942598759999953,0],[106.92196300000006,-6.9424308969999515,0],[106.92235495400007,-6.9421442489999663,0],[106.92272332600004,-6.941764740999929,0],[106.92275846900009,-6.9417285349999815,0],[106.92284793400006,-6.9416347989999281,0],[106.92289555500008,-6.9415718129999391,0],[106.92295607600005,-6.9414429919999634,0],[106.92302373200005,-6.9413027789999546,0],[106.92310551800006,-6.9411050989999694,0],[106.92321239500006,-6.9408965529999591,0],[106.92328662100005,-6.9406056109999668,0],[106.92334670100007,-6.9403685489999702,0],[106.92343481600005,-6.9399609359999772,0],[106.92352299600009,-6.9395694689999345,0],[106.92363968300003,-6.9391240649999304,0],[106.92371404700003,-6.9388672099999553,0],[106.92372273300003,-6.938837208999928,0],[106.92372749800006,-6.9388207479999551,0],[106.92375531100004,-6.9387246799999502,0],[106.92378841000004,-6.9386103549999802,0],[106.92386640100005,-6.9383624559999362,0],[106.92397638700004,-6.9380354879999686,0],[106.92410027000005,-6.937593642999957,0],[106.92428432800006,-6.9369380579999529,0],[106.92440450300006,-6.9364675219999299,0],[106.92449287200009,-6.9361227009999311,0],[106.92462368800005,-6.9356198289999611,0],[106.92466603300005,-6.9354366619999723,0],[106.92466792000005,-6.9354289879999556,0],[106.92469252600006,-6.9353289099999529,0],[106.92471901900007,-6.935221156999944,0],[106.92478971200006,-6.9349445829999468,0],[106.92486370300009,-6.934596231999933,0],[106.92497629000007,-6.934173120999958,0],[106.92503213500004,-6.9339247139999429,0],[106.92513521200004,-6.9335176379999552,0],[106.92524619800008,-6.9329951119999578,0],[106.92528373200008,-6.9328059839999696,0],[106.92533535500007,-6.9325498189999735,0],[106.92538465400008,-6.9323104089999674,0],[106.92543404900005,-6.9320949199999404,0],[106.92547528200004,-6.9319326869999713,0],[106.92550577900005,-6.9317794699999808,0],[106.92554583300006,-6.9316214279999713,0],[106.92559278600004,-6.931393987999968,0],[106.92563030900004,-6.9312024679999809,0],[106.92565561600009,-6.9310088439999618,0],[106.92568578200007,-6.9308919869999386,0],[106.92573107400005,-6.9307272269999771,0],[106.92577995500005,-6.9305031279999412,0],[106.92580242300005,-6.9303767339999354,0],[106.92583853300005,-6.9302297589999284,0],[106.92597250700004,-6.9297167829999466,0],[106.92614485800004,-6.9290084999999522,0],[106.92628354300007,-6.928498420999972,0],[106.92645805600006,-6.9278892579999365,0],[106.92646577100004,-6.9278623269999571,0],[106.92647331400008,-6.927835995999942,0],[106.92660193500006,-6.9273432079999679,0],[106.92661200500004,-6.927304625999966,0],[106.92688769800009,-6.9262483529999486,0],[106.92706694000009,-6.9255869279999729,0],[106.92733772800005,-6.9245617339999512,0],[106.92735220300005,-6.9245069339999645,0],[106.92738072200007,-6.9244071789999566,0],[106.92740413800004,-6.9242785079999294,0],[106.92744073100005,-6.9241527739999356,0],[106.92746180800003,-6.9240378679999708,0],[106.92749700000007,-6.9238619059999564,0],[106.92753213400005,-6.9236715919999483,0],[106.92757780700003,-6.9234238239999399,0],[106.92761288300005,-6.9232191569999486,0],[106.92765156400009,-6.9230180639999617,0],[106.92769386400005,-6.9228241329999491,0],[106.92773610700004,-6.9226158489999534,0],[106.92778534800004,-6.9223626839999497,0],[106.92782051100005,-6.9221795459999385,0],[106.92773787600004,-6.9221673229999396,0],[106.92765524200007,-6.9221550989999514,0],[106.92745046200008,-6.9221272239999507,0],[106.92724568200003,-6.9220993489999501,0],[106.92704093000003,-6.9220786499999463,0],[106.92677153400007,-6.9220546239999408,0],[106.92653083400006,-6.9220233059999714,0],[106.92621462800008,-6.9219671769999422,0],[106.92576913300007,-6.9219043939999665,0],[106.92554279500007,-6.921873016999939,0],[106.92530565600003,-6.9218345069999714,0],[106.92512243400006,-6.9218101319999619,0],[106.92492482000006,-6.9217786389999674,0],[106.92471999700007,-6.9217399979999641,0],[106.92449364400005,-6.9217050319999771,0],[106.92423493200005,-6.9216594329999452,0],[106.92396184300009,-6.9216103039999552,0],[106.92374629100004,-6.9215824699999757,0],[106.92360977600003,-6.9215650809999261,0],[106.92340493800003,-6.9215228519999528,0],[106.92321085700007,-6.9214769909999632,0],[106.92308126100005,-6.9213949879999745,0],[106.92292643000008,-6.921287968999934,0],[106.92281823300004,-6.9211699969999358,0],[106.92271005000003,-6.9210556129999645,0],[106.92259109600008,-6.9209412729999258,0],[106.92249367100004,-6.9208232569999382,0],[106.92236404600004,-6.9207340769999632,0],[106.92224882800008,-6.9206556029999433,0],[106.92212291100009,-6.9205951129999335,0],[106.92200421800004,-6.9205453589999593,0],[106.92188555400008,-6.9205027799999357,0],[106.92177411500006,-6.9204709369999478,0],[106.92166996200007,-6.9204379649999623,0],[106.92133275800006,-6.9203436559999432,0],[106.92115658700004,-6.9202869569999734,0],[106.92094807200004,-6.9202232119999394,0],[106.92083663300008,-6.920191367999962,0],[106.92072519400006,-6.9201595249999741,0],[106.92051665000008,-6.9200886039999432,0],[106.92032605900005,-6.9200176099999453,0],[106.92018944200004,-6.9199751029999561,0],[106.92004561500005,-6.9199254489999475,0],[106.91986947300006,-6.9198759259999747,0],[106.91969327300006,-6.9198120499999618,0],[106.91949917900007,-6.9197625989999665,0],[106.91943979600006,-6.9197419929999455,0],[106.91942468800005,-6.9197367509999594,0],[106.91937997200006,-6.9197227719999432,0],[106.91927966200006,-6.9196914139999421,0],[106.91909757500008,-6.9196514829999387,0],[106.91889392500008,-6.9196068539999374,0],[106.91864237000004,-6.9195552429999339,0],[106.91845551500006,-6.9195201139999654,0],[106.91823514700008,-6.9194851209999797,0],[106.91806033800003,-6.9194690809999315,0],[106.91775624700006,-6.9194487779999463,0],[106.91762930300007,-6.9194301529999507,0],[106.91750955800006,-6.9194162829999755,0],[106.91736104100005,-6.9193905679999261,0],[106.91719332500008,-6.9193529699999772,0],[106.91704725000005,-6.919339205999961,0],[106.91690592400005,-6.9193158549999794,0],[106.91672152000007,-6.9192950689999293,0],[106.91658257700004,-6.9192693149999513,0],[106.91644603800006,-6.9192459439999539,0],[106.91630703800007,-6.9192058379999253,0],[106.91607945100009,-6.9191613039999424,0],[106.91601952900004,-6.9191516779999347,0],[106.91585429100007,-6.9191251329999659,0],[106.91562904900007,-6.9190686299999697,0],[106.91539411600007,-6.9189834589999464,0],[106.91514723400007,-6.9189031209999712,0],[106.91500576300007,-6.9188438879999694,0],[106.91472533100006,-6.9187541159999455,0],[106.91442561400004,-6.9186309319999282,0],[106.91420498600007,-6.9185313499999666,0],[106.91403711700008,-6.9184554779999416,0],[106.91387889000003,-6.9183963109999809,0],[106.91373979400004,-6.9183322839999732,0],[106.91356724300005,-6.9182827429999634,0],[106.91343308800003,-6.9182569689999696,0],[106.91328216800008,-6.9182288709999398,0],[106.91311693300008,-6.9182127899999273,0],[106.91294210400008,-6.9181919639999592,0],[106.91277687000007,-6.9181758839999361,0],[106.91258051700004,-6.9181599279999659,0],[106.91239611300006,-6.918139139999937,0],[106.91231154900004,-6.9181306479999307,0],[106.91230457600005,-6.9181656059999455,0],[106.91230163200004,-6.918186377999973,0],[106.91229530500004,-6.9182310279999797,0],[106.91231091800006,-6.9183212939999521,0],[106.91231986100007,-6.9184022309999591,0],[106.91236228100007,-6.9185336269999311,0],[106.91241653700007,-6.9186320839999667,0],[106.91248273200006,-6.9187230179999801,0],[106.91253683100007,-6.9187826029999542,0],[106.91259704800007,-6.9188750559999335,0],[106.91261529000008,-6.9189467459999605,0],[106.91260667400007,-6.9190364849999355,0],[106.91256806500007,-6.9191084039999282,0],[106.91245527800004,-6.9191985949999548,0],[106.91229647600005,-6.9192829249999477,0],[106.91217701800008,-6.9193402179999453,0],[106.91201869800005,-6.9194066369999518,0],[106.91188420700007,-6.9194460499999764,0],[106.91174362300006,-6.9194585749999646,0],[106.91162095600004,-6.9194620589999545,0],[106.91142951700004,-6.9194777779999299,0],[106.91130387000004,-6.9194842639999479,0],[106.91120224500008,-6.9195115829999736,0],[106.91108868600008,-6.9195479209999462,0],[106.91105216600005,-6.919575297999927,0],[106.91101821100006,-6.9196057939999491,0],[106.91098708800007,-6.919639171999961,0],[106.91094576300009,-6.9196616239999571,0],[106.91091188300004,-6.9196866359999376,0],[106.91088155300008,-6.9197158439999384,0],[106.91085528800005,-6.9197487519999754,0],[106.91083409000004,-6.9197837339999637,0],[106.91081749300008,-6.9198211149999338,0],[106.91079669800007,-6.9198585749999779,0],[106.91076714900004,-6.919951388999948,0],[106.91075559000006,-6.9200530999999614,0],[106.91074702200007,-6.9201547999999775,0],[106.91068451000007,-6.9201470259999383,0],[106.91060091400004,-6.9201331399999617,0],[106.91051099300006,-6.9200946289999479,0],[106.91043311200008,-6.9200740109999401,0],[106.91032830200004,-6.9200534999999377,0],[106.91026243800007,-6.9200447949999671,0],[106.91016953600007,-6.9200092859999813,0],[106.91006164900006,-6.9199678569999605,0],[106.90987892200008,-6.91991775799994,0],[106.90972018100007,-6.9198795229999632,0],[106.90961535900004,-6.9198560219999763,0],[106.90943261900009,-6.9198029339999607,0],[106.90944123500009,-6.9197131939999394,0],[106.90945886400004,-6.9196323889999576,0],[106.90946745600007,-6.9195366699999568,0],[106.90947892000008,-6.9194110369999748,0],[106.90947819900003,-6.9192316309999455,0],[106.90948060200009,-6.9190851029999294,0],[106.90947527800006,-6.9190472199999249,0],[106.90947136100004,-6.9190193569999678,0],[106.90945604000007,-6.9189297139999439,0],[106.90942551700005,-6.9187803279999684,0],[106.90940695100005,-6.9186279049999371,0],[106.90940340600008,-6.9184903719999511,0],[106.90939707400008,-6.9184036829999513,0],[106.90938169200007,-6.9182990889999587,0],[106.90936049500004,-6.9182363809999288,0],[106.90933326500004,-6.918161735999945,0],[106.90931206700009,-6.9180990279999719,0],[106.90930280200007,-6.9180273009999382,0],[106.90931747500008,-6.9179554789999429,0],[106.90933816800003,-6.9178926029999275,0],[106.90935267200007,-6.9177789179999536,0],[106.90937608100006,-6.9176472569999419,0],[106.90939068100005,-6.9175574939999365,0],[106.90941130200008,-6.9174766769999678,0],[106.90944687200005,-6.9173928099999671,0],[106.90951234500005,-6.9173044369999275,0],[106.90955016400005,-6.9171846789999449,0],[106.90949258000006,-6.9171514209999714,0],[106.90933905500003,-6.9170707039999684,0],[106.90929687600004,-6.9170454229999336,0],[106.90929096000008,-6.9170418779999636,0],[106.90924787200004,-6.9170160509999619,0],[106.90915668900004,-6.9169613979999554,0],[106.90890728100004,-6.9168475769999418,0],[106.90860972800004,-6.916666968999948,0],[106.90841291500004,-6.9165361909999774,0],[106.90818265600006,-6.9164222919999361,0],[106.90796191500004,-6.9162940019999724,0],[106.90778916300007,-6.9161942249999697,0],[106.90760681800003,-6.9160897019999652,0],[106.90737646300005,-6.9159518819999448,0],[106.90726608300008,-6.9158853449999356,0],[106.90719390700008,-6.9157947329999274,0],[106.90714566800006,-6.9157040249999682,0],[106.90706374400008,-6.9155703939999285,0],[106.90701075600003,-6.9154892739999809,0],[106.90694340500005,-6.9154082119999316,0],[106.90688915300007,-6.9153723809999406,0],[106.90685700100005,-6.9153511469999671,0],[106.90675140800005,-6.915284589999942,0],[106.90661711000007,-6.9152229329999386,0],[106.90652113100003,-6.9151659059999702,0],[106.90641561600006,-6.9151184859999262,0],[106.90630054400003,-6.9150758889999793,0],[106.90620935300007,-6.9150188429999275,0],[106.90617633000005,-6.9149899029999347,0],[106.90613487300004,-6.9149535719999449,0],[106.90613042300004,-6.9149622669999644,0],[106.90613005900008,-6.9149629769999592,0],[106.90612818700004,-6.9149666339999385,0],[106.90612800000008,-6.9149669999999333,0],[106.90602000000007,-6.9148179999999684,0],[106.90597500000007,-6.9146919999999454,0],[106.90595000700006,-6.9146333349999622,0],[106.90585781600004,-6.9144169409999563,0],[106.90583100000003,-6.9143539999999462,0],[106.90580303500008,-6.914279300999965,0],[106.90572289000005,-6.9140652139999474,0],[106.90553900000003,-6.9135739999999259,0],[106.90524200000004,-6.9127339999999435,0],[106.90521495000007,-6.9126787729999251,0],[106.90519901500005,-6.9126462389999688,0],[106.90514600000006,-6.9125379999999268,0],[106.90507100000008,-6.9123989999999367,0],[106.90493454600005,-6.9123432229999366,0],[106.90493400000008,-6.9123429999999644,0],[106.90488843700007,-6.9123245199999701,0],[106.90487391700009,-6.9123186299999588,0],[106.90475444500004,-6.9122702499999491,0],[106.90473400000008,-6.9122619999999415,0],[106.90438800000004,-6.9122069999999667,0],[106.90438312400005,-6.9122065609999481,0],[106.90438226200007,-6.9122064829999772,0],[106.90427700000004,-6.9121969999999351,0],[106.90427532600006,-6.9121968449999258,0],[106.90336000000008,-6.9121119999999792,0],[106.90318400000007,-6.9120999999999526,0],[106.90277500000008,-6.9120699999999715,0],[106.90259334800004,-6.9120586469999807,0],[106.90250300000008,-6.9120529999999576,0],[106.90249562500009,-6.9120529999999576,0],[106.90248300000007,-6.9120529999999576,0],[106.90206587400007,-6.9120434009999485,0]]]},"properties":{"OBJECTID":2708,"NAMOBJ":"Warudoyong","FCODE":"BA03070040","REMARK":null,"METADATA":"TASWIL1000020260612KECAMATAN_AR","SRS_ID":"4326","KDBBPS":null,"KDCBPS":null,"KDCPUM":"32.72.04","KDEBPS":null,"KDEPUM":null,"KDPBPS":null,"KDPKAB":"32.72","KDPPUM":"32","LUASWH":7.5615909599992435,"TIPADM":3,"WADMKC":"Warudoyong","WADMKD":null,"WADMKK":"Kota Sukabumi","WADMPR":"Jawa Barat","WIADKC":null,"WIADKK":null,"WIADPR":null,"WIADKD":null,"UUPP":null,"SHAPE_Length":0.11930273737973079,"SHAPE_Area":0.00061871168356686357}}]}