{"type":"FeatureCollection","features":[{"type":"Feature","id":3807,"geometry":{"type":"Polygon","coordinates":[[[112.2912563970001,-7.5479267469999627,0],[112.29082399700007,-7.547709594999958,0],[112.28941409600009,-7.5470015389999503,0],[112.28919391500006,-7.5468909639999424,0],[112.28895517300009,-7.5467710659999625,0],[112.28888392400006,-7.5467352839999648,0],[112.28887999300002,-7.5467328259999249,0],[112.28768649500012,-7.5459866839999563,0],[112.28722772200001,-7.5456311169999708,0],[112.28688801400006,-7.5453678299999751,0],[112.28621985300003,-7.5448204999999575,0],[112.28599275100009,-7.5446233759999473,0],[112.2852032830001,-7.543951548999928,0],[112.28493181900001,-7.543739832999961,0],[112.28492246500002,-7.5437551189999681,0],[112.28491762500005,-7.5437630289999333,0],[112.28489500000001,-7.5437999999999761,0],[112.28470994200006,-7.5443200629999296,0],[112.28443881100009,-7.5450820119999662,0],[112.28417314100011,-7.5458286149999481,0],[112.28414833400007,-7.5458983329999683,0],[112.28409734200011,-7.5460309309999616,0],[112.28375699500009,-7.5470889519999673,0],[112.2835768220001,-7.5475797679999346,0],[112.2835085800001,-7.5477656699999329,0],[112.28350153600002,-7.547782576999964,0],[112.28345295800011,-7.5479439969999476,0],[112.2834477350001,-7.5479613529999483,0],[112.28343030500002,-7.5480192699999407,0],[112.28337548200011,-7.5481456669999716,0],[112.28333923600007,-7.5482034969999745,0],[112.28328140500003,-7.5481675889999451,0],[112.28325552600006,-7.5481515209999657,0],[112.2817442060001,-7.5472893489999251,0],[112.28038875100003,-7.5465553779999368,0],[112.2801286560001,-7.5464163179999559,0],[112.27981197000008,-7.5462469999999371,0],[112.27963193000005,-7.5465710679999347,0],[112.27962510200007,-7.5465833589999534,0],[112.27959225300003,-7.5465709329999413,0],[112.27959215600004,-7.5465708959999347,0],[112.27948349900009,-7.5465297909999549,0],[112.27930697800002,-7.5464226429999712,0],[112.27915596000003,-7.5463153809999426,0],[112.27912384700005,-7.5462862629999563,0],[112.27896039900008,-7.5461083409999787,0],[112.27887816400005,-7.5460306749999404,0],[112.27884047500004,-7.5460089749999497,0],[112.27880375200004,-7.5459984269999723,0],[112.27873311300004,-7.5459781359999738,0],[112.27864328500004,-7.5459569529999726,0],[112.27855057000011,-7.5459248179999463,0],[112.27839449400005,-7.5458494809999479,0],[112.27822241000001,-7.5458007489999659,0],[112.27812799300011,-7.5457931349999399,0],[112.27802291600005,-7.545799226999975,0],[112.27787076600009,-7.5458234399999355,0],[112.27768141600006,-7.5458409149999284,0],[112.27757615100006,-7.5458459419999713,0],[112.2775759970001,-7.5458057999999255,0],[112.27754665500004,-7.5458039849999636,0],[112.27752843200005,-7.5458028459999582,0],[112.27747901000009,-7.5457997569999407,0],[112.27745200100003,-7.545669099999941,0],[112.27740412900005,-7.5455297129999508,0],[112.27739347000011,-7.5455023019999317,0],[112.27739053100004,-7.5454915139999343,0],[112.27738332400008,-7.5454650589999801,0],[112.27738008300003,-7.5454327759999273,0],[112.2773816670001,-7.5454240649999633,0],[112.27740958800007,-7.54531874099996,0],[112.27741220300004,-7.5453002429999287,0],[112.27741471600007,-7.5452824719999398,0],[112.27742606900006,-7.5451965529999256,0],[112.27733343400007,-7.5452101139999286,0],[112.27709793700001,-7.5452284659999691,0],[112.27697410900009,-7.5452263669999411,0],[112.27673985200011,-7.5452183179999679,0],[112.27657836100002,-7.545208817999935,0],[112.27646871600007,-7.5452133869999329,0],[112.27636668500008,-7.5452392759999611,0],[112.27609404400005,-7.5453243439999369,0],[112.27587542700007,-7.5452053249999267,0],[112.27572297400002,-7.5451161519999346,0],[112.27569537200009,-7.5451694529999713,0],[112.27560175500003,-7.5451285819999612,0],[112.27538419000007,-7.5450414369999521,0],[112.27531118100001,-7.545006614999977,0],[112.27528028300003,-7.5449918779999621,0],[112.27526659900002,-7.5450141059999396,0],[112.2752238170001,-7.5451010489999248,0],[112.2750951380001,-7.5453625559999296,0],[112.27508592000004,-7.5453815149999741,0],[112.27503193100006,-7.5454925569999318,0],[112.27484105000008,-7.5459257239999715,0],[112.274788177,-7.5460457089999409,0],[112.27477194900007,-7.546082533999936,0],[112.2745420010001,-7.5466043569999783,0],[112.27439246600011,-7.5469163019999428,0],[112.27439010400008,-7.5469212309999421,0],[112.27431920600009,-7.547069128999965,0],[112.27426293200006,-7.5471704089999321,0],[112.27422000100012,-7.547247671999969,0],[112.27419000000009,-7.5473016669999424,0],[112.27416374000006,-7.5472832659999654,0],[112.27396166700009,-7.5471416669999485,0],[112.27390775600009,-7.5472949129999733,0],[112.27383130500004,-7.547512228999949,0],[112.27383059900001,-7.5475123829999688,0],[112.2737734320001,-7.5476601339999547,0],[112.27370753800005,-7.5476541069999712,0],[112.2733547900001,-7.5476218439999343,0],[112.27325618900011,-7.5476141469999334,0],[112.27297108800008,-7.5475918899999783,0],[112.27276718400003,-7.5475759709999579,0],[112.27265255200007,-7.5475642059999473,0],[112.27262201000008,-7.5475610709999614,0],[112.27221957400002,-7.5474718719999601,0],[112.27216722600008,-7.5474694929999373,0],[112.27212201600003,-7.5474718719999601,0],[112.27203635500007,-7.5475051849999772,0],[112.27197924800009,-7.5475408769999603,0],[112.271922141,-7.5475837069999443,0],[112.27189938400011,-7.5476075049999736,0],[112.27188982900009,-7.5476174969999761,0],[112.27185296800008,-7.5476560439999503,0],[112.27185905600004,-7.5476679399999398,0],[112.27187363300004,-7.5476964279999379,0],[112.27191586000004,-7.5477789499999517,0],[112.27136457800009,-7.5488887959999715,0],[112.27136059500003,-7.548891388999948,0],[112.27132015300003,-7.5489928539999482,0],[112.27131083000006,-7.5490146919999574,0],[112.27130548000002,-7.5490299429999368,0],[112.27115350000008,-7.5489623279999591,0],[112.27114661300004,-7.5489599349999708,0],[112.27114101200004,-7.5489579889999732,0],[112.27113364900003,-7.548970259999976,0],[112.27111927900012,-7.5489942099999325,0],[112.27111017400011,-7.5490093849999766,0],[112.27076067900009,-7.5488563379999505,0],[112.27042260500002,-7.5487055759999748,0],[112.27034369700004,-7.5486561479999637,0],[112.27033916700009,-7.5486533109999527,0],[112.27020881800001,-7.5485716609999258,0],[112.27005206800004,-7.5484734719999551,0],[112.26992095000003,-7.5484023779999347,0],[112.26988817300003,-7.5483842519999484,0],[112.26985081200007,-7.5483635909999407,0],[112.26951339000004,-7.5481769969999277,0],[112.26949435000006,-7.5481664669999304,0],[112.26906740800007,-7.5479668269999252,0],[112.26895373700006,-7.5479136739999717,0],[112.26877374300011,-7.547822291999978,0],[112.2685062810001,-7.5476865029999658,0],[112.26845880900009,-7.5476624019999576,0],[112.26795706000007,-7.547407891999967,0],[112.26793342400003,-7.5473959029999378,0],[112.26772085000005,-7.5473031569999307,0],[112.26729927500003,-7.5471192239999709,0],[112.26706082800001,-7.5470151889999784,0],[112.26702937500011,-7.547000857999933,0],[112.26663786500001,-7.5468224729999633,0],[112.266484719,-7.546752693999963,0],[112.26642579700001,-7.5467258469999479,0],[112.26618717100007,-7.5466173799999297,0],[112.26598726600002,-7.546526513999936,0],[112.26595675800002,-7.5465126469999291,0],[112.26591398800008,-7.5464940989999718,0],[112.26542088300005,-7.5462802519999741,0],[112.26536380000005,-7.5462554949999685,0],[112.2653521200001,-7.5462791179999726,0],[112.26525376300003,-7.546478039999954,0],[112.26517463100004,-7.5466380799999797,0],[112.26515743800007,-7.5466728509999257,0],[112.26506100400002,-7.5468678819999582,0],[112.26505948900001,-7.5468709469999453,0],[112.26499283900012,-7.5468940219999467,0],[112.26486050700009,-7.5469398379999575,0],[112.26481877900005,-7.5469603309999798,0],[112.26481817600006,-7.5469732209999734,0],[112.26481038800011,-7.5471400329999483,0],[112.26480789600009,-7.547193401999948,0],[112.26480438500005,-7.5472686069999781,0],[112.26480212200011,-7.547317072999931,0],[112.26479358200004,-7.5473337159999687,0],[112.26468983200004,-7.5475359089999756,0],[112.2645137940001,-7.5478789829999755,0],[112.26449188900006,-7.5479216729999621,0],[112.26449039400006,-7.5479245849999757,0],[112.26437423800007,-7.5481509569999616,0],[112.26435890000005,-7.5481808479999586,0],[112.26419297200005,-7.5485042179999482,0],[112.26419235200001,-7.5485054259999629,0],[112.26403907800011,-7.5488041339999654,0],[112.26396135000005,-7.548955613999965,0],[112.26384463300008,-7.5491830769999524,0],[112.26382924300003,-7.5492130689999613,0],[112.2636742840001,-7.5495150609999655,0],[112.26362631000006,-7.5496085549999634,0],[112.26354198100012,-7.5497728999999367,0],[112.26347234000002,-7.5499086199999397,0],[112.26339733200007,-7.5500547999999412,0],[112.26331936800011,-7.5502067399999646,0],[112.26331529100003,-7.5502146859999471,0],[112.26323396500004,-7.5503731759999368,0],[112.26316273800001,-7.5505119879999256,0],[112.26314407600012,-7.5505483569999683,0],[112.26309861700008,-7.550636949999955,0],[112.26290777100007,-7.5510088799999266,0],[112.26286723800001,-7.5510878729999718,0],[112.26271977600004,-7.5513752549999253,0],[112.26267939500008,-7.5514539519999744,0],[112.26261067500002,-7.5515878769999745,0],[112.26259182100011,-7.5516246199999273,0],[112.26258355100003,-7.5516407359999675,0],[112.26258006300009,-7.5516391179999687,0],[112.26254138100001,-7.5516211569999427,0],[112.26236413700008,-7.5515388579999581,0],[112.26201754200008,-7.5513720639999633,0],[112.26183840900001,-7.5512858579999715,0],[112.26187258800007,-7.5512122059999456,0],[112.26108376700006,-7.5508304529999464,0],[112.26073500000007,-7.5506616669999289,0],[112.26062071600006,-7.5508404109999674,0],[112.26057253400006,-7.5509157689999711,0],[112.26038532900009,-7.5512017329999708,0],[112.26030837500002,-7.5513025899999775,0],[112.26030682200008,-7.5513046249999434,0],[112.26030019600012,-7.5513133089999656,0],[112.26003266600003,-7.5511855179999543,0],[112.25958496600003,-7.5509716649999632,0],[112.25900018900006,-7.5507188709999582,0],[112.25849155600008,-7.5504919649999351,0],[112.25810018200002,-7.5503259739999748,0],[112.25767530500002,-7.5501432319999253,0],[112.25717118200009,-7.5499225079999519,0],[112.25713269800008,-7.5499056579999433,0],[112.25697210100009,-7.549835342999927,0],[112.25667255300004,-7.5496915619999641,0],[112.25639539300005,-7.5495849619999262,0],[112.25617086000011,-7.5494777709999425,0],[112.25612756300006,-7.5494571009999731,0],[112.25605112300002,-7.5497229839999704,0],[112.25603628900001,-7.5497745819999409,0],[112.25603177200003,-7.5497902949999798,0],[112.2559843790001,-7.5497549649999769,0],[112.25588412800005,-7.5497086609999542,0],[112.25575187000004,-7.5496475729999588,0],[112.25571756700003,-7.5496317289999411,0],[112.25563290900004,-7.5495926269999813,0],[112.2554913780001,-7.5495272559999762,0],[112.25547797200011,-7.5495234659999255,0],[112.25539141100001,-7.5494989949999649,0],[112.25523893700006,-7.5494558899999333,0],[112.25518797300003,-7.5494414819999633,0],[112.25507041000003,-7.5494082459999277,0],[112.25497612400011,-7.5493815909999284,0],[112.25486143400008,-7.5493491679999352,0],[112.25483870500011,-7.5493427419999648,0],[112.25479943000005,-7.5493307029999528,0],[112.25463699900001,-7.5492809109999257,0],[112.25462825400007,-7.5492794729999559,0],[112.25461739000002,-7.5492776869999716,0],[112.2545466790001,-7.5492660589999332,0],[112.2545511190001,-7.5491901989999519,0],[112.25455385600003,-7.5491434319999371,0],[112.25455629100009,-7.5491018309999731,0],[112.25442380200002,-7.5490778179999438,0],[112.25435955800003,-7.5490684459999784,0],[112.25427289700008,-7.5490558029999306,0],[112.25424439100004,-7.5490516439999737,0],[112.25416916300003,-7.5490333969999597,0],[112.25405927700001,-7.5490067419999605,0],[112.25403525400009,-7.5490009149999651,0],[112.2540231370001,-7.5489979759999528,0],[112.25396272300009,-7.5489814859999456,0],[112.25394853400007,-7.5489776129999768,0],[112.25388019100001,-7.5489589589999468,0],[112.25385893400005,-7.5489531569999713,0],[112.25385883800004,-7.548953130999962,0],[112.25382722200004,-7.5489445009999372,0],[112.25363109600005,-7.5488957589999472,0],[112.25357574000009,-7.5488824099999761,0],[112.25357491300008,-7.5488822109999774,0],[112.25346881300004,-7.5488566239999386,0],[112.25333994000005,-7.5488212949999252,0],[112.25332071000003,-7.5488160229999721,0],[112.25327160400002,-7.5488025619999348,0],[112.25318697600005,-7.5487858979999487,0],[112.25314014800006,-7.5487816339999654,0],[112.25307178000003,-7.5487754089999726,0],[112.25299387300004,-7.548759557999972,0],[112.25266083800011,-7.5486680219999585,0],[112.252659558,-7.5486676699999293,0],[112.25258698500011,-7.5486477229999309,0],[112.25232644800008,-7.5485793919999651,0],[112.25219896500005,-7.5485459559999413,0],[112.25209999900005,-7.5485199999999395,0],[112.25196588900008,-7.5484901269999796,0],[112.25182888600011,-7.5484596089999627,0],[112.25159812300001,-7.5484082059999764,0],[112.25148767500002,-7.5483836019999444,0],[112.25136098600001,-7.5483516649999274,0],[112.25120451800001,-7.5483122189999676,0],[112.25106651900001,-7.5482760769999686,0],[112.25090470600003,-7.5482336969999437,0],[112.250614412,-7.5481623129999775,0],[112.25040392000005,-7.5481013289999623,0],[112.25032200400005,-7.5480822409999746,0],[112.25029587900008,-7.548080979999952,0],[112.25028957400002,-7.5480819929999257,0],[112.25026458100001,-7.5480860099999632,0],[112.25013479400002,-7.5481448029999569,0],[112.25007363400005,-7.5482503959999576,0],[112.25002026600009,-7.5483425369999395,0],[112.24992748300008,-7.548597635999954,0],[112.24985783400007,-7.5487885149999556,0],[112.24981675600009,-7.5489010919999373,0],[112.24976327100001,-7.5490476729999614,0],[112.24973531000001,-7.5491243029999282,0],[112.24970703100007,-7.5492077559999302,0],[112.24947932500004,-7.5498797249999257,0],[112.24938230300006,-7.5501660429999333,0],[112.24930392500005,-7.5503973399999609,0],[112.24919527600002,-7.5507354559999271,0],[112.24898507300009,-7.5513896109999337,0],[112.24898495000002,-7.5513899929999297,0],[112.24892697100006,-7.5515704239999764,0],[112.24891334100005,-7.5516128379999259,0],[112.24890691400003,-7.5516349439999431,0],[112.24885758500011,-7.5518045709999342,0],[112.2488441270001,-7.5518508499999371,0],[112.24882217100003,-7.5519263529999421,0],[112.24879150000004,-7.5520318219999467,0],[112.24877169100012,-7.5520999419999271,0],[112.24875185400003,-7.5521681549999471,0],[112.24874682000006,-7.5521818269999699,0],[112.2487026120001,-7.552301884999963,0],[112.24868357800005,-7.5523535809999771,0],[112.24866752100002,-7.5523971879999294,0],[112.24863771100001,-7.5524781469999311,0],[112.24863905800009,-7.5524838459999728,0],[112.24864846900005,-7.5525236719999498,0],[112.2486793490001,-7.5525703449999355,0],[112.24866000000009,-7.5526399999999398,0],[112.24862623500007,-7.5527158409999515,0],[112.24854298000002,-7.5529028439999593,0],[112.24850681900011,-7.5530061409999689,0],[112.2484478560001,-7.5531745729999784,0],[112.24842153500003,-7.5532486909999648,0],[112.24829570200006,-7.5536030239999263,0],[112.24822547700001,-7.553800770999942,0],[112.24812235400009,-7.5540911559999699,0],[112.24801453700002,-7.5540898079999579,0],[112.24789486800012,-7.5540911559999699,0],[112.24768747000007,-7.5544764599999326,0],[112.24766388500007,-7.5545202759999484,0],[112.24754788500002,-7.5547357779999516,0],[112.24753801500003,-7.5547541149999802,0],[112.24749659000008,-7.5548310729999457,0],[112.24739646100011,-7.5547937259999571,0],[112.24737749200006,-7.5548359989999767,0],[112.24727353800006,-7.5547977319999404,0],[112.24724252100009,-7.5547950649999507,0],[112.24712643000009,-7.5550464469999383,0],[112.24709529400002,-7.5551243699999304,0],[112.24705736100009,-7.5552193009999655,0],[112.24702327400007,-7.5553046089999611,0],[112.24701506800011,-7.555334233999929,0],[112.24697261800009,-7.5554874799999538,0],[112.24697069300009,-7.5554944279999745,0],[112.24693964300002,-7.5555658599999447,0],[112.24693947800006,-7.5555657529999394,0],[112.24641236900004,-7.5552261149999254,0],[112.24646003000009,-7.5551038789999438,0],[112.24624042000005,-7.555032720999975,0],[112.24617982500001,-7.5551910829999542,0],[112.24617153100007,-7.5552103119999288,0],[112.24606898800005,-7.5554480369999624,0],[112.2460659730001,-7.5554550259999473,0],[112.24603519200002,-7.55552638599994,0],[112.24601346100008,-7.5555767659999447,0],[112.24599923300002,-7.5556097509999631,0],[112.24599831300009,-7.5556118559999277,0],[112.24597114900007,-7.5556739639999364,0],[112.24596661500004,-7.5556843319999416,0],[112.24593729900005,-7.5557513629999562,0],[112.24591652200002,-7.5557988699999328,0],[112.24590406100003,-7.5558273619999454,0],[112.24587086800011,-7.5559032589999333,0],[112.24586070300006,-7.5559265009999308,0],[112.24583163700004,-7.5559929599999691,0],[112.24580883400006,-7.5560450999999489,0],[112.2457877280001,-7.5560933589999308,0],[112.24574137100001,-7.5561993559999792,0],[112.24573117600005,-7.5562226669999291,0],[112.24565602000007,-7.5561995999999567,0],[112.24565220200009,-7.5561984279999592,0],[112.24558378200004,-7.5561774279999554,0],[112.24553680200006,-7.5561630089999312,0],[112.24548132400002,-7.5561459809999292,0],[112.2454007660001,-7.5561212559999262,0],[112.24533876600003,-7.5561022269999398,0],[112.24528135700007,-7.5560846059999562,0],[112.24524148,-7.5560723679999455,0],[112.24522304600009,-7.5561273409999785,0],[112.24519728100006,-7.5562041789999626,0],[112.24518845600005,-7.5562304959999551,0],[112.2451700040001,-7.5562855219999392,0],[112.24515935800002,-7.5563172699999654,0],[112.24513622100005,-7.5563862669999367,0],[112.24512617000005,-7.5564162399999759,0],[112.24509383400004,-7.5565126709999504,0],[112.24509226500004,-7.5565173509999681,0],[112.24509122000006,-7.5565204679999738,0],[112.2450665990001,-7.5565938929999561,0],[112.24505034400011,-7.5566423699999632,0],[112.24503249500003,-7.556695594999951,0],[112.24501822800005,-7.5567381409999257,0],[112.24500632500008,-7.5567736389999709,0],[112.24497833000009,-7.5568571239999756,0],[112.24497364400008,-7.5568710999999666,0],[112.24495011300007,-7.5569412739999393,0],[112.24494617800008,-7.5569530069999473,0],[112.24497586900009,-7.5569837509999616,0],[112.24504522600012,-7.5570555669999635,0],[112.24504571500006,-7.5570560729999556,0],[112.24515933200007,-7.5571737169999551,0],[112.24519960700002,-7.557215418999931,0],[112.24528119500008,-7.5572998989999292,0],[112.24528666200001,-7.5573055599999748,0],[112.24528567300001,-7.5573197389999791,0],[112.24528308600009,-7.5573568429999796,0],[112.24528069200005,-7.5573911659999453,0],[112.24528018300009,-7.5573984669999277,0],[112.24526185700006,-7.5576612519999458,0],[112.24525211300011,-7.5578009699999598,0],[112.24558700000011,-7.5579428619999476,0],[112.24587315300005,-7.5580641059999607,0],[112.24624928100002,-7.5582234729999414,0],[112.24625568700003,-7.5582261869999456,0],[112.24658872600003,-7.5583672949999254,0],[112.24686495200001,-7.5584843319999777,0],[112.24700230600001,-7.5585425289999648,0],[112.24699360000011,-7.5585680379999758,0],[112.2469062240001,-7.5588240669999323,0],[112.24684536400002,-7.5590023959999257,0],[112.24682957500011,-7.5590439179999294,0],[112.24678723500006,-7.559155268999973,0],[112.24672799500001,-7.5593110619999493,0],[112.24664290800001,-7.5595348309999508,0],[112.24662402900003,-7.5595844799999554,0],[112.24648126600005,-7.5599107819999745,0],[112.24646679800003,-7.5599438489999784,0],[112.24644466600012,-7.5599908209999285,0],[112.24628887800009,-7.5603214499999467,0],[112.24627374400006,-7.56035357199994,0],[112.24607452300006,-7.5607173899999793,0],[112.24640443700002,-7.5608740369999623,0],[112.24700094000002,-7.5612242929999525,0],[112.24785137900005,-7.561723653999934,0],[112.24784767300002,-7.5617565689999537,0],[112.24777032700001,-7.5624436149999497,0],[112.24923014500007,-7.5630269779999253,0],[112.2496450110001,-7.5632019009999567,0],[112.24948925300009,-7.5636118489999262,0],[112.24994562400002,-7.563782248999928,0],[112.24999587100001,-7.5638010099999633,0],[112.24990513600005,-7.5642683459999489,0],[112.24985767800001,-7.5642477009999425,0],[112.24980315200003,-7.564223980999941,0],[112.24977505200002,-7.5642902159999608,0],[112.24971627100001,-7.5643960499999707,0],[112.24970629200004,-7.5644121589999713,0],[112.24970581400009,-7.5644129309999357,0],[112.24967350000009,-7.5644650869999737,0],[112.24962067300009,-7.5645065849999469,0],[112.2496111050001,-7.5645232119999264,0],[112.24959473800004,-7.5645516459999271,0],[112.24959242200009,-7.5645556709999369,0],[112.2495883470001,-7.56456643599995,0],[112.24953149800001,-7.5647166419999508,0],[112.24946665700008,-7.564849292999952,0],[112.24930889900008,-7.5652249369999254,0],[112.24910159300009,-7.5657148109999639,0],[112.24908201700009,-7.5657600909999587,0],[112.24904061000007,-7.5658558739999648,0],[112.24888430400006,-7.5662031839999599,0],[112.24887015200011,-7.5662654009999528,0],[112.24886687700007,-7.5662798029999294,0],[112.24884591900002,-7.5663231979999637,0],[112.24882873600006,-7.5663587789999269,0],[112.24881562200005,-7.5663954589999776,0],[112.24878763000004,-7.5664737509999327,0],[112.24875717200007,-7.5665557679999438,0],[112.24872831900007,-7.5666036809999468,0],[112.24871249600005,-7.5666299569999751,0],[112.24868990200002,-7.5666953069999749,0],[112.24867539700006,-7.5667372619999469,0],[112.24863564200007,-7.5668232829999624,0],[112.24863154800005,-7.5668321419999529,0],[112.24863000700009,-7.5668363829999521,0],[112.24861727400003,-7.5668714239999417,0],[112.24861203100011,-7.566878170999928,0],[112.24858000300003,-7.5669193879999739,0],[112.24846519500011,-7.5672195189999343,0],[112.24843339200004,-7.5673026569999706,0],[112.24836443200002,-7.5674750489999383,0],[112.24834101600004,-7.5675335879999466,0],[112.24829519000002,-7.5676370379999298,0],[112.2482476240001,-7.5677444219999757,0],[112.2481295770001,-7.5680045989999485,0],[112.24813034700003,-7.5680080109999608,0],[112.24777720300006,-7.5687960459999317,0],[112.24768453900003,-7.568762721999974,0],[112.24759122400008,-7.5687291649999793,0],[112.24758521900003,-7.5687486909999393,0],[112.24757977700006,-7.5687663899999507,0],[112.24756713900001,-7.5688074899999265,0],[112.24750394400007,-7.5690129889999298,0],[112.24748710800009,-7.5691623479999635,0],[112.24761725600001,-7.5693916849999709,0],[112.24765678300002,-7.569481565999979,0],[112.24776058500004,-7.5697176009999794,0],[112.24788083700003,-7.5699910449999379,0],[112.24819972300008,-7.5702429319999283,0],[112.2482647490001,-7.5702942959999291,0],[112.24825716700002,-7.5703167149999331,0],[112.24813985700007,-7.5706636559999652,0],[112.24813151500007,-7.5706883229999562,0],[112.24810825300005,-7.5707592009999303,0],[112.24806026200008,-7.5709054279999464,0],[112.24797470500005,-7.5711661089999325,0],[112.24824534100003,-7.571239238999965,0],[112.24829585400005,-7.5712528899999256,0],[112.248310618,-7.5713479699999766,0],[112.24857258400004,-7.5713496849999729,0],[112.24859359100003,-7.5713498229999345,0],[112.24861564600008,-7.5713499669999464,0],[112.24863262300005,-7.5712589919999687,0],[112.24863548200005,-7.5712436699999444,0],[112.2487805400001,-7.5712432539999668,0],[112.24907326100004,-7.571242414999972,0],[112.24910363700008,-7.5712423279999257,0],[112.24914768400004,-7.5712422009999614,0],[112.2491644370001,-7.5711105259999272,0],[112.24917582500007,-7.5710210259999258,0],[112.24923299400007,-7.5708887799999616,0],[112.24934206100011,-7.5707908399999724,0],[112.24940821100006,-7.57066002199997,0],[112.24943075800002,-7.5706154329999436,0],[112.2495109250001,-7.5704745059999254,0],[112.24952150200011,-7.5704251679999288,0],[112.24962734000007,-7.5699314849999269,0],[112.24964435100003,-7.5698586569999406,0],[112.24967566200007,-7.5697246089999339,0],[112.2497235190001,-7.5696493179999607,0],[112.24975971600009,-7.5696300749999637,0],[112.24988606300008,-7.5695629059999305,0],[112.25007588000005,-7.5695279059999621,0],[112.2502650560001,-7.5695273639999527,0],[112.25030224500006,-7.569527255999958,0],[112.25046539800007,-7.5695593309999367,0],[112.25062662200003,-7.5695875819999401,0],[112.25074942400011,-7.5695968009999319,0],[112.25082822900004,-7.5695984019999401,0],[112.25083191900001,-7.5695984769999427,0],[112.25092398300001,-7.5695924709999645,0],[112.25098913500005,-7.5695673989999364,0],[112.25100638700007,-7.5695483239999248,0],[112.25104114600003,-7.5695098909999388,0],[112.25106587900007,-7.5694825439999249,0],[112.25176272700003,-7.5698725759999661,0],[112.25176807600008,-7.5698755709999546,0],[112.2518242860001,-7.5697966249999808,0],[112.25224738000009,-7.5700155129999303,0],[112.25231866400009,-7.570052392999969,0],[112.25242323200007,-7.5698666379999509,0],[112.25243731700004,-7.569841614999973,0],[112.25244893800004,-7.5698209719999454,0],[112.25267639700007,-7.5698553559999482,0],[112.25315440100007,-7.5699276149999264,0],[112.25320008900007,-7.5699345209999365,0],[112.2549343070001,-7.5701966709999624,0],[112.25495691000003,-7.5702007779999576,0],[112.25497105800002,-7.5702033489999394,0],[112.25497960000007,-7.5702049019999436,0],[112.25499269800002,-7.5702072819999557,0],[112.25501157000008,-7.5702107109999588,0],[112.25499604000004,-7.5702923279999368,0],[112.25499300800004,-7.570308258999944,0],[112.25514753600009,-7.5703446179999787,0],[112.25527486100009,-7.5703745779999281,0],[112.25542360500003,-7.5703990339999336,0],[112.25560117600003,-7.5704415929999413,0],[112.25566428700006,-7.5704640189999282,0],[112.2558469810001,-7.570528938999928,0],[112.2560598020001,-7.5706113879999748,0],[112.25610345000007,-7.5706327079999483,0],[112.25615289400002,-7.5706544919999601,0],[112.25618232700003,-7.5706674599999815,0],[112.25641167400011,-7.570768505999979,0],[112.25654326000006,-7.5708303389999401,0],[112.25719752500004,-7.5710342059999789,0],[112.25760351200006,-7.5711607089999688,0],[112.25790034300007,-7.5712531999999442,0],[112.25873078000006,-7.5715119589999631,0],[112.25893904500003,-7.5715768519999642,0],[112.25994251700001,-7.5718895239999711,0],[112.25994290300002,-7.5718896439999526,0],[112.26014953700007,-7.5719540289999259,0],[112.26024601500001,-7.571984089999944,0],[112.26021060900007,-7.5722090819999721,0],[112.26020080900003,-7.5722713559999306,0],[112.26018886400004,-7.5723324789999538,0],[112.25999360700007,-7.5733315529999459,0],[112.25998662400002,-7.5733614169999441,0],[112.2609526440001,-7.573722337999925,0],[112.26096390000009,-7.5737268519999361,0],[112.2611893080001,-7.5738172309999641,0],[112.26123397900005,-7.5738351429999398,0],[112.26204573400003,-7.5741606219999653,0],[112.26216363200001,-7.574207893999926,0],[112.2622038290001,-7.5742240099999663,0],[112.26226497300001,-7.5742485259999626,0],[112.26225944100008,-7.5742777859999251,0],[112.26214856900003,-7.5748642559999553,0],[112.26207415500005,-7.575257879999981,0],[112.26205206200007,-7.5753978489999554,0],[112.26199095600009,-7.5757849959999248,0],[112.26195108500008,-7.5760018819999573,0],[112.2619503520001,-7.5760058659999459,0],[112.26189196600001,-7.5763234699999771,0],[112.26173128900007,-7.5771974949999503,0],[112.26171380200003,-7.5773396959999673,0],[112.26170453200007,-7.5773686569999654,0],[112.26169496500006,-7.5773985519999769,0],[112.26167578000002,-7.5774584889999801,0],[112.26144914100007,-7.5778658859999268,0],[112.26141136700005,-7.5779337839999812,0],[112.26130929100009,-7.5781709979999619,0],[112.26119108400007,-7.5784456879999311,0],[112.26105211100003,-7.5787686399999643,0],[112.26098164300004,-7.5789323959999706,0],[112.26093001700008,-7.5790886149999324,0],[112.26092822100009,-7.5790978749999454,0],[112.26092170000004,-7.5791315179999401,0],[112.26091310300001,-7.5791642079999519,0],[112.26091405400007,-7.5792106349999813,0],[112.26094022900008,-7.5792396559999702,0],[112.26106164900011,-7.5793005599999788,0],[112.26124160200004,-7.5794347999999445,0],[112.26143754600002,-7.5795649249999428,0],[112.26147345300001,-7.5795887699999298,0],[112.2619014500001,-7.5799130509999486,0],[112.26202528100009,-7.5800036989999739,0],[112.26303188300005,-7.5807405489999269,0],[112.26352803300006,-7.5811525829999482,0],[112.26356386800001,-7.5812018919999673,0],[112.26365568900007,-7.5813282429999731,0],[112.26365765100002,-7.5813302319999707,0],[112.26369354400003,-7.5813666209999724,0],[112.26377133200003,-7.5814454859999501,0],[112.26390642400008,-7.5815824439999346,0],[112.26400235100004,-7.5816796989999489,0],[112.26424671300003,-7.5819796899999687,0],[112.26462270000002,-7.5825775849999673,0],[112.26484332100006,-7.5828580959999385,0],[112.26495026400005,-7.5829940729999521,0],[112.26518005500009,-7.5832862419999287,0],[112.26520197700006,-7.5833141129999717,0],[112.26522096300005,-7.5833382529999653,0],[112.26534671200011,-7.5834981389999712,0],[112.26534985300009,-7.583510351999962,0],[112.26541155700011,-7.5837502669999708,0],[112.26541656900008,-7.583769755999981,0],[112.26547584800005,-7.5839640889999487,0],[112.26551341700008,-7.5840872369999488,0],[112.26565591600001,-7.5842705879999812,0],[112.26570433500001,-7.5843021709999334,0],[112.26580199400007,-7.5843658739999569,0],[112.26585910000006,-7.5844010159999584,0],[112.2658603640001,-7.5844017939999731,0],[112.26591346300006,-7.5844344619999333,0],[112.26599220500009,-7.5845527639999659,0],[112.26604063700006,-7.5846255149999706,0],[112.26615909600002,-7.5847643819999462,0],[112.26624651300006,-7.5848432759999582,0],[112.26624898700004,-7.5848455089999334,0],[112.26630810500001,-7.5848937979999391,0],[112.26641192400007,-7.5849675819999334,0],[112.26644072900001,-7.5849880539999504,0],[112.26684810300003,-7.5852165749999472,0],[112.26694815200005,-7.5853158229999735,0],[112.26702144300009,-7.5854496059999406,0],[112.26704574700011,-7.5854964229999382,0],[112.26704578900001,-7.5854965039999342,0],[112.26710847200002,-7.585617253999942,0],[112.26711241800001,-7.585624854999935,0],[112.26743817100009,-7.5862523679999754,0],[112.26764668300007,-7.5867035179999789,0],[112.26777748800009,-7.5870658669999784,0],[112.26783248900006,-7.5872182209999437,0],[112.26777996100009,-7.5872155839999778,0],[112.26764741000011,-7.5872089239999809,0],[112.26753258500003,-7.58720315599993,0],[112.26750124400007,-7.5871492249999619,0],[112.26744137800006,-7.5871353539999404,0],[112.26724016000003,-7.5870887309999375,0],[112.26704534400005,-7.5875421069999334,0],[112.26701804600009,-7.5876216539999746,0],[112.26686079500007,-7.5880798929999287,0],[112.26680101900001,-7.5882540809999455,0],[112.26672577200009,-7.5884733529999266,0],[112.26668121500006,-7.5884846059999518,0],[112.26664909200008,-7.5884927189999303,0],[112.26664671700007,-7.5884971499999665,0],[112.26662237900007,-7.5885425669999336,0],[112.26658804700003,-7.5885362469999791,0],[112.26637668700005,-7.5884973409999361,0],[112.26637023400008,-7.5885200679999798,0],[112.26628493200008,-7.5888204769999561,0],[112.26627041500001,-7.5888715999999476,0],[112.26626071900012,-7.5889057479999451,0],[112.26617540600012,-7.5892061919999492,0],[112.26599457100008,-7.5898124349999421,0],[112.26596793500005,-7.5899017329999765,0],[112.26589423500002,-7.5901488119999385,0],[112.26587392500005,-7.5902209609999431,0],[112.26575223600003,-7.5906532599999537,0],[112.26571088700007,-7.5908001529999751,0],[112.26559134100012,-7.5912248399999385,0],[112.26553151300004,-7.5914373749999413,0],[112.2655296800001,-7.5914438919999725,0],[112.26565852800002,-7.5914765599999328,0],[112.2656451900001,-7.5915327289999368,0],[112.26563840100005,-7.5915613239999402,0],[112.26564178900003,-7.5918180219999272,0],[112.26564505100009,-7.5918754839999565,0],[112.26564552800005,-7.59188388299998,0],[112.26569464800002,-7.5927489149999587,0],[112.26569959900007,-7.5930741879999459,0],[112.26570332200004,-7.5933186809999711,0],[112.26570414800005,-7.5933729279999511,0],[112.26566465200005,-7.5935149159999469,0],[112.26564339700008,-7.5935913259999666,0],[112.26559999800008,-7.5935974279999527,0],[112.26519849600004,-7.593653877999941,0],[112.26519128700011,-7.5936638699999435,0],[112.26511824600004,-7.593765135999945,0],[112.26508293100005,-7.5937657719999265,0],[112.26486502200009,-7.5937697019999746,0],[112.26489393000008,-7.5946659419999492,0],[112.26489644000003,-7.5947437969999783,0],[112.26540245100011,-7.5947547499999359,0],[112.26549338700011,-7.5947567179999282,0],[112.26547181000001,-7.5953412749999529,0],[112.26549203600007,-7.5956972619999306,0],[112.26608531900001,-7.5957303489999504,0],[112.26611115600008,-7.5957317899999452,0],[112.26624228000003,-7.595739101999925,0],[112.26618085700011,-7.5959863579999478,0],[112.26618065500008,-7.5959871729999691,0],[112.26618103600003,-7.5961163839999699,0],[112.26614698900005,-7.5962830209999765,0],[112.26614171400001,-7.5964467029999696,0],[112.26611948300001,-7.5967166739999357,0],[112.26608251800008,-7.5968689629999631,0],[112.26608563900004,-7.5969522229999598,0],[112.26608298100007,-7.5970268859999805,0],[112.26604583200003,-7.597116003999929,0],[112.26599173600005,-7.5973142859999712,0],[112.26593731900005,-7.5977544699999271,0],[112.26592426800005,-7.5978600369999754,0],[112.26587261800012,-7.597856070999967,0],[112.26487942100005,-7.5977798129999314,0],[112.2648387800001,-7.5981026189999739,0],[112.26457561000007,-7.6001929489999611,0],[112.26453912600005,-7.6004827389999718,0],[112.26453004200005,-7.6005513089999681,0],[112.26441242600004,-7.6014392649999536,0],[112.26407111800006,-7.603134177999948,0],[112.26409460200011,-7.6031356509999455,0],[112.26410557300005,-7.6031363379999561,0],[112.26451710000003,-7.6031621259999724,0],[112.26503438400005,-7.6031945409999366,0],[112.26577692400008,-7.6032210899999768,0],[112.26631033000001,-7.6032425039999794,0],[112.26632342000005,-7.6032475739999654,0],[112.2663420020001,-7.6032547709999676,0],[112.26731226000004,-7.6036305599999423,0],[112.26733325300006,-7.6036386909999578,0],[112.26735518300006,-7.6036471839999535,0],[112.26736473800008,-7.6042884219999678,0],[112.26738866100004,-7.6044137829999272,0],[112.26746760300011,-7.6046920229999273,0],[112.26761751100003,-7.6051163159999646,0],[112.26763347200006,-7.6052063259999727,0],[112.26814657900002,-7.6052853639999398,0],[112.26830227800008,-7.6047336109999719,0],[112.26887514600003,-7.6047590079999736,0],[112.26889938900001,-7.6047600829999737,0],[112.26903140500008,-7.6047659349999321,0],[112.26904282800001,-7.6047160409999606,0],[112.26912043200002,-7.6043770869999321,0],[112.26915115600002,-7.6043865679999385,0],[112.26928141300004,-7.6046900869999376,0],[112.26930376300004,-7.6047421679999729,0],[112.26957623700002,-7.6047553129999415,0],[112.26957327400009,-7.6050553119999336,0],[112.26959555200006,-7.6050577629999339,0],[112.26967498800002,-7.605066499999964,0],[112.26967513200009,-7.6051154499999711,0],[112.26967530900004,-7.6051756099999466,0],[112.26966209900002,-7.6052503029999343,0],[112.26960851100011,-7.6052944869999806,0],[112.26954909000006,-7.6053301919999399,0],[112.26958780200005,-7.6054285429999595,0],[112.26958611300006,-7.6055070319999345,0],[112.26949324400005,-7.605893976999937,0],[112.26942611300001,-7.6058999159999416,0],[112.2694013250001,-7.6059516719999465,0],[112.26935940500005,-7.6060494209999661,0],[112.26933320600006,-7.6061110389999271,0],[112.26925492800001,-7.6061101199999257,0],[112.26922622200004,-7.6061343239999815,0],[112.26921488100004,-7.6061917839999751,0],[112.2692197240001,-7.6062733159999425,0],[112.26923485700001,-7.6063306979999652,0],[112.26923727700012,-7.6063708899999369,0],[112.26922468500004,-7.6063950459999319,0],[112.26916136900002,-7.6063929339999277,0],[112.2691095460001,-7.6063850469999466,0],[112.26908422700001,-7.6063765879999323,0],[112.26905672100008,-7.6064276959999688,0],[112.26903279300006,-7.6065116089999378,0],[112.26899161000006,-7.6065990189999297,0],[112.26898852800002,-7.6067253649999316,0],[112.26898405200006,-7.6067690249999487,0],[112.26897029600002,-7.6067885889999616,0],[112.26892083600001,-7.6068013679999353,0],[112.26883018300009,-7.6067983389999654,0],[112.2684527240001,-7.6067857339999705,0],[112.2684465320001,-7.6067855269999427,0],[112.2684440060001,-7.6068023889999381,0],[112.26841416800005,-7.6070015459999354,0],[112.26841676600009,-7.6070849039999757,0],[112.26842094600011,-7.6072189819999494,0],[112.26841430700006,-7.6072564129999591,0],[112.26838018100011,-7.6074488089999477,0],[112.26836862000005,-7.6074854829999481,0],[112.26832847900005,-7.60761281799995,0],[112.26828788700004,-7.6077112029999512,0],[112.26826142500011,-7.6077753399999324,0],[112.26822932000005,-7.6078183129999388,0],[112.26823030600008,-7.6081536819999656,0],[112.26819333300011,-7.608147469999949,0],[112.26790783300009,-7.6080994949999763,0],[112.26771249400008,-7.6084798489999343,0],[112.26812990400003,-7.6086333029999764,0],[112.26819187600006,-7.6086560869999289,0],[112.26814202300011,-7.6089272879999612,0],[112.26812508800003,-7.6090548779999381,0],[112.26812250300009,-7.6090743569999404,0],[112.26812469700008,-7.6090780839999752,0],[112.26814199900002,-7.6091074799999774,0],[112.26814409800011,-7.6091110469999421,0],[112.26817639700005,-7.6091339229999448,0],[112.26826678200007,-7.6091499059999705,0],[112.26845832400011,-7.609183777999931,0],[112.26853419600002,-7.6091971949999788,0],[112.2685557420001,-7.6092170399999759,0],[112.26856415200007,-7.6092510109999694,0],[112.26856746800001,-7.6092644079999445,0],[112.26857127400001,-7.6092797809999411,0],[112.26858152800003,-7.6093685839999807,0],[112.26858859700008,-7.6094298049999338,0],[112.26857179300009,-7.6094558879999568,0],[112.26853367900003,-7.6094911979999438,0],[112.26851209600011,-7.6095111919999567,0],[112.2684662050001,-7.609563393999963,0],[112.26844343500011,-7.6096492179999586,0],[112.26840770600006,-7.6098172719999297,0],[112.26837646600006,-7.6099642099999301,0],[112.2683225290001,-7.6102179069999352,0],[112.26830545200005,-7.6102982199999474,0],[112.26838678900003,-7.6103255469999453,0],[112.26846079800009,-7.6103396629999338,0],[112.26858987700007,-7.6103869149999355,0],[112.2687910410001,-7.6104215469999303,0],[112.26904443300009,-7.6104713409999363,0],[112.26907535400005,-7.6104723099999774,0],[112.2691721760001,-7.6104753449999407,0],[112.26925989300003,-7.6104920759999573,0],[112.2694541840001,-7.6105463349999809,0],[112.26946501400005,-7.6105493589999469,0],[112.26974817900009,-7.6106377419999376,0],[112.26981869500003,-7.6106597509999574,0],[112.26985387400009,-7.6106707309999706,0],[112.26993740500006,-7.6106963279999604,0],[112.26993853900001,-7.6108138379999559,0],[112.26993880100008,-7.6108409339999525,0],[112.26994016500009,-7.6109824949999734,0],[112.26993133100007,-7.6113050049999629,0],[112.26990099900001,-7.6114291359999697,0],[112.26972412300006,-7.6122954149999487,0],[112.26980182900002,-7.612317452999946,0],[112.27009079400011,-7.6123994059999518,0],[112.27009229200007,-7.6123999989999334,0],[112.27017722800008,-7.6124336099999255,0],[112.27035523800009,-7.6124477019999404,0],[112.27047644000004,-7.6124434289999385,0],[112.27057080700001,-7.612440099999958,0],[112.27068672700011,-7.6124360119999324,0],[112.27070821500001,-7.6124359489999733,0],[112.27117182600011,-7.612455347999969,0],[112.2725409410001,-7.6125633199999356,0],[112.27342864100001,-7.6125767399999518,0],[112.27353056900006,-7.6125767679999399,0],[112.27440945000001,-7.6125923839999814,0],[112.27444198000001,-7.6124225059999731,0],[112.27446386000008,-7.612374501999966,0],[112.27450478100002,-7.6123344329999441,0],[112.27453471300009,-7.6123013879999348,0],[112.27456260400004,-7.6122553629999743,0],[112.27458837300003,-7.6121683989999269,0],[112.27460921900001,-7.6121094129999278,0],[112.27465103000009,-7.6120313909999595,0],[112.27473784900008,-7.6119196989999409,0],[112.27520530400011,-7.6119478949999575,0],[112.27551769400009,-7.6119769379999411,0],[112.27647611300006,-7.6121551499999782,0],[112.27670889500007,-7.6123430229999371,0],[112.27679072000001,-7.6123923179999338,0],[112.27681139900005,-7.6123443189999307,0],[112.27690549700003,-7.6122114119999651,0],[112.27703810900005,-7.6121039579999774,0],[112.27710192400002,-7.6120206749999397,0],[112.2778666370001,-7.6120836899999631,0],[112.27808484000002,-7.6120947959999512,0],[112.27826084500009,-7.6121101779999663,0],[112.27857908800001,-7.6120930479999629,0],[112.27902720000009,-7.6120885049999742,0],[112.27914764400009,-7.6120885859999703,0],[112.27917452500003,-7.6120395689999327,0],[112.27919355600011,-7.6120156099999576,0],[112.27962619600009,-7.6120931289999589,0],[112.27988615900006,-7.6121674579999308,0],[112.28013357000009,-7.612212111999952,0],[112.28046781100011,-7.6123183889999382,0],[112.28065638700002,-7.6123160329999564,0],[112.28068765700004,-7.6123194539999304,0],[112.28083941300008,-7.612375578999945,0],[112.28112736600008,-7.6124063589999764,0],[112.28125249600009,-7.6124275269999657,0],[112.28141920000007,-7.6119356629999402,0],[112.28157131800003,-7.6113863169999263,0],[112.28169424800001,-7.61077503599995,0],[112.2816506910001,-7.6107448329999556,0],[112.28163140300001,-7.6107213199999251,0],[112.28161930100009,-7.6106909949999704,0],[112.28163183000004,-7.610595878999959,0],[112.28163891100007,-7.6104180849999352,0],[112.28163087200005,-7.6104077229999803,0],[112.28162125000006,-7.6104033579999282,0],[112.28147706900006,-7.610389401999953,0],[112.28107535200002,-7.610346644999936,0],[112.28085727400003,-7.6103095259999805,0],[112.28085530200008,-7.6103092449999394,0],[112.28081569300002,-7.610454175999962,0],[112.27809370200009,-7.6097971009999696,0],[112.27802149200011,-7.6097493749999785,0],[112.2780189340001,-7.6096966499999326,0],[112.27804018500001,-7.6095719469999494,0],[112.27804765700012,-7.6094180669999787,0],[112.27809299300009,-7.6093728069999429,0],[112.27826864200006,-7.6092363499999465,0],[112.2783644750001,-7.6091485799999532,0],[112.27846270300006,-7.6090584049999279,0],[112.27851775700003,-7.6089911289999463,0],[112.2785919590001,-7.6088998259999698,0],[112.27868002000002,-7.6087933739999585,0],[112.27876795200007,-7.6087411809999708,0],[112.27897795300009,-7.6085384199999453,0],[112.27908574200001,-7.6084318369999551,0],[112.27912478000007,-7.6083646079999312,0],[112.27915032200008,-7.6083365689999596,0],[112.27918227100008,-7.6083093099999815,0],[112.27924548300007,-7.6082923449999385,0],[112.27938947300004,-7.608242382999947,0],[112.27947579000011,-7.6081861999999774,0],[112.27952051300008,-7.6081453199999487,0],[112.27954051100005,-7.608138070999928,0],[112.27968074800003,-7.6081728129999533,0],[112.27974640700006,-7.6081710199999293,0],[112.27978160900011,-7.6081605299999637,0],[112.27980636400002,-7.6081372859999306,0],[112.27984225700004,-7.6080892409999592,0],[112.27997630400012,-7.6079266539999253,0],[112.28002179800001,-7.6078761829999735,0],[112.28005528400001,-7.6078265479999345,0],[112.28006706000008,-7.6077474139999595,0],[112.28006606800011,-7.6076826999999412,0],[112.28000587300005,-7.6076365379999515,0],[112.27989041100011,-7.6075849439999388,0],[112.27978536600006,-7.6075373159999344,0],[112.27972749200001,-7.6074631829999362,0],[112.27981191100002,-7.6073798679999527,0],[112.27986137400001,-7.6073174019999783,0],[112.27989479700011,-7.6072469929999329,0],[112.27992179500006,-7.6071702119999713,0],[112.27993289300002,-7.6071318279999787,0],[112.27992636400006,-7.6070903009999711,0],[112.27992623500006,-7.6070471559999646,0],[112.27993570800004,-7.6070007869999472,0],[112.27994524100006,-7.6069751919999362,0],[112.2799547080001,-7.6069272259999252,0],[112.27995595400012,-7.6068073749999598,0],[112.27995412100006,-7.606729080999969,0],[112.27994913600003,-7.606668372999934,0],[112.27991414200005,-7.6065439719999404,0],[112.27969667900004,-7.6063255579999804,0],[112.27972312100007,-7.6062583359999394,0],[112.28003315000001,-7.6058355899999697,0],[112.28003309400003,-7.6058164149999357,0],[112.280000986,-7.6057909429999313,0],[112.27995767100003,-7.6057655029999296,0],[112.2799111600001,-7.6057432689999587,0],[112.2797620770001,-7.6056957689999649,0],[112.27968991800003,-7.6056656209999574,0],[112.27965940000001,-7.6056353509999326,0],[112.27963727000008,-7.6055923559999314,0],[112.2796560060001,-7.6054987059999348,0],[112.27970213300011,-7.6053915069999789,0],[112.27973888100007,-7.6053618349999397,0],[112.27982610600009,-7.605341603999932,0],[112.27994618600007,-7.6053300639999293,0],[112.28003021600011,-7.6053130379999629,0],[112.28007495200006,-7.6052769519999401,0],[112.28010195700006,-7.6052025669999352,0],[112.28011367500005,-7.6051034599999525,0],[112.28013266100004,-7.6050251039999353,0],[112.28016129700006,-7.6049603009999487,0],[112.2802042940001,-7.6048778789999574,0],[112.28025483400006,-7.6046388369999249,0],[112.28027453600009,-7.6045317159999399,0],[112.28038145100004,-7.604401166999935,0],[112.28046049800002,-7.6043242319999536,0],[112.28065893300004,-7.604271712999946,0],[112.2808053980001,-7.6042465129999641,0],[112.28091416300003,-7.6041998499999295,0],[112.28097088000004,-7.604153341999961,0],[112.28107776400009,-7.6040124059999812,0],[112.28118555600008,-7.6039074219999634,0],[112.28132094900002,-7.6038347009999256,0],[112.28162592100011,-7.6037635299999806,0],[112.28168194400007,-7.6037627729999713,0],[112.28174991800006,-7.6037693629999694,0],[112.28174231100002,-7.6038142549999748,0],[112.28208972300001,-7.603848409999955,0],[112.28231612600007,-7.603911658999948,0],[112.28257012300003,-7.6038290129999382,0],[112.28260921500009,-7.6038200009999741,0],[112.28292399600002,-7.6038016799999468,0],[112.28292514800012,-7.6032107389999624,0],[112.28323462200001,-7.6031099669999662,0],[112.2835773060001,-7.6032307969999806,0],[112.28401710900005,-7.6033657489999769,0],[112.28403511600004,-7.6033621009999592,0],[112.28404827800011,-7.6033452829999533,0],[112.28405297000006,-7.6033069189999765,0],[112.28407561200004,-7.6032469279999759,0],[112.28416638900001,-7.6030752789999383,0],[112.28425117300003,-7.6029084409999541,0],[112.28446158200006,-7.6025746459999368,0],[112.28458103600008,-7.6023525759999302,0],[112.28482777700003,-7.6019089359999725,0],[112.28487679200009,-7.6019067209999776,0],[112.28493916900004,-7.6018456139999557,0],[112.28494362400011,-7.6018291219999696,0],[112.28495332300008,-7.6017822289999799,0],[112.28496005400007,-7.6017666039999767,0],[112.2850198430001,-7.6016765419999501,0],[112.28517653400002,-7.6015158489999521,0],[112.2856954770001,-7.6016661019999674,0],[112.28601382800002,-7.6016831349999734,0],[112.28611595400002,-7.6016928199999256,0],[112.28650960800007,-7.6017875299999673,0],[112.28671091100011,-7.6018148209999481,0],[112.28673514200011,-7.6018181079999749,0],[112.28795373100002,-7.6019774209999582,0],[112.28935290000004,-7.6021500849999484,0],[112.29017426500002,-7.6022548439999582,0],[112.29044984600012,-7.6024289989999261,0],[112.29047383600005,-7.6024181419999763,0],[112.29049300700001,-7.6024025049999295,0],[112.29050255700008,-7.6023821019999787,0],[112.29050369900006,-7.6023629239999764,0],[112.29050002800011,-7.6023401629999512,0],[112.29050330900009,-7.6022322929999291,0],[112.29055866100009,-7.6014657709999369,0],[112.29063979300008,-7.6012833639999258,0],[112.2908868290001,-7.6007481149999307,0],[112.29099427200003,-7.6005272789999481,0],[112.29109062700002,-7.6002141939999319,0],[112.29113683000003,-7.5999995329999592,0],[112.29118901900006,-7.5997788589999686,0],[112.29126050400009,-7.599583296999981,0],[112.29023032000009,-7.598941477999972,0],[112.29047152400005,-7.5984303259999706,0],[112.29054312400001,-7.5982743129999335,0],[112.2905812460001,-7.5981687349999447,0],[112.29064560300003,-7.5979995609999378,0],[112.29071239900009,-7.59784356199998,0],[112.29078756100012,-7.5976731569999743,0],[112.29091506700001,-7.5973336129999325,0],[112.29096880200007,-7.5972279889999754,0],[112.29101055100011,-7.597130788999948,0],[112.29107028100009,-7.5970215499999654,0],[112.2911358660001,-7.596861960999945,0],[112.29129821100003,-7.5965247109999723,0],[112.2914971130001,-7.5961615839999581,0],[112.29106067800001,-7.5959306799999808,0],[112.29080902200008,-7.5958563239999535,0],[112.29059245800011,-7.595734724999943,0],[112.29045845100006,-7.5956400459999713,0],[112.29018795100001,-7.5954227269999706,0],[112.29007002600008,-7.5953503719999276,0],[112.28970668900001,-7.5951761559999795,0],[112.28948078000008,-7.5951356449999707,0],[112.28933670000004,-7.595429729999978,0],[112.28925170000002,-7.5953892349999705,0],[112.28878878500007,-7.5952718509999499,0],[112.28871548300003,-7.5955823949999512,0],[112.28795728200009,-7.5954833719999328,0],[112.28793057000007,-7.5955883169999652,0],[112.28777983200007,-7.5956110769999441,0],[112.2877213160001,-7.5955516849999754,0],[112.28761480200001,-7.5954121799999257,0],[112.28750989200012,-7.5954754109999385,0],[112.28738890400007,-7.5955425369999716,0],[112.28727575700009,-7.5955874119999294,0],[112.28730777500004,-7.5954782309999587,0],[112.28743272300005,-7.595099346999973,0],[112.28787367900009,-7.5936694699999521,0],[112.28805129500006,-7.5931251299999758,0],[112.28825333900011,-7.5931681849999677,0],[112.28836327400006,-7.5929777039999635,0],[112.28848928700006,-7.5928079479999724,0],[112.28857056100003,-7.5926734779999379,0],[112.28872957800002,-7.5922942929999522,0],[112.2890496980001,-7.5916973079999366,0],[112.28916907400003,-7.5914508689999707,0],[112.28933956300011,-7.5911595359999637,0],[112.28939843100011,-7.5910299279999549,0],[112.28941888500003,-7.5909068249999336,0],[112.28945379800007,-7.5907996569999341,0],[112.28949522500011,-7.5907292269999402,0],[112.28960519000009,-7.5905483309999795,0],[112.28978811800005,-7.5901323209999418,0],[112.28981317500006,-7.5899420899999654,0],[112.28980011100009,-7.5898574379999673,0],[112.2897791150001,-7.5897983759999761,0],[112.28973891200008,-7.5897425659999271,0],[112.28963618700004,-7.5896645719999469,0],[112.28956384000003,-7.589570508999941,0],[112.28934845900005,-7.5893074849999493,0],[112.28915991800011,-7.5889149479999674,0],[112.28886393300002,-7.5884731939999597,0],[112.28847988300004,-7.5880364929999473,0],[112.2881103850001,-7.5876460879999286,0],[112.28767704800009,-7.5873293789999252,0],[112.28721348500005,-7.5869753059999425,0],[112.28685685700009,-7.5866410019999648,0],[112.28716975900011,-7.5860408429999779,0],[112.28738587300006,-7.585608757999978,0],[112.28765462800004,-7.5851070029999619,0],[112.28785925700004,-7.584685856999954,0],[112.28789413700008,-7.5846185829999513,0],[112.28796209200004,-7.5844879759999344,0],[112.28838539000003,-7.5845880779999675,0],[112.28844675500011,-7.5846025899999745,0],[112.28910049000001,-7.5846963649999566,0],[112.28953833800006,-7.5847668489999478,0],[112.29012907200001,-7.5848428619999595,0],[112.29040183500001,-7.5848797689999401,0],[112.29048145500008,-7.5849028859999521,0],[112.29056728600005,-7.5847360949999256,0],[112.29057066400003,-7.5847269459999325,0],[112.29057210300004,-7.584723050999969,0],[112.2906315140001,-7.5845621889999393,0],[112.29077257800009,-7.5842397999999775,0],[112.29129883300004,-7.5843913869999255,0],[112.29142334500011,-7.5843916479999507,0],[112.29150477700011,-7.5843579069999691,0],[112.29153349500007,-7.5843386799999735,0],[112.29157780100002,-7.5843194069999527,0],[112.29158284000005,-7.5843185159999393,0],[112.29160536500001,-7.5843145389999336,0],[112.29168814700006,-7.5843322389999344,0],[112.29172658300001,-7.5843548559999476,0],[112.29173440900001,-7.5843590559999257,0],[112.291784226,-7.5843857909999315,0],[112.29182025800003,-7.5844060219999392,0],[112.29185749300007,-7.584428642999967,0],[112.2919564340001,-7.5845175189999736,0],[112.29195788000004,-7.5845180549999327,0],[112.29239246200007,-7.5846789119999585,0],[112.29260419400009,-7.5847374849999483,0],[112.29269180600011,-7.5847659359999398,0],[112.2927446330001,-7.5847897069999703,0],[112.2930300590001,-7.5849149129999773,0],[112.29344978800009,-7.585070271999939,0],[112.29351866600007,-7.5849597629999721,0],[112.29352023300009,-7.5849572479999665,0],[112.29353176600011,-7.5849387459999775,0],[112.29392180600007,-7.5850608119999379,0],[112.29414862600004,-7.5851307239999528,0],[112.29424105200007,-7.5851651449999622,0],[112.29440427600002,-7.5852184949999355,0],[112.29456648200005,-7.5852664869999558,0],[112.29458808800007,-7.5852688169999283,0],[112.29517321500009,-7.5854688159999455,0],[112.29517545500005,-7.585469246999935,0],[112.29524878400002,-7.5854833779999353,0],[112.29527893200009,-7.5854936899999643,0],[112.29533473600009,-7.5853936169999656,0],[112.29612700500002,-7.5857785729999705,0],[112.29662808300009,-7.5859868099999517,0],[112.29676431200005,-7.5860223579999797,0],[112.29713106500003,-7.5861630819999277,0],[112.29713279500004,-7.5861600019999287,0],[112.29721778300006,-7.5861558499999546,0],[112.29729333000012,-7.586159213999963,0],[112.29740797800002,-7.5861860489999344,0],[112.29742299800012,-7.5861895639999375,0],[112.29776301900006,-7.5863368859999696,0],[112.29818266900008,-7.5865072409999357,0],[112.29835140200009,-7.5865620649999528,0],[112.29839216200003,-7.5865783029999534,0],[112.29852103000007,-7.5866296379999767,0],[112.29859046100012,-7.586659382999926,0],[112.2986057490001,-7.5866593369999578,0],[112.29862191800009,-7.5866536059999703,0],[112.29863146800005,-7.58663981899997,0],[112.29864249900004,-7.5866194479999649,0],[112.29870916200002,-7.5864857729999358,0],[112.29878928200003,-7.5863352699999496,0],[112.29893429400011,-7.5860773119999294,0],[112.29894002300011,-7.5860671189999493,0],[112.29896607800003,-7.5860791559999257,0],[112.29913764300011,-7.5861625749999462,0],[112.29919495000001,-7.5861904369999706,0],[112.2993329090001,-7.5862575179999681,0],[112.29936595700008,-7.5862722919999328,0],[112.2993718140001,-7.5862749099999292,0],[112.29942595600005,-7.5862991119999492,0],[112.29945358300006,-7.5863157789999605,0],[112.29951482200011,-7.5863455049999402,0],[112.29953711200005,-7.5863586979999695,0],[112.29954153100005,-7.5863613149999765,0],[112.29955806200007,-7.5863710979999723,0],[112.29956526800004,-7.5863746659999265,0],[112.2995784630001,-7.5863770199999294,0],[112.29960003800011,-7.5863745619999463,0],[112.29962092700009,-7.5863706349999802,0],[112.29962890400009,-7.5863691369999628,0],[112.29965695600004,-7.5863630259999582,0],[112.29966954200006,-7.5863617919999342,0],[112.29971333000003,-7.5863700359999484,0],[112.29976913400003,-7.5863866189999385,0],[112.29992099900005,-7.5864238919999707,0],[112.2999573620001,-7.5864307089999556,0],[112.29999770000006,-7.5863453619999746,0],[112.30016457700003,-7.5864072349999674,0],[112.30016574100011,-7.5864076669999463,0],[112.30025121100005,-7.5864393559999712,0],[112.30027408500007,-7.5863904769999522,0],[112.30029502400009,-7.5863358599999628,0],[112.30033691500012,-7.5862314099999253,0],[112.30035504800003,-7.5862007289999269,0],[112.30039804600005,-7.586146044999964,0],[112.30052186300009,-7.5861724739999659,0],[112.30053708000003,-7.5861448509999718,0],[112.30053859100008,-7.5861421079999332,0],[112.30055143800007,-7.5861187879999648,0],[112.30066797300003,-7.5861597569999617,0],[112.30068668500007,-7.5861697589999721,0],[112.30073116200003,-7.586193532999971,0],[112.30096041200011,-7.5862742009999806,0],[112.30106425400004,-7.5863033099999484,0],[112.30103945200005,-7.5862088409999728,0],[112.30103500000007,-7.5861643499999332,0],[112.30103920200008,-7.5861255749999259,0],[112.3010549280001,-7.5860925079999788,0],[112.3010631950001,-7.5860798079999654,0],[112.30107927500001,-7.5860551079999254,0],[112.30111518000001,-7.5860334649999572,0],[112.30113331700011,-7.5860263219999524,0],[112.30114823400004,-7.5860204459999636,0],[112.30120145900003,-7.586017414999958,0],[112.3012345520001,-7.5860173159999249,0],[112.30126762700002,-7.5860114749999639,0],[112.30128053300007,-7.5859970789999807,0],[112.30131049300007,-7.5859122859999388,0],[112.30132039200009,-7.5858548309999492,0],[112.30133319000004,-7.5858045439999273,0],[112.30134311100005,-7.5857542659999808,0],[112.3013444290001,-7.5857140649999337,0],[112.30133427900012,-7.5856882529999439,0],[112.30130835500006,-7.5856797179999376,0],[112.30127092500004,-7.5856726519999711,0],[112.30126987000006,-7.5856725919999803,0],[112.30122199800007,-7.5856699269999694,0],[112.30120039900009,-7.5856642479999437,0],[112.30119028900003,-7.5856513569999606,0],[112.30118159100005,-7.5856298479999396,0],[112.30117433300006,-7.5856083339999714,0],[112.3011727710001,-7.5855994049999254,0],[112.30115676500009,-7.5855078919999528,0],[112.30118282000001,-7.5854630009999369,0],[112.30117949100008,-7.5854101999999557,0],[112.30119668400005,-7.585385740999925,0],[112.30121513200004,-7.5853737879999699,0],[112.30124120100004,-7.5853568959999507,0],[112.30132163900009,-7.5853121499999361,0],[112.30141500900004,-7.5852616229999512,0],[112.30151030200011,-7.5852291439999249,0],[112.30151556900012,-7.5852264959999616,0],[112.30154864800011,-7.5852052329999538,0],[112.30154874800007,-7.5852051809999352,0],[112.30160180100006,-7.5851777949999359,0],[112.30163338500006,-7.5851547309999319,0],[112.30165202900002,-7.5851345769999625,0],[112.301660588,-7.5851101439999411,0],[112.30166337100002,-7.5850785519999704,0],[112.30165890300009,-7.585028316999967,0],[112.30165730500005,-7.5849752029999422,0],[112.30166293900004,-7.5849349879999295,0],[112.30167000800009,-7.5848933329999682,0],[112.30167703400002,-7.5848373209999522,0],[112.30168268900002,-7.5848042839999721,0],[112.30169411300005,-7.5847755369999277,0],[112.30172842800005,-7.5847036519999733,0],[112.30175706600005,-7.5846576259999665,0],[112.30175980900003,-7.5846545119999291,0],[112.30179004600006,-7.5846201999999607,0],[112.30181930500009,-7.5845876799999701,0],[112.30183019900005,-7.5845755739999277,0],[112.3018545540001,-7.5845410459999698,0],[112.30187750100004,-7.5845165709999378,0],[112.30189757000005,-7.5844921049999812,0],[112.30190901600008,-7.5844705349999799,0],[112.30191896700001,-7.5844303079999804,0],[112.30192172300008,-7.5843901009999399,0],[112.30192155500004,-7.584334111999965,0],[112.30192146800005,-7.5843053979999695,0],[112.30192135200002,-7.5842666359999384,0],[112.30192689100011,-7.5841948369999272,0],[112.30192540200005,-7.5841776129999516,0],[112.30193558500002,-7.5841602209999337,0],[112.30193971500012,-7.5841531639999289,0],[112.30195981200006,-7.5841373119999389,0],[112.30199715300012,-7.5841156659999456,0],[112.30203737600004,-7.5840940099999443,0],[112.30205461100002,-7.5840839089999577,0],[112.30209915300009,-7.5840636769999605,0],[112.30212929800007,-7.5840406149999353,0],[112.30216085600011,-7.5840089369999646,0],[112.30218091600011,-7.5839816009999481,0],[112.30219356700002,-7.5839568359999703,0],[112.30220809400009,-7.5839283989999444,0],[112.30221518900009,-7.5838953579999497,0],[112.30221794600004,-7.5838551519999555,0],[112.30220634000011,-7.5838236019999385,0],[112.30218612900001,-7.5838006909999649,0],[112.30216304200007,-7.5837792259999333,0],[112.3021572020001,-7.5837505319999536,0],[112.30216576100008,-7.5837260999999785,0],[112.30218006700011,-7.5836987789999739,0],[112.30219425900009,-7.5836716749999482,0],[112.30219437300002,-7.5836714589999588,0],[112.30221301200004,-7.5836498679999522,0],[112.30225610600007,-7.5836267689999772,0],[112.30228768200004,-7.5836008319999451,0],[112.30235375800009,-7.583564742999954,0],[112.30242418400007,-7.5835401259999458,0],[112.30243000100006,-7.5835386569999628,0],[112.30247594200011,-7.5835270499999297,0],[112.30251043800001,-7.5835154619999798,0],[112.30253917400012,-7.5835024559999624,0],[112.30256359100008,-7.583488023999962,0],[112.30257504000008,-7.5834678929999768,0],[112.30258357800005,-7.5834362819999797,0],[112.30260641300003,-7.5833744809999644,0],[112.30262353000001,-7.5833256169999572,0],[112.30265074300007,-7.5832839019999483,0],[112.30267081700003,-7.5832608709999363,0],[112.30269519400008,-7.5832335209999542,0],[112.30272098800003,-7.5831989879999355,0],[112.30274389300007,-7.5831601569999521,0],[112.3027524040001,-7.5831199329999777,0],[112.30274802700001,-7.5830998469999713,0],[112.3027321190001,-7.5830726169999707,0],[112.30271040300011,-7.5830281769999601,0],[112.30269733300008,-7.5829880179999805,0],[112.30268575000002,-7.5829636469999286,0],[112.30268133000004,-7.5829292039999814,0],[112.30268268200007,-7.5829004869999608,0],[112.30268546900004,-7.5828703299999347,0],[112.30269109400001,-7.5828272439999296,0],[112.30269391100001,-7.5828071359999285,0],[112.30270090800002,-7.5827886459999263,0],[112.30270533100008,-7.58277695299995,0],[112.30271535500003,-7.582761130999927,0],[112.30272827400006,-7.5827510419999271,0],[112.30275557200002,-7.5827380399999811,0],[112.30276375900007,-7.5827369509999585,0],[112.30278865100001,-7.5827336339999647,0],[112.30283326000006,-7.582736372999932,0],[112.3028735900001,-7.5827506079999694,0],[112.30293983900003,-7.5827719439999441,0],[112.3029699970001,-7.5827864489999683,0],[112.30299026800003,-7.5827961989999721,0],[112.30307523500005,-7.582821785999954,0],[112.30310833500005,-7.5828245589999597,0],[112.30314570500002,-7.5828115259999436,0],[112.30316724200009,-7.5827971049999405,0],[112.30317150000008,-7.5827769929999249,0],[112.30317142100012,-7.5827511509999681,0],[112.30316844400011,-7.5827181399999404,0],[112.3031625210001,-7.5826621679999562,0],[112.3031594790001,-7.582607621999955,0],[112.3031564800001,-7.5825674319999621,0],[112.30314915700001,-7.5825243849999424,0],[112.30314325000006,-7.582474154999943,0],[112.30314171300006,-7.5824411389999682,0],[112.30314595200002,-7.5824152849999678,0],[112.30315305900001,-7.5823865509999564,0],[112.30315874500002,-7.582363561999955,0],[112.30318881200003,-7.5823146609999412,0],[112.30320599700008,-7.5822873319999644,0],[112.30322871400006,-7.5822695919999319,0],[112.30323183300004,-7.5822671559999435,0],[112.30325622700002,-7.5822455479999462,0],[112.3032878680001,-7.5822411459999444,0],[112.30333533400005,-7.582236696999928,0],[112.30342888900009,-7.5822479019999491,0],[112.30349223000007,-7.5822591979999743,0],[112.30349594400002,-7.582259386999965,0],[112.3035454730001,-7.582261907999964,0],[112.30358432800006,-7.5822646639999789,0],[112.30360157600001,-7.5822588699999756,0],[112.30361594300007,-7.5822516479999535,0],[112.30362453200007,-7.582237265999936,0],[112.30363452100005,-7.5822099589999539,0],[112.30364303200008,-7.5821697359999689,0],[112.3036415040001,-7.5821395909999296,0],[112.30363701500005,-7.58208217899994,0],[112.30362390100004,-7.5820276629999626,0],[112.30362237200006,-7.5819975189999695,0],[112.30362660200001,-7.5819687929999304,0],[112.30363514400005,-7.581938617999981,0],[112.30364080400011,-7.5819070179999812,0],[112.30365362200007,-7.581862626999964,0],[112.30370855100011,-7.5818867539999815,0],[112.30408786100008,-7.5819164549999414,0],[112.30411757100001,-7.581907752999939,0],[112.30417784400004,-7.5818558889999395,0],[112.30427928300003,-7.5817780589999302,0],[112.3044946010001,-7.5816118349999329,0],[112.30484668600002,-7.5817520129999707,0],[112.30487601100003,-7.5817636899999457,0],[112.30502468900011,-7.581822883999962,0],[112.30511018000004,-7.5818569199999502,0],[112.30517641600011,-7.5816367789999504,0],[112.30549722800004,-7.5817647299999749,0],[112.30577078700003,-7.5818738329999746,0],[112.30593339200004,-7.5819415699999695,0],[112.30725108400009,-7.5824904749999291,0],[112.30732901800002,-7.5825696799999491,0],[112.30743618300005,-7.5824822619999281,0],[112.30758639300007,-7.5823554739999395,0],[112.30763898700002,-7.5823017179999397,0],[112.30770399100004,-7.5822287829999482,0],[112.30772591400012,-7.5821827769999572,0],[112.30773920400009,-7.5821367959999293,0],[112.3077495870001,-7.5820812529999557,0],[112.30775422200009,-7.5820276399999784,0],[112.30776369200009,-7.5819874149999578,0],[112.30777744300008,-7.5819360309999411,0],[112.30780163100007,-7.5818456499999343,0],[112.30784617000006,-7.5816655809999816,0],[112.30787368800009,-7.5815669169999751,0],[112.30791538900007,-7.5814002569999275,0],[112.30794009400006,-7.5813226569999301,0],[112.30795042200009,-7.5812489299999584,0],[112.30795429200009,-7.5812358389999304,0],[112.30796656400003,-7.5811943259999452,0],[112.30798083900004,-7.5811569559999725,0],[112.30803993500001,-7.5810333129999776,0],[112.30807424000011,-7.5809585559999277,0],[112.30811900100002,-7.5808521829999336,0],[112.30814470200005,-7.5807870239999602,0],[112.30815231200006,-7.5807659449999392,0],[112.30820664100008,-7.5806518859999414,0],[112.30824381800005,-7.5805752069999812,0],[112.30827336200002,-7.5805119489999697,0],[112.30829140700007,-7.5804525549999653,0],[112.30829895000011,-7.5804094619999773,0],[112.30829887300001,-7.5803836209999531,0],[112.30835660500009,-7.5801259889999528,0],[112.3083725350001,-7.580001516999971,0],[112.30837618500004,-7.5799392949999742,0],[112.30837705400006,-7.579909622999935,0],[112.30840742900011,-7.5798042499999383,0],[112.30842058300004,-7.5797132859999579,0],[112.30844042400008,-7.5796136879999381,0],[112.30845456600002,-7.5795322919999535,0],[112.30846686000007,-7.5794738719999373,0],[112.30849044700005,-7.5793436339999403,0],[112.30849504000003,-7.5792766249999772,0],[112.30850252300002,-7.5792134339999393,0],[112.3085033640001,-7.5791741899999465,0],[112.30849938300003,-7.5791263469999421,0],[112.30846189500005,-7.5790996609999297,0],[112.3083507230001,-7.5791030209999803,0],[112.30834987000003,-7.5791021739999564,0],[112.30824141200003,-7.5790720879999753,0],[112.3080379160001,-7.5790156409999554,0],[112.30621633400006,-7.5783619609999278,0],[112.30569220200005,-7.578236143999959,0],[112.30569219800009,-7.5782070929999463,0],[112.30570322700009,-7.5780472239999312,0],[112.30570305100002,-7.5779888409999785,0],[112.30571249800005,-7.5779409579999424,0],[112.30574106600011,-7.5778719609999712,0],[112.30579626500003,-7.5777282299999342,0],[112.30582767600004,-7.5776477399999749,0],[112.30583686600005,-7.5776234479999403,0],[112.30584290200011,-7.5776074959999278,0],[112.30594015300005,-7.5774129119999429,0],[112.30604116300003,-7.5771934339999802,0],[112.30604342200002,-7.5771886019999783,0],[112.30608595600006,-7.5770975879999583,0],[112.30610509300004,-7.57708221799993,0],[112.30612426100004,-7.5770764179999333,0],[112.30614057200012,-7.5770782829999348,0],[112.30617994300007,-7.5770934789999274,0],[112.30622501400001,-7.5770895149999546,0],[112.3062384210001,-7.5770827749999512,0],[112.30624889700005,-7.5770578589999786,0],[112.30626221000011,-7.5770195349999767,0],[112.30633355900011,-7.5768240729999548,0],[112.3063829890001,-7.576675573999978,0],[112.30640007200009,-7.576615224999955,0],[112.30644813700007,-7.5764641779999806,0],[112.3064732360001,-7.5763853019999488,0],[112.30650844000002,-7.576290442999948,0],[112.30651794200003,-7.5762607449999564,0],[112.30652649100011,-7.5762329629999385,0],[112.30654401800007,-7.5761893229999373,0],[112.30654458000004,-7.5761879249999424,0],[112.30656650800006,-7.5761438329999464,0],[112.30659132500011,-7.5761035599999786,0],[112.30661900300004,-7.5760575359999507,0],[112.30665241800011,-7.5760057519999577,0],[112.30669150100005,-7.5759252389999574,0],[112.30671343800009,-7.5758840179999538,0],[112.30673636600011,-7.5758533209999541,0],[112.3067544920001,-7.5758207259999608,0],[112.30677547200003,-7.5757804649999798,0],[112.30679358100008,-7.575742125999966,0],[112.30683169400004,-7.5756577869999546,0],[112.30686661100003,-7.5755835859999365,0],[112.30688884000006,-7.5755236209999453,0],[112.30690404100005,-7.5754747639999778,0],[112.30692874400006,-7.5753971639999804,0],[112.30695529100001,-7.5752946739999629,0],[112.30679750100001,-7.5752291319999472,0],[112.30655905100002,-7.5751300859999446,0],[112.30617690300005,-7.5749713499999416,0],[112.30607214000008,-7.574927832999947,0],[112.30597328400006,-7.5748867709999672,0],[112.30594821300008,-7.5748763559999475,0],[112.30591515800006,-7.5748626249999802,0],[112.30587430300011,-7.5748456559999795,0],[112.30578163700011,-7.5748071639999353,0],[112.30576923800004,-7.5748020139999426,0],[112.30568595800003,-7.5747674209999332,0],[112.30566532500006,-7.5747588509999559,0],[112.30556153500004,-7.5747157379999521,0],[112.30553375400007,-7.5747041979999494,0],[112.30544045900001,-7.5746654459999263,0],[112.3054169720001,-7.5746556899999291,0],[112.3054133600001,-7.5746541889999435,0],[112.30531638200011,-7.574613339999928,0],[112.30528693500003,-7.5746009359999675,0],[112.30521810000005,-7.574571940999931,0],[112.30516688600005,-7.5745503689999509,0],[112.30516621900006,-7.5745500879999668,0],[112.30510783900002,-7.5745054689999733,0],[112.30510539700003,-7.5745036019999361,0],[112.30509333100008,-7.574494379999976,0],[112.30508653300001,-7.5744666449999727,0],[112.30506630400009,-7.5744379919999574,0],[112.30504323100001,-7.574419875999979,0],[112.30502963300012,-7.5744167059999654,0],[112.30500675500002,-7.5744113719999291,0],[112.30499592300009,-7.574410099999966,0],[112.30495110400011,-7.5744048389999534,0],[112.30493216100001,-7.5744033749999744,0],[112.3049288740001,-7.5744031209999321,0],[112.30490926500011,-7.5744016059999808,0],[112.30490533000011,-7.5744013019999556,0],[112.30489650100003,-7.574400619999949,0],[112.30486763600004,-7.5743983889999527,0],[112.30485324300003,-7.5743965179999577,0],[112.30485147200011,-7.5743960449999577,0],[112.30478987900005,-7.5743795839999279,0],[112.30478909500005,-7.5743793749999782,0],[112.30456036900011,-7.5742042859999401,0],[112.30438195600004,-7.5741189309999299,0],[112.30410145500002,-7.5740338809999344,0],[112.30381561500008,-7.5739403089999655,0],[112.30378236800004,-7.5739198409999631,0],[112.30377906500007,-7.5739178069999298,0],[112.30371026000012,-7.5738754489999565,0],[112.30368431600004,-7.5738602129999322,0],[112.30366315100002,-7.5738392209999574,0],[112.30363432200011,-7.5738211219999698,0],[112.30358055400006,-7.5738030969999386,0],[112.30354749700007,-7.5737953139999377,0],[112.30352405600001,-7.5737903299999516,0],[112.30349225300006,-7.5737842199999363,0],[112.30344551900009,-7.5737838219999389,0],[112.30341541100006,-7.5737835659999746,0],[112.30331190200002,-7.5737466169999266,0],[112.30311335100009,-7.5736213719999341,0],[112.30305908700007,-7.5736199199999419,0],[112.30301692600005,-7.5736057069999561,0],[112.30301045900001,-7.5736034119999545,0],[112.30300403900003,-7.5736011339999436,0],[112.30290458400009,-7.5735658449999619,0],[112.30277579400001,-7.5734791339999674,0],[112.30275273800009,-7.5734667609999633,0],[112.30273311300004,-7.5734555789999263,0],[112.30271430400001,-7.5734448619999739,0],[112.30267588000004,-7.5734258349999664,0],[112.30262021100009,-7.5734135589999596,0],[112.30257508400007,-7.5733983799999578,0],[112.30253283200011,-7.5733822359999294,0],[112.30247228000007,-7.5733412619999285,0],[112.30245663000005,-7.5733752469999445,0],[112.30245571500006,-7.5733772339999632,0],[112.30243035100011,-7.5734323109999764,0],[112.30240654400006,-7.573489808999966,0],[112.30236934700008,-7.573559788999944,0],[112.30234641900006,-7.5735904849999542,0],[112.30229371700011,-7.5736078699999325,0],[112.30228414500004,-7.5736145979999492,0],[112.30224294400011,-7.5736290779999536,0],[112.30221235700003,-7.5736645819999353,0],[112.30217988900006,-7.5737125339999807,0],[112.30215506100001,-7.5737489789999586,0],[112.3021196200001,-7.5737653549999777,0],[112.30206696500011,-7.573798452999938,0],[112.30205677400011,-7.5738074809999603,0],[112.30204264600002,-7.5738199939999618,0],[112.30203553600006,-7.5738262919999784,0],[112.30203266100011,-7.5738288379999403,0],[112.30196938900008,-7.5738848839999378,0],[112.30196187500007,-7.5738909909999279,0],[112.30193924800005,-7.573909379999975,0],[112.30190560500012,-7.5739396589999615,0],[112.30189763700002,-7.5739468309999438,0],[112.30188989100009,-7.5739533789999314,0],[112.30184310200002,-7.5739929349999784,0],[112.3018361500001,-7.5739992649999408,0],[112.30178140400005,-7.5740491099999758,0],[112.30177682500005,-7.5740563919999317,0],[112.30171643300002,-7.5741524299999696,0],[112.30168973100001,-7.5741396089999284,0],[112.3016144930001,-7.5741034859999559,0],[112.30159744600007,-7.5740953019999324,0],[112.30152866900005,-7.5740822319999666,0],[112.30147326600002,-7.5740717039999481,0],[112.30113852600005,-7.5739107939999712,0],[112.30113191300006,-7.5739100779999262,0],[112.30109888100003,-7.5739065039999787,0],[112.30107381200003,-7.5739037909999638,0],[112.30105276100005,-7.5738983149999513,0],[112.30097014000012,-7.5738768229999778,0],[112.30090534700003,-7.5738579939999795,0],[112.30085277900002,-7.5738427179999803,0],[112.30079950900006,-7.5738306729999749,0],[112.30073816300001,-7.5738135369999782,0],[112.30071815000008,-7.5738079459999312,0],[112.30064828500008,-7.5737794419999318,0],[112.30062831500004,-7.5737566639999727,0],[112.30062621500008,-7.5737542689999486,0],[112.30061430400008,-7.5737406829999259,0],[112.30060497400007,-7.5737300409999762,0],[112.3005984670001,-7.5737192929999537,0],[112.3005825680001,-7.573694934999935,0],[112.30056593100005,-7.5736641179999538,0],[112.30056134000006,-7.5736546129999738,0],[112.3005500050001,-7.5736311439999326,0],[112.30051563400002,-7.5735560059999329,0],[112.30051524800001,-7.5735551589999659,0],[112.30050223300009,-7.5735336629999779,0],[112.30048776300009,-7.5735057109999389,0],[112.30047183700003,-7.5734727389999534,0],[112.30046097700006,-7.5734498009999811,0],[112.30044865500008,-7.5734189709999669,0],[112.30043556200008,-7.5733709159999307,0],[112.30043342100009,-7.5733611489999362,0],[112.30043046700007,-7.5733476809999729,0],[112.30041951700002,-7.5732977449999339,0],[112.30040650800004,-7.5732776849999368,0],[112.30039784900009,-7.5732690969999794,0],[112.30037796800002,-7.5732598779999307,0],[112.30037395300008,-7.5732580159999543,0],[112.30034093900008,-7.573242706999963,0],[112.30032868900003,-7.5732355649999477,0],[112.30029841200007,-7.5732148389999452,0],[112.30027700500011,-7.5732003679999593,0],[112.3002706640001,-7.573196080999935,0],[112.300266695,-7.5731933989999334,0],[112.30023725400008,-7.5731628339999588,0],[112.30023184400011,-7.5731572189999383,0],[112.30022279600007,-7.573154949999946,0],[112.30018814200002,-7.5731462569999621,0],[112.30017440300003,-7.5731393689999322,0],[112.30016633600007,-7.5731353239999635,0],[112.30012978500008,-7.5731169999999679,0],[112.30007000700004,-7.5730942079999295,0],[112.29998937500011,-7.5730736309999429,0],[112.29999790900001,-7.5730322989999763,0],[112.29999840300002,-7.5730299029999628,0],[112.30000789900009,-7.5730132789999516,0],[112.30002152500003,-7.5729995989999566,0],[112.30004520400007,-7.572979428999929,0],[112.30006816800005,-7.5729606969999281,0],[112.30009112400001,-7.5729390939999348,0],[112.29999019900004,-7.5728927129999306,0],[112.29996933700011,-7.5728831259999652,0],[112.29983971400009,-7.5728235559999462,0],[112.29984484500005,-7.5728090959999577,0],[112.29984567200006,-7.5728067689999534,0],[112.29993415100012,-7.5725696419999622,0],[112.300023323,-7.572319332999939,0],[112.30004947800001,-7.5722450799999592,0],[112.30008079000004,-7.5721719489999373,0],[112.3000828160001,-7.572167214999979,0],[112.30014887800007,-7.5720241809999607,0],[112.30026984000006,-7.5717622809999625,0],[112.30041553100011,-7.5714606819999517,0],[112.30049266200001,-7.5713010109999459,0],[112.30057301000011,-7.5713067529999307,0],[112.30058059900011,-7.5712820939999688,0],[112.30060506900008,-7.5712025719999474,0],[112.30064316300002,-7.5711115339999537,0],[112.30072429300003,-7.5709784929999273,0],[112.30079464400001,-7.5708490739999661,0],[112.30081695700005,-7.5707903479999459,0],[112.30086245000007,-7.5706706119999581,0],[112.30089482000005,-7.5705633299999704,0],[112.30089569000006,-7.5705604459999449,0],[112.30091938600003,-7.5704658609999456,0],[112.30091928500008,-7.5704323629999521,0],[112.30090839200011,-7.5703976999999441,0],[112.30086495300009,-7.5703622939999491,0],[112.30036152300011,-7.5700156649999712,0],[112.30037456200012,-7.5699830949999409,0],[112.3004078570001,-7.5698999259999482,0],[112.30046804300002,-7.569819349999932,0],[112.30052254200007,-7.5697617619999278,0],[112.30055170700007,-7.5697363349999591,0],[112.30057707200001,-7.5697142219999591,0],[112.30066901800001,-7.5696694429999525,0],[112.3006856290001,-7.5696585469999604,0],[112.30073937900011,-7.5696232919999602,0],[112.30080975600004,-7.5695828829999527,0],[112.30084417800003,-7.5695468889999802,0],[112.30094374300006,-7.5694843799999489,0],[112.30098554100005,-7.5694292209999503,0],[112.30101418000004,-7.5693836729999475,0],[112.30103443600001,-7.5693417409999597,0],[112.30103554900006,-7.5693130229999497,0],[112.30103419600005,-7.5692615839999462,0],[112.30103887300004,-7.5692220899999256,0],[112.30104475000007,-7.5691825919999474,0],[112.30105902900004,-7.5691466579999656,0],[112.30106856700002,-7.569128682999974,0],[112.30107225300003,-7.5691208579999625,0],[112.30112217900012,-7.5690148669999644,0],[112.30117583000003,-7.5689142109999352,0],[112.30122946000006,-7.5688063769999303,0],[112.30123608500003,-7.5687907259999747,0],[112.30125684200004,-7.568741690999957,0],[112.3012746930001,-7.5686973719999742,0],[112.30128777700008,-7.5686626369999317,0],[112.30130444400004,-7.5686231079999402,0],[112.30131632600001,-7.5685871809999412,0],[112.30135560000008,-7.5684901569999283,0],[112.3013686920001,-7.5684578159999774,0],[112.30138052000007,-7.5684039429999643,0],[112.30138992800005,-7.5683428999999478,0],[112.30141016000005,-7.5682925919999775,0],[112.30142085500006,-7.5682569069999772,0],[112.3014255920001,-7.5682411009999555,0],[112.3014422440001,-7.5681967859999304,0],[112.30146852000007,-7.5681632089999766,0],[112.30148403900012,-7.5681404309999607,0],[112.30149956000002,-7.5681188499999621,0],[112.30150908700011,-7.5680972869999437,0],[112.30151142800003,-7.5680781379999758,0],[112.30152686300005,-7.5680278439999711,0],[112.30154318400002,-7.5679906279999614,0],[112.3015447250001,-7.5679871129999583,0],[112.30155900800003,-7.5679523749999476,0],[112.30157686300004,-7.5679092529999252,0],[112.30159474700008,-7.5678757009999345,0],[112.30161621700006,-7.56783854899993,0],[112.30163766500004,-7.5677942189999499,0],[112.30165196600001,-7.5677654629999438,0],[112.30166624200001,-7.5677283329999341,0],[112.3016733390001,-7.5676960089999739,0],[112.30167450900001,-7.5676864349999278,0],[112.30167803100005,-7.5676613009999301,0],[112.3016837450001,-7.567567965999956,0],[112.30169081400004,-7.5675260709999748,0],[112.30170626300003,-7.5674805629999469,0],[112.3017265090001,-7.5674350399999639,0],[112.30173483300007,-7.5674122839999427,0],[112.30174076700007,-7.5673919279999495,0],[112.30187786400006,-7.5673885019999716,0],[112.30203504300005,-7.5670279229999551,0],[112.30205311000009,-7.5669817549999721,0],[112.30214331800005,-7.5667512359999591,0],[112.30216823300009,-7.5666638259999672,0],[112.3021895490001,-7.5665752299999554,0],[112.30221159100006,-7.5665309089999369,0],[112.30222491900008,-7.5665041099999257,0],[112.30222887700006,-7.5664961519999565,0],[112.30225152700007,-7.5664530149999791,0],[112.30231469800003,-7.5663284029999431,0],[112.30241845400008,-7.5661444489999781,0],[112.30245843700004,-7.5660839119999537,0],[112.30245936100005,-7.5660832579999351,0],[112.30249492700011,-7.5660580809999374,0],[112.30252542500011,-7.5660328659999436,0],[112.30253618500001,-7.5660226649999345,0],[112.30259668100007,-7.5660057339999298,0],[112.30263498400006,-7.5659846839999432,0],[112.3026828080001,-7.5659402749999458,0],[112.3027210570001,-7.5659012779999557,0],[112.30276532500011,-7.5658700399999361,0],[112.30280598100001,-7.5658340269999371,0],[112.30284954300009,-7.565767497999957,0],[112.3029007770001,-7.5656608679999522,0],[112.30294068300009,-7.5655746079999631,0],[112.30296809100003,-7.5655188959999577,0],[112.3030151370001,-7.5654146689999493,0],[112.30304619100002,-7.5653750969999578,0],[112.30305516600004,-7.56536968599994,0],[112.3033035630001,-7.5649470149999729,0],[112.3033149690001,-7.5649276049999798,0],[112.30391094700008,-7.5652124289999279,0],[112.30393308100008,-7.5652230059999397,0],[112.30430069400006,-7.5653986899999381,0],[112.30439268600003,-7.5654426539999804,0],[112.30424991600012,-7.5657574739999518,0],[112.30456534400003,-7.565867591999961,0],[112.3046308910001,-7.5658904749999465,0],[112.30521910300001,-7.5660958229999551,0],[112.30581907100009,-7.5663052739999443,0],[112.30585969100002,-7.5663194539999381,0],[112.30592250500001,-7.5663494609999589,0],[112.30606476600008,-7.566417420999926,0],[112.30696335200003,-7.566790487999981,0],[112.30705009100006,-7.5668264999999337,0],[112.30705384700002,-7.5668690259999494,0],[112.30705604900004,-7.5668939579999801,0],[112.30708611300008,-7.5669052019999299,0],[112.307612027,-7.5671018959999401,0],[112.30769480600009,-7.5670396749999327,0],[112.30776543500008,-7.567003571999976,0],[112.30781348900007,-7.5669948839999392,0],[112.30785291100005,-7.5669877569999358,0],[112.30798006600003,-7.5670101069999305,0],[112.30805788300006,-7.5670343399999638,0],[112.30813607500011,-7.5670586899999535,0],[112.30822359800004,-7.5670584269999495,0],[112.30826551700011,-7.5670439449999662,0],[112.30831337300003,-7.5670103029999609,0],[112.30833938300009,-7.5668881939999437,0],[112.30837397800008,-7.5668306649999408,0],[112.30844686100011,-7.5667466999999533,0],[112.30853052600003,-7.5666603099999747,0],[112.30861312400009,-7.5666169919999788,0],[112.30867535600009,-7.5665797179999572,0],[112.30873284800009,-7.5665604029999258,0],[112.30876277000004,-7.5665435639999714,0],[112.30878782400009,-7.5665028119999533,0],[112.30879732900007,-7.5664740709999592,0],[112.30881152200004,-7.5664094239999713,0],[112.30882699600011,-7.566372289999947,0],[112.30886164200001,-7.5663315089999514,0],[112.30888273300002,-7.5663147919999574,0],[112.30890709400001,-7.5662954809999405,0],[112.30891697200002,-7.5662891839999702,0],[112.30894660100012,-7.56627029699996,0],[112.30896931900008,-7.5662558139999305,0],[112.30902551000008,-7.5662030049999771,0],[112.30906969400007,-7.5661442499999794,0],[112.3091078650001,-7.5660795309999571,0],[112.30913764700006,-7.5660160329999258,0],[112.3091626260001,-7.5659501579999642,0],[112.30916571200009,-7.5659428179999395,0],[112.30920190900008,-7.5658567229999676,0],[112.3092029500001,-7.5658040789999745,0],[112.30921955400004,-7.5657442109999806,0],[112.30924578300005,-7.5656950809999444,0],[112.30929591900008,-7.5656219499999793,0],[112.30938068800003,-7.5655044509999811,0],[112.30944173300009,-7.5654114229999436,0],[112.30944990900002,-7.5653989629999501,0],[112.30949052400001,-7.5653497899999707,0],[112.30961956100009,-7.5652010519999635,0],[112.30963150000002,-7.5651829179999481,0],[112.30966849300012,-7.5651267299999745,0],[112.30971503100011,-7.5650536109999393,0],[112.30977706500005,-7.5649505359999694,0],[112.30982485300001,-7.5648941629999626,0],[112.30984006600011,-7.5648799089999557,0],[112.30989658600004,-7.5648269509999295,0],[112.31005899900003,-7.5646895969999264,0],[112.31013935200008,-7.5646216419999632,0],[112.31015929300008,-7.5646089679999591,0],[112.31025662200011,-7.5645471139999358,0],[112.31026380200001,-7.5645418449999511,0],[112.31028332900007,-7.5645275159999414,0],[112.31013020400007,-7.5643461229999502,0],[112.3101079920001,-7.5642822719999572,0],[112.3100904690001,-7.5641504949999785,0],[112.31007931800002,-7.56406663599995,0],[112.31008288400005,-7.5639731769999798,0],[112.31008488300006,-7.5639208059999419,0],[112.31009464400006,-7.5638388839999493,0],[112.31008436500008,-7.5637490299999399,0],[112.31006609700012,-7.563665192999963,0],[112.31006000700006,-7.5636372479999636,0],[112.31005365300007,-7.5635214159999578,0],[112.3100493930001,-7.5631898169999658,0],[112.31004937800003,-7.5631886899999472,0],[112.31004932200005,-7.5631843139999546,0],[112.31004867700005,-7.5631760169999325,0],[112.31004861500003,-7.5631752229999734,0],[112.31004872500012,-7.5631697869999357,0],[112.31004897600008,-7.5631573979999303,0],[112.31004903500002,-7.5631544739999299,0],[112.31004910500008,-7.5631510289999255,0],[112.31005070300012,-7.5630723279999756,0],[112.31004689600002,-7.5630029509999304,0],[112.31004196300012,-7.5629575029999501,0],[112.31004367900005,-7.5628503499999624,0],[112.31004499000005,-7.5627684669999553,0],[112.31003498700011,-7.5626321089999351,0],[112.31003486600002,-7.5626300179999362,0],[112.31002360500008,-7.562435938999954,0],[112.31000708200008,-7.56218606799996,0],[112.31000224900004,-7.5621129819999737,0],[112.30998584800011,-7.5618426509999495,0],[112.30998007300002,-7.5617391109999517,0],[112.30997953400004,-7.5617294399999651,0],[112.30997672100011,-7.5616789909999511,0],[112.30996556800005,-7.5614790139999286,0],[112.3099558880001,-7.5612661959999627,0],[112.30995582800006,-7.5612648839999679,0],[112.3099527280001,-7.5611967079999545,0],[112.30994783100004,-7.5611406149999425,0],[112.30992839700002,-7.5609180119999451,0],[112.30991795700004,-7.5607984199999692,0],[112.30991768700005,-7.5607896369999708,0],[112.30991666200009,-7.5607564469999602,0],[112.30991603900009,-7.5607362459999763,0],[112.30991555300011,-7.5607205069999281,0],[112.30991465700004,-7.5606914609999762,0],[112.30991452500007,-7.5606871899999533,0],[112.30991375700012,-7.5606623059999265,0],[112.30991264200009,-7.5606261579999341,0],[112.30989870200005,-7.5604358419999471,0],[112.30988704800006,-7.5602767249999374,0],[112.30988513300008,-7.5602505789999555,0],[112.30987137500006,-7.5600615929999435,0],[112.30986629800009,-7.5599682909999615,0],[112.30986775000008,-7.5599612299999421,0],[112.30987811500006,-7.5599108289999322,0],[112.30994236900005,-7.5597491259999288,0],[112.30995610400009,-7.55971341999998,0],[112.31000779800002,-7.5595790439999746,0],[112.31012892800004,-7.5591946439999447,0],[112.31013884200001,-7.559163377999937,0],[112.31018474700011,-7.5590186099999528,0],[112.31020727600003,-7.5589217559999611,0],[112.31024629300009,-7.5587540259999741,0],[112.31029677100003,-7.5585549279999782,0],[112.31031975200005,-7.558464282999978,0],[112.31036598600008,-7.5582906699999626,0],[112.31037234600001,-7.5582704329999615,0],[112.31041942600007,-7.5581206239999688,0],[112.31042273500009,-7.5581095879999793,0],[112.31013525200001,-7.5579726909999749,0],[112.31000779300007,-7.557911995999973,0],[112.30994687200007,-7.5578836109999656,0],[112.30967714700012,-7.557757937999952,0],[112.30963443100006,-7.5577376549999258,0],[112.30930759000012,-7.5575824619999707,0],[112.30920056500008,-7.5575318029999607,0],[112.30889769500004,-7.5573884429999794,0],[112.3085821730001,-7.5572400809999749,0],[112.30853817900004,-7.5572184389999393,0],[112.30849577300012,-7.5571975789999328,0],[112.30849532900004,-7.5571973589999288,0],[112.30846573800011,-7.5571828009999535,0],[112.30839590800008,-7.5571484509999323,0],[112.30835127300008,-7.5571264929999415,0],[112.3081427190001,-7.557023896999965,0],[112.3077385680001,-7.5568262699999309,0],[112.30734953700005,-7.5566329049999581,0],[112.30727118200002,-7.5565949659999774,0],[112.30726342700007,-7.5566156119999732,0],[112.30725852400008,-7.5566286699999523,0],[112.30723868900009,-7.5566814729999692,0],[112.3072313130001,-7.5567011089999596,0],[112.30721933300003,-7.5567330039999661,0],[112.30715305900003,-7.5569094409999593,0],[112.30712829900006,-7.5569739249999657,0],[112.30710888100009,-7.5570244969999294,0],[112.3069786640001,-7.5573636289999513,0],[112.30688702400005,-7.557588821999957,0],[112.30682770200008,-7.5577460679999717,0],[112.30680614200003,-7.557803215999968,0],[112.30673588800005,-7.5579637409999805,0],[112.30672367000011,-7.5579913969999666,0],[112.30670254600011,-7.558039211999926,0],[112.30667982900002,-7.5580896189999294,0],[112.30666205200009,-7.5581290619999777,0],[112.30659545300011,-7.5583087179999779,0],[112.30649671300012,-7.5585650379999265,0],[112.30648136000002,-7.5586019199999441,0],[112.30642291300001,-7.5587423219999437,0],[112.30635163900001,-7.558962668999925,0],[112.30622668900003,-7.5592741009999713,0],[112.30614221400003,-7.5594897009999613,0],[112.30614208100008,-7.5594900559999587,0],[112.30610415400008,-7.5595915069999364,0],[112.3060766860001,-7.55962748099995,0],[112.30604429100003,-7.5596192029999543,0],[112.30578742400007,-7.5595206719999624,0],[112.30571600500002,-7.5594913299999575,0],[112.30544050700007,-7.5593781449999256,0],[112.30506479500002,-7.5592285259999699,0],[112.30476589800003,-7.559107388999962,0],[112.30479091600012,-7.5590546739999809,0],[112.30481473000009,-7.5589995689999796,0],[112.30483614600007,-7.5589444709999611,0],[112.30486835000011,-7.5588893419999295,0],[112.30490881900005,-7.558791117999931,0],[112.30493018700008,-7.5587204679999331,0],[112.30498728600003,-7.5585707499999444,0],[112.30508848900001,-7.5583359569999402,0],[112.30511953500002,-7.5582556889999637,0],[112.30514083600008,-7.5582006099999717,0],[112.30519202200003,-7.5580784259999518,0],[112.30526455900008,-7.5578796119999652,0],[112.30532607900011,-7.5577187799999592,0],[112.30533236600002,-7.5577023449999388,0],[112.30537403700009,-7.5575957479999261,0],[112.30540494200011,-7.5575166889999537,0],[112.3054514160001,-7.5574220369999807,0],[112.30547762300012,-7.5573657289999687,0],[112.30550813400009,-7.5572749089999434,0],[112.3055287200001,-7.5572136359999718,0],[112.30558821200009,-7.5570627149999723,0],[112.30567022500009,-7.5568255869999348,0],[112.30571628400003,-7.5567157249999468,0],[112.30573450600002,-7.556672257999935,0],[112.30583678300002,-7.5563955889999761,0],[112.30595308000011,-7.5561406189999616,0],[112.30597804800004,-7.5560858789999656,0],[112.30598923900004,-7.5560613439999429,0],[112.30600879800011,-7.5560157659999732,0],[112.3060135720001,-7.5560046409999586,0],[112.30602460600005,-7.555978927999945,0],[112.30602785000008,-7.5559713689999626,0],[112.30580778500007,-7.5558529349999617,0],[112.30557425900008,-7.5557106339999791,0],[112.30553465300011,-7.5556864989999326,0],[112.30534584100008,-7.5555729289999363,0],[112.305216427,-7.5554940179999335,0],[112.30512245500006,-7.5554367179999531,0],[112.30508928300003,-7.5554164909999599,0],[112.30484426200007,-7.5552674309999475,0],[112.30471237600011,-7.555187195999963,0],[112.30468474000008,-7.5551702459999319,0],[112.30440202400007,-7.5549968449999483,0],[112.30433618400002,-7.5549564619999501,0],[112.30406158000005,-7.554785618999972,0],[112.30385620200002,-7.5546578449999515,0],[112.30356969200011,-7.5544824939999558,0],[112.30346493400009,-7.5544183819999375,0],[112.30345118600007,-7.554409967999959,0],[112.30330779200006,-7.5543285629999559,0],[112.30315239800007,-7.5542407439999693,0],[112.30302807900011,-7.5541704849999292,0],[112.30294390500001,-7.5541229149999367,0],[112.30270612300001,-7.5539901089999262,0],[112.30253444400012,-7.5538998379999498,0],[112.30238983100003,-7.5538237989999288,0],[112.30220350200011,-7.55372375099995,0],[112.30216647600002,-7.5537038689999463,0],[112.30191804100002,-7.5535742999999798,0],[112.30190782500006,-7.5535689719999368,0],[112.3017467520001,-7.5534810609999568,0],[112.30168806600011,-7.5534490309999569,0],[112.30141367200008,-7.5533042209999621,0],[112.30131341400011,-7.5532513099999505,0],[112.30129725200004,-7.5532428449999429,0],[112.30093588600005,-7.5530535969999733,0],[112.30079607000005,-7.5529804579999791,0],[112.30053746400006,-7.5528451779999273,0],[112.30045171500001,-7.5528012739999326,0],[112.30018462600003,-7.5526645199999507,0],[112.30015384100011,-7.5526487579999753,0],[112.30006773100001,-7.5526046679999581,0],[112.29982543300002,-7.5524782169999298,0],[112.29962431700005,-7.5523732579999319,0],[112.29951337000011,-7.552315354999962,0],[112.29947880200007,-7.5522973149999757,0],[112.29947874700008,-7.5522974289999638,0],[112.29947828700006,-7.5522971809999717,0],[112.29916540800002,-7.5521278819999793,0],[112.29641704000005,-7.5505384029999618,0],[112.29566719000002,-7.5501047369999696,0],[112.29551109400006,-7.5500144609999325,0],[112.29418767400011,-7.5492303929999593,0],[112.29392069300002,-7.5491109129999359,0],[112.29211922600007,-7.5483047089999786,0],[112.2912563970001,-7.5479267469999627,0]]]},"properties":{"OBJECTID":3807,"NAMOBJ":"Jogoroto","FCODE":"BA03070040","REMARK":null,"METADATA":"TASWIL1000020260612KECAMATAN_AR","SRS_ID":"4326","KDBBPS":null,"KDCBPS":null,"KDCPUM":"35.17.19","KDEBPS":null,"KDEPUM":null,"KDPBPS":null,"KDPKAB":"35.17","KDPPUM":"35","LUASWH":29.51250280775923,"TIPADM":3,"WADMKC":"Jogoroto","WADMKD":null,"WADMKK":"Jombang","WADMPR":"Jawa Timur","WIADKC":null,"WIADKK":null,"WIADPR":null,"WIADKD":null,"UUPP":null,"SHAPE_Length":0.32362518197562107,"SHAPE_Area":0.0024181528299728819}}]}