{"type":"FeatureCollection","features":[{"type":"Feature","id":3935,"geometry":{"type":"Polygon","coordinates":[[[112.20495300100004,-7.1325649999999428,0],[112.20435400000008,-7.1325259999999275,0],[112.20365600000002,-7.132507999999973,0],[112.20337500000005,-7.1325289999999768,0],[112.20296731000008,-7.1325373509999395,0],[112.20283800000004,-7.1325400019999279,0],[112.20165200000008,-7.1325629999999478,0],[112.20106300000009,-7.1325849999999491,0],[112.20052500100007,-7.1325859999999466,0],[112.19957900000009,-7.1325729999999794,0],[112.19888600100001,-7.1327279999999291,0],[112.19808500100009,-7.1329009999999471,0],[112.19735500000002,-7.1331019999999512,0],[112.1966010000001,-7.1332010009999749,0],[112.19600200100001,-7.1332790009999485,0],[112.19555008000009,-7.1333309839999401,0],[112.19546300000002,-7.1333410019999519,0],[112.19436546700001,-7.1335409829999321,0],[112.19390578400009,-7.133563550999952,0],[112.19347272400012,-7.1335397549999584,0],[112.19300634900003,-7.1334731299999703,0],[112.19246383200004,-7.1334826479999265,0],[112.19162626200011,-7.1335016829999631,0],[112.19134548600005,-7.1335040629999753,0],[112.19106470800011,-7.1335064439999769,0],[112.19103814900006,-7.1335096629999271,0],[112.19064770800003,-7.1335570059999327,0],[112.18993981900007,-7.133604595999941,0],[112.1886192180001,-7.1338425409999786,0],[112.18840506800007,-7.1339615149999531,0],[112.18821470900002,-7.1340804869999488,0],[112.18789348200005,-7.1341042819999529,0],[112.18735704000005,-7.1341202159999284,0],[112.18729266900004,-7.1341221279999445,0],[112.18688816000008,-7.1341042819999529,0],[112.18602560600004,-7.134009103999972,0],[112.185365305,-7.1339793599999552,0],[112.18459198000005,-7.1339615139999637,0],[112.18386800000007,-7.1340639999999667,0],[112.18362000000002,-7.1340569989999381,0],[112.18312800100011,-7.133977998999967,0],[112.18213600100012,-7.1337759999999548,0],[112.18197254300003,-7.1337573939999288,0],[112.18058100000007,-7.133598999999947,0],[112.18031000000008,-7.1335899999999697,0],[112.18030986000008,-7.1335899869999366,0],[112.18030815600002,-7.1335898309999379,0],[112.18000800100003,-7.1335619999999267,0],[112.17975400100011,-7.133587499999976,0],[112.1792756430001,-7.1336563659999683,0],[112.17902999100011,-7.133640287999981,0],[112.17876230000002,-7.1336283899999557,0],[112.17844702200011,-7.1335926979999726,0],[112.17789379800001,-7.1335213139999496,0],[112.17767369700005,-7.1334915709999791,0],[112.17735841800004,-7.1335332119999748,0],[112.1771502150001,-7.1335748519999811,0],[112.17687657600004,-7.1335570059999327,0],[112.17658509500006,-7.1334975199999349,0],[112.17598428000008,-7.1334975199999349,0],[112.17547864400001,-7.1335748519999811,0],[112.17498490700007,-7.1337354659999619,0],[112.1747291150001,-7.1337057229999346,0],[112.17468152600009,-7.1336759789999746,0],[112.17430676000004,-7.1335332119999748,0],[112.17378922700004,-7.1333250079999289,0],[112.17339661700009,-7.1332952669999372,0],[112.17249837000008,-7.133217932999969,0],[112.17183212100008,-7.1330037809999567,0],[112.17096361800009,-7.1327003999999761,0],[112.17038659800005,-7.1325516859999425,0],[112.16970599900003,-7.13254799799995,0],[112.16955600100005,-7.1326559999999404,0],[112.16924600000004,-7.1328669999999761,0],[112.16899000100011,-7.1329169999999635,0],[112.16856800000005,-7.1329149999999686,0],[112.16842492700005,-7.1329140959999791,0],[112.16761800000006,-7.1329090009999732,0],[112.16714600000012,-7.1328729989999715,0],[112.16714749100004,-7.1328744239999651,0],[112.16825800000004,-7.1339349999999513,0],[112.16882700000008,-7.1347260019999794,0],[112.16886700000009,-7.1347599999999716,0],[112.16956500000003,-7.1352959989999363,0],[112.16970100000003,-7.1355299999999602,0],[112.16976000000011,-7.1357489999999757,0],[112.16977827900007,-7.1361464479999768,0],[112.16979900000001,-7.1365970019999736,0],[112.16980299900001,-7.1368639999999459,0],[112.16983800000003,-7.1369789999999398,0],[112.16983776000006,-7.1369790549999266,0],[112.16968800000006,-7.1370129999999676,0],[112.16950900000006,-7.1371050019999416,0],[112.16933700000004,-7.1373069999999643,0],[112.1691926200001,-7.1379633159999685,0],[112.16904800100008,-7.1386859989999607,0],[112.16913900000009,-7.1388459999999441,0],[112.16938700000003,-7.139033000999973,0],[112.16973000100006,-7.139176999999961,0],[112.16983600000003,-7.1391999999999598,0],[112.16983549300005,-7.1392012329999375,0],[112.16982900100004,-7.1392169999999737,0],[112.16976700000009,-7.1393670019999718,0],[112.1697669130001,-7.1393680389999759,0],[112.16974800000003,-7.1395939999999314,0],[112.1697180000001,-7.1399609999999711,0],[112.16971793700009,-7.1399614259999566,0],[112.16970856300009,-7.1400249819999431,0],[112.16967700000009,-7.1402389999999514,0],[112.16965976300003,-7.1403171689999567,0],[112.16963400100008,-7.1404339999999706,0],[112.16952800000001,-7.1405589999999393,0],[112.16943200000003,-7.140576001999932,0],[112.16909100000009,-7.1406029999999419,0],[112.16903900000011,-7.1406829999999673,0],[112.16903906200002,-7.1406837269999528,0],[112.16905300000008,-7.1408470009999405,0],[112.16905272400004,-7.1408477299999618,0],[112.16900499900009,-7.1409739999999715,0],[112.1690031490001,-7.1409910159999299,0],[112.16899400000011,-7.1410749999999439,0],[112.16902900100001,-7.1412950009999463,0],[112.16902861700009,-7.1412952159999463,0],[112.16889300100001,-7.1413709999999355,0],[112.16875400000004,-7.1413789999999722,0],[112.16841600000009,-7.1413689999999406,0],[112.16836400000011,-7.1414259999999672,0],[112.16830800100001,-7.1415169999999648,0],[112.1681870000001,-7.1418659999999363,0],[112.16819426100005,-7.1419676449999656,0],[112.16823018900004,-7.1422374439999317,0],[112.16839990100004,-7.1432079049999402,0],[112.1684303940001,-7.1434231899999645,0],[112.1684038300001,-7.1435758049999549,0],[112.16836359600006,-7.1436909779999382,0],[112.16835863500012,-7.1437051799999267,0],[112.1683245590001,-7.1438027299999476,0],[112.16831300000001,-7.1438330019999512,0],[112.16825500000004,-7.1440280019999705,0],[112.16812944000003,-7.1443822599999294,0],[112.16812976800009,-7.1443832479999401,0],[112.16811404300006,-7.1444276359999321,0],[112.16815188900011,-7.1446024079999688,0],[112.16814019200001,-7.1447131079999622,0],[112.16808970800002,-7.1448582039999451,0],[112.1680767790001,-7.1448985649999486,0],[112.16807106300007,-7.1449164089999613,0],[112.16806534600005,-7.1449342499999489,0],[112.16804508300004,-7.1449975089999498,0],[112.1680485490001,-7.1451829509999811,0],[112.16807788700009,-7.1453255219999505,0],[112.16808301200001,-7.1453504249999469,0],[112.16809099800003,-7.1453892329999462,0],[112.16816658200003,-7.14556173699998,0],[112.16821457700007,-7.1457029889999717,0],[112.16823167400003,-7.1457481769999731,0],[112.16825075600002,-7.1457986139999434,0],[112.16837670000007,-7.1458641019999618,0],[112.16840683600003,-7.1459388019999324,0],[112.16841010400003,-7.1460464749999346,0],[112.16835353100009,-7.1461752379999552,0],[112.16825013200003,-7.1463263539999389,0],[112.16822300000001,-7.1464859999999248,0],[112.16822302000003,-7.1464866279999342,0],[112.16822627600004,-7.1465706399999362,0],[112.16824900100005,-7.1471579999999335,0],[112.16828900200005,-7.1480279999999539,0],[112.16831100000002,-7.1492579999999748,0],[112.16833931200006,-7.1496715679999738,0],[112.16839000000004,-7.1504119999999602,0],[112.16838541200002,-7.1506520049999267,0],[112.16837300000009,-7.1513010019999683,0],[112.16831161800008,-7.151750591999928,0],[112.16826200000003,-7.1521139999999264,0],[112.16821158000005,-7.1524181709999652,0],[112.16815415400004,-7.1527646149999669,0],[112.16813160100003,-7.1527759479999418,0],[112.16810051700008,-7.1527999569999565,0],[112.16806948200008,-7.1528431099999352,0],[112.16806639300012,-7.1528683109999633,0],[112.16806351700006,-7.1528917709999291,0],[112.16806244200006,-7.1529005559999632,0],[112.16805781900007,-7.1529675679999514,0],[112.16804114700005,-7.1530058989999361,0],[112.16798612200012,-7.1530371449999279,0],[112.16792387500004,-7.1530540549999273,0],[112.16784486300003,-7.1530733969999574,0],[112.16780119700002,-7.1530850599999667,0],[112.16776346100005,-7.1530951399999481,0],[112.16769653300003,-7.153155131999938,0],[112.16768479000007,-7.1531761059999326,0],[112.16765360400007,-7.1532318149999696,0],[112.16758676400002,-7.1533276999999771,0],[112.16754148100006,-7.1534211389999314,0],[112.16749855900002,-7.1535002139999619,0],[112.16744594200009,-7.1535362409999266,0],[112.16739808700004,-7.1535602919999519,0],[112.16726874000005,-7.1535701929999505,0],[112.16726858800007,-7.1535702139999557,0],[112.1671226520001,-7.1535920969999438,0],[112.16692858700003,-7.1535901969999713,0],[112.16677761800008,-7.1535762219999697,0],[112.16669579600011,-7.1535833859999798,0],[112.16666504000011,-7.1535860779999325,0],[112.16650215700008,-7.1535984559999406,0],[112.16636807300006,-7.1536299029999668,0],[112.16624961200012,-7.1536560409999765,0],[112.16603126200005,-7.1537140229999636,0],[112.16600421700002,-7.1537231349999502,0],[112.16596992200004,-7.1537346899999648,0],[112.1659732060001,-7.1537542339999618,0],[112.1662060000001,-7.1551509999999325,0],[112.16627399900005,-7.1555629999999724,0],[112.16630300000008,-7.155749999999955,0],[112.1663032030001,-7.1557513219999578,0],[112.16632300900005,-7.1558805579999785,0],[112.1663430000001,-7.1560109999999781,0],[112.16663200100004,-7.1581969999999728,0],[112.16667719200007,-7.1585633459999372,0],[112.1667920000001,-7.1594939999999383,0],[112.16686692600001,-7.1599860089999652,0],[112.16688200100009,-7.1600849999999809,0],[112.16688280800008,-7.1600893609999616,0],[112.16688700000009,-7.1601119999999696,0],[112.16699400000005,-7.1607699999999568,0],[112.16699421200008,-7.1607712979999292,0],[112.16714300000001,-7.1616869999999722,0],[112.16723800000011,-7.1622679999999264,0],[112.16740000000004,-7.1633389999999508,0],[112.16754000100002,-7.1640849989999538,0],[112.16742040800011,-7.1641574149999769,0],[112.1669240010001,-7.1644579999999678,0],[112.16662100000008,-7.1646349999999757,0],[112.16612100000009,-7.1649779999999623,0],[112.165790001,-7.1652159999999299,0],[112.16563900000006,-7.1655689999999481,0],[112.16564835500003,-7.1657086629999753,0],[112.1656660000001,-7.1659719999999538,0],[112.16569200000004,-7.1662739999999303,0],[112.16582000000005,-7.1670039999999631,0],[112.16591900000003,-7.1676269999999249,0],[112.16613100000006,-7.1690829999999437,0],[112.16620787600004,-7.1695146289999343,0],[112.16632300000003,-7.1701609989999611,0],[112.16632321800012,-7.1701610049999545,0],[112.16828400000009,-7.170208999999943,0],[112.16828419900003,-7.1702090509999721,0],[112.16838099900008,-7.1702329999999392,0],[112.16838111700008,-7.170234020999942,0],[112.16845471800002,-7.170870898999965,0],[112.16855400000009,-7.1717299999999682,0],[112.16860000100007,-7.1721070009999721,0],[112.16977600000007,-7.1722189999999273,0],[112.16987068100002,-7.1722336509999423,0],[112.16987306200008,-7.1731235689999266,0],[112.16987544200003,-7.1740134899999362,0],[112.16893400000004,-7.1742710009999655,0],[112.1689341010001,-7.1742715779999457,0],[112.16902800100002,-7.1748139999999694,0],[112.16919800000005,-7.1759999999999309,0],[112.16929900000002,-7.1766479999999433,0],[112.16945352300002,-7.1776433969999403,0],[112.16946200000007,-7.1776979999999639,0],[112.16950600000007,-7.1779699989999699,0],[112.16950989100008,-7.1779940719999331,0],[112.16953800100009,-7.178167999999971,0],[112.16962400000011,-7.1788639999999759,0],[112.16978193500006,-7.1799114219999751,0],[112.16978700000004,-7.1799449999999752,0],[112.1698120320001,-7.1801257789999795,0],[112.17001700000003,-7.1816060019999668,0],[112.1701700000001,-7.1828269999999748,0],[112.17021179300002,-7.1831210459999397,0],[112.17028200000004,-7.1836150019999536,0],[112.17033550000008,-7.1840025769999443,0],[112.17046600000003,-7.184947999999963,0],[112.17050200000006,-7.1853249999999775,0],[112.17050144700011,-7.1853251419999538,0],[112.17040083200004,-7.1853507279999462,0],[112.1700379990001,-7.1854429989999744,0],[112.1694030000001,-7.1853789999999549,0],[112.1693242990001,-7.1861185989999399,0],[112.16915297800006,-7.1860793379999564,0],[112.16851300000008,-7.1858409999999253,0],[112.16832199900011,-7.1857269999999289,0],[112.16832171300007,-7.1857277249999356,0],[112.16834963700001,-7.185786468999936,0],[112.16836703400008,-7.1858438529999376,0],[112.16838056400002,-7.1858878489999256,0],[112.16837494600009,-7.1859395499999437,0],[112.1683520040001,-7.1859625809999557,0],[112.16830792100006,-7.1859646069999599,0],[112.16825617000006,-7.1859647389999282,0],[112.16822896500003,-7.1859627199999636,0],[112.16820632500003,-7.18596103699997,0],[112.16814882300002,-7.1859611839999502,0],[112.16811815900007,-7.1859631759999729,0],[112.16808177000007,-7.1859747549999611,0],[112.16804351400003,-7.1860054819999277,0],[112.16802062000011,-7.1860476559999711,0],[112.16801692200011,-7.1861012659999801,0],[112.16802088400004,-7.1861510289999728,0],[112.16802869200001,-7.1862065239999424,0],[112.16802698000004,-7.1862869299999375,0],[112.16801731500004,-7.1863194129999783,0],[112.16800987700003,-7.1863444039999536,0],[112.16797354500011,-7.1863789549999524,0],[112.16792187200008,-7.1864097149999679,0],[112.16791876700006,-7.1864116659999695,0],[112.16787594300001,-7.1864385469999661,0],[112.16782045000002,-7.1864750609999533,0],[112.16779566000002,-7.1865248969999698,0],[112.16779195700008,-7.186576592999927,0],[112.1677997810001,-7.186637831999974,0],[112.16782289600008,-7.1866818019999528,0],[112.16784987700009,-7.1867065509999293,0],[112.16787284700001,-7.1867276189999529,0],[112.16790365800011,-7.1867830559999675,0],[112.16792105600007,-7.1868404429999373,0],[112.16792121700007,-7.1869036149999488,0],[112.16791174900004,-7.1869495819999543,0],[112.16788150000002,-7.1869991579999351,0],[112.16787548200011,-7.1870090199999481,0],[112.16784302100007,-7.1870569609999393,0],[112.16780480700004,-7.1871049149999635,0],[112.16776855500007,-7.1871700949999422,0],[112.16773429700004,-7.1872658979999642,0],[112.16773257700004,-7.1873424759999693,0],[112.16773116800005,-7.1874194089999719,0],[112.1677308940001,-7.1874343679999697,0],[112.16771381500007,-7.1875014149999288,0],[112.16767740900002,-7.1875625169999466,0],[112.16763842600005,-7.1876279509999677,0],[112.16762439100012,-7.1877619899999559,0],[112.16763829000001,-7.1878331919999709,0],[112.16763937700011,-7.1878387579999412,0],[112.16764866900007,-7.1878863599999363,0],[112.16771133100008,-7.1880297739999719,0],[112.16778349000003,-7.188139663999948,0],[112.16787485600003,-7.1882638629999747,0],[112.16792520400008,-7.1883602399999518,0],[112.16792585500002,-7.1883614869999519,0],[112.167942272,-7.1883929079999689,0],[112.16800012900001,-7.1885315499999365,0],[112.16804834100003,-7.1886462869999264,0],[112.16804862400011,-7.1887563599999567,0],[112.16802499300002,-7.1888856379999311,0],[112.16799175500012,-7.1890053679999255,0],[112.16797761200007,-7.1890963349999311,0],[112.16796631500006,-7.1891448399999263,0],[112.167939692,-7.1892591489999518,0],[112.16793534900012,-7.1892805729999623,0],[112.16790183400008,-7.1894458949999489,0],[112.16790021700001,-7.1897764599999618,0],[112.1678993590001,-7.1899515649999444,0],[112.16789972700008,-7.1899685979999504,0],[112.16790363100006,-7.1901494039999534,0],[112.16790393800011,-7.1902697119999743,0],[112.16790408400004,-7.1903264789999639,0],[112.16794130700009,-7.190564085999938,0],[112.16798187000006,-7.1905814439999745,0],[112.1680687600001,-7.1907407389999776,0],[112.16825676400003,-7.1909803919999717,0],[112.16844943600006,-7.1912131909999744,0],[112.16859220300012,-7.1913381129999721,0],[112.16868823800007,-7.1914378819999456,0],[112.16868883900008,-7.1914749619999725,0],[112.16869100000008,-7.1916080009999632,0],[112.16865700100004,-7.1924280009999393,0],[112.16865899600009,-7.1930160019999789,0],[112.1686780010001,-7.19335499999994,0],[112.16871963000006,-7.1934222479999335,0],[112.16882100000009,-7.1935859999999252,0],[112.1691790000001,-7.1937279999999646,0],[112.16964300000006,-7.1938160019999486,0],[112.17003700000009,-7.1940110019999679,0],[112.17035900000008,-7.1944909999999709,0],[112.17035912800009,-7.1944915709999577,0],[112.17039353300004,-7.1946433849999494,0],[112.17046799900004,-7.1949719999999502,0],[112.17054100000007,-7.1955239999999776,0],[112.17059600000005,-7.1962009999999736,0],[112.17059800000004,-7.196824999999933,0],[112.1705906310001,-7.1971336379999684,0],[112.17058100000008,-7.1975370009999438,0],[112.17061900100009,-7.1982499999999732,0],[112.17061900600004,-7.1982500679999362,0],[112.17069300000003,-7.1991229999999291,0],[112.17074900000011,-7.2000669999999332,0],[112.17082200100003,-7.200636999999972,0],[112.17085883400011,-7.2009412239999619,0],[112.17087599900003,-7.2010829989999365,0],[112.16977928400001,-7.2017756839999265,0],[112.16918917800001,-7.2021754329999794,0],[112.16860858900009,-7.202765539999973,0],[112.16849750400002,-7.202858110999955,0],[112.16826594700001,-7.2030510749999621,0],[112.16804703600008,-7.2030701099999419,0],[112.16776150100009,-7.2030701099999419,0],[112.16754156100001,-7.2030864029999293,0],[112.16744027400011,-7.2031462559999682,0],[112.16738792600006,-7.2032366729999353,0],[112.16732606100004,-7.2033699219999789,0],[112.16724040000008,-7.2036269049999646,0],[112.16712618600002,-7.2037268439999593,0],[112.16701197100008,-7.203802985999971,0],[112.16691149600001,-7.2038132049999604,0],[112.16667646800011,-7.2038696089999803,0],[112.16634334300011,-7.2038505739999437,0],[112.16601973600007,-7.2038791279999259,0],[112.16573420100008,-7.2040123769999695,0],[112.16551529000003,-7.2040314129999388,0],[112.16532493300008,-7.2039647879999507,0],[112.16522023700009,-7.2038981629999626,0],[112.16502988000002,-7.2038886449999495,0],[112.16483952400006,-7.2040218949999257,0],[112.16474434500003,-7.2042312889999494,0],[112.16470561500012,-7.2043517809999571,0],[112.16464602100007,-7.2043815769999355,0],[112.16445643000009,-7.204340742999932,0],[112.16426607300002,-7.2043121889999497,0],[112.1640043320001,-7.204297912999948,0],[112.16370928000003,-7.2043455019999669,0],[112.16346181500001,-7.2044168859999331,0],[112.16321435100008,-7.2044930289999343,0],[112.16309537800009,-7.2052592149999555,0],[112.16330944000003,-7.2052592149999555,0],[112.16330477200006,-7.2055066789999387,0],[112.16342850300009,-7.2055161959999623,0],[112.16341898600001,-7.2056351699999368,0],[112.16367120900009,-7.2056589639999515,0],[112.16365663700003,-7.2058301729999812,0],[112.16398291700011,-7.205896910999968,0],[112.16381159500008,-7.2065917129999661,0],[112.1638226230001,-7.2065932189999558,0],[112.16379494000012,-7.2066773739999803,0],[112.16398529800006,-7.2067249629999424,0],[112.16395198500004,-7.2068772499999341,0],[112.16430414400008,-7.2069295959999522,0],[112.16428035000001,-7.2070771229999764,0],[112.16464678700004,-7.2071199529999603,0],[112.16507033200003,-7.2071723019999467,0],[112.16507033200003,-7.2072817569999756,0],[112.16517355300005,-7.2074427829999763,0],[112.16514647400004,-7.2077433719999249,0],[112.16507033200003,-7.208162156999947,0],[112.16508631200008,-7.208166796999933,0],[112.16519303400003,-7.2082023809999782,0],[112.16535523500011,-7.2082691689999479,0],[112.1653653840001,-7.2082478179999612,0],[112.16543611500003,-7.2080086799999776,0],[112.16549863500006,-7.2080289069999708,0],[112.16592057800005,-7.2081577119999451,0],[112.16591456900005,-7.2084671569999728,0],[112.16590553200001,-7.2089325839999674,0],[112.16586061300006,-7.2091212379999661,0],[112.16566519600008,-7.2099419939999621,0],[112.1656556800001,-7.2100276569999551,0],[112.16562236600009,-7.210327465999967,0],[112.16558429500003,-7.2104464389999521,0],[112.16554146400006,-7.2105368589999443,0],[112.16551291100006,-7.2106320369999253,0],[112.16558905400007,-7.2107081799999264,0],[112.16561136400003,-7.2107288979999566,0],[112.16560432600011,-7.210803273999943,0],[112.16557477700007,-7.2108223959999691,0],[112.16548435700008,-7.2108699839999417,0],[112.16542249200006,-7.2109461269999429,0],[112.16538231000004,-7.211032232999969,0],[112.16536867400009,-7.2111337259999573,0],[112.16539393800008,-7.2112221439999757,0],[112.16547484000012,-7.2113887059999797,0],[112.16558484300003,-7.2115418469999781,0],[112.16571754400002,-7.2117265899999552,0],[112.16577227200003,-7.2118360469999629,0],[112.1659233470001,-7.2119411409999543,0],[112.16599594200011,-7.2120644729999412,0],[112.16600070000004,-7.2121406159999424,0],[112.16598166400001,-7.2123214569999732,0],[112.16603877200009,-7.2125213299999587,0],[112.16609112100002,-7.2126022309999485,0],[112.16614346800009,-7.2126831329999277,0],[112.1662672010001,-7.2128544539999666,0],[112.16631478900001,-7.2131019179999498,0],[112.16649297100003,-7.2132872209999732,0],[112.16663857300011,-7.2133833319999781,0],[112.16674190200001,-7.2134082759999387,0],[112.16699174700011,-7.2134915549999619,0],[112.16705718100002,-7.2135212979999324,0],[112.1671940010001,-7.2135629389999281,0],[112.16730702500001,-7.2135807839999302,0],[112.1674973800001,-7.2135807849999765,0],[112.16765130800002,-7.2138245039999447,0],[112.167741277,-7.2140983169999799,0],[112.16786024900011,-7.2144314419999773,0],[112.16794353100011,-7.2147050799999306,0],[112.16811604100008,-7.2147050799999306,0],[112.16828260500006,-7.2146991309999748,0],[112.16842537100001,-7.214722925999979,0],[112.16848485800006,-7.2147586179999621,0],[112.16850865200001,-7.2149251799999661,0],[112.16850425200005,-7.2151011639999751,0],[112.16852990900009,-7.2153320679999524,0],[112.16851563200009,-7.2156747109999628,0],[112.16847974900008,-7.2157823599999347,0],[112.16850270300006,-7.2160256809999623,0],[112.16855029300007,-7.2165015729999595,0],[112.16860383000005,-7.216787108999938,0],[112.16860383000005,-7.2169596189999652,0],[112.16859193500011,-7.2170547979999355,0],[112.16851460100008,-7.2172392089999562,0],[112.16851460000009,-7.2174057679999351,0],[112.16857913500007,-7.2175606509999284,0],[112.168736921,-7.217672031999939,0],[112.16887255100005,-7.2180860559999473,0],[112.16890824300003,-7.2182930689999694,0],[112.16887969100003,-7.2183858679999275,0],[112.16872978400011,-7.2185072209999248,0],[112.16857240500008,-7.2186063109999736,0],[112.16849675500009,-7.2187620609999499,0],[112.16844916600007,-7.2189762119999727,0],[112.16843489600001,-7.219111770999973,0],[112.16849421600011,-7.2191710899999748,0],[112.16863698500003,-7.219242473999941,0],[112.16881161200001,-7.2192599369999471,0],[112.16902618400002,-7.2191725179999366,0],[112.16927007900006,-7.2190594929999747,0],[112.16937715600011,-7.2190238029999705,0],[112.16949612900009,-7.2190119039999558,0],[112.16973407400008,-7.2190416469999263,0],[112.1697459720001,-7.218869136999956,0],[112.17008504600005,-7.218881033999935,0],[112.17007430700005,-7.2189901999999506,0],[112.17009099400002,-7.2191487259999576,0],[112.1700790970001,-7.219422361999932,0],[112.17004935200009,-7.2195591819999549,0],[112.17002555800002,-7.2197495369999274,0],[112.17003150700009,-7.2200291239999501,0],[112.17009720200008,-7.2202631609999344,0],[112.17048582600012,-7.2202989549999756,0],[112.17051657800005,-7.2203157279999459,0],[112.17069180700003,-7.2203444029999559,0],[112.17068585800007,-7.2204693239999642,0],[112.17062637200002,-7.2205645019999452,0],[112.17050145200005,-7.2206834759999765,0],[112.17025755500003,-7.2208202949999531,0],[112.17011589400011,-7.2209037749999538,0],[112.17010035300007,-7.2209057179999263,0],[112.16987906300005,-7.2209556869999574,0],[112.16980054200008,-7.2210127939999325,0],[112.16975771000011,-7.221241220999957,0],[112.16973629500001,-7.2217123549999656,0],[112.16972915700001,-7.2220050289999449,0],[112.16970774100002,-7.2221049659999608,0],[112.16955783600008,-7.222476161999964,0],[112.16935082300006,-7.2226260679999541,0],[112.16921519400012,-7.2227331439999602,0],[112.16915808700003,-7.2228045279999264,0],[112.16907956500006,-7.2228759139999283,0],[112.16905101100008,-7.2230115409999485,0],[112.16905101100008,-7.2231328939999457,0],[112.16908670200007,-7.2232042789999582,0],[112.16919377800002,-7.2232685229999447,0],[112.16924374700011,-7.2234041509999543,0],[112.16924374700011,-7.2235040889999595,0],[112.16924374700011,-7.2236111649999657,0],[112.16930085400008,-7.2237682089999566,0],[112.16931513200007,-7.2238467309999805,0],[112.16931513100008,-7.2239680839999778,0],[112.16930799400006,-7.2240965749999759,0],[112.16930799200009,-7.2242393419999757,0],[112.16935796100006,-7.2244320789999392,0],[112.16930085400008,-7.2247104769999737,0],[112.16935796100006,-7.2248246909999807,0],[112.16946503700001,-7.2248675199999752,0],[112.16964349700004,-7.2248532429999273,0],[112.1697719870001,-7.2247961359999522,0],[112.16997186200001,-7.2247604439999691,0],[112.17012890700005,-7.2247818589999611,0],[112.17027881400008,-7.2247604469999374,0],[112.17043585700003,-7.2247104779999631,0],[112.17057148600009,-7.2246462299999621,0],[112.17078563600001,-7.2246747839999443,0],[112.17102120400011,-7.2246961989999363,0],[112.1712853250001,-7.2246819219999452,0],[112.17154230600011,-7.2246747839999443,0],[112.17176359600001,-7.224008534999939,0],[112.17197774800002,-7.2232090359999575,0],[112.17208482300009,-7.2227307639999481,0],[112.17227042200011,-7.2223667079999814,0],[112.17241318900005,-7.2222881839999786,0],[112.17254881800011,-7.2223096009999495,0],[112.17271300100003,-7.2223952599999279,0],[112.17284149200009,-7.2225166129999252,0],[112.17296998400002,-7.2226022729999499,0],[112.17310561200009,-7.2226451039999802,0],[112.17310490900002,-7.2226478459999726,0],[112.1730711350001,-7.222779566999975,0],[112.17300345500007,-7.2228487859999291,0],[112.17286425700001,-7.223020106999968,0],[112.17282142500005,-7.2230879219999338,0],[112.17280001000006,-7.2231664439999577,0],[112.17280001000006,-7.2232628109999268,0],[112.17281071800005,-7.2233449029999406,0],[112.17281428800004,-7.2234519789999467,0],[112.17280714800006,-7.2236589919999687,0],[112.17280001000006,-7.2238267439999504,0],[112.17281071800005,-7.223894558999973,0],[112.17282142500005,-7.2239088359999641,0],[112.17305342300006,-7.2241122799999289,0],[112.17330326600006,-7.2241408329999786,0],[112.17351027900008,-7.224165816999971,0],[112.17369944600011,-7.2241943709999532,0],[112.17398855100009,-7.2242586159999291,0],[112.17416344100002,-7.2243050149999704,0],[112.17462743600004,-7.2244620599999507,0],[112.17483572800006,-7.2245114329999751,0],[112.17499728400003,-7.2245367749999332,0],[112.17521857300005,-7.2245367749999332,0],[112.17550410900003,-7.224601019999966,0],[112.17551291600012,-7.2246060549999811,0],[112.17572674600001,-7.2246298119999324,0],[112.17593019100002,-7.224676211999963,0],[112.1760229890001,-7.2247119039999461,0],[112.17616575700004,-7.2248082719999616,0],[112.17621215600002,-7.2248725169999375,0],[112.17631566300008,-7.2250688229999582,0],[112.17635492600004,-7.2252437129999407,0],[112.17633351000006,-7.2254043269999784,0],[112.17634064800006,-7.2255470949999676,0],[112.17637634000005,-7.2256898629999569,0],[112.17647270800001,-7.2258968749999326,0],[112.1765012620001,-7.2259861059999366,0],[112.17657264500008,-7.2260681969999609,0],[112.17673682800012,-7.2261217339999462,0],[112.17682605800007,-7.2261574259999293,0],[112.17690815000003,-7.2262323799999422,0],[112.17695098000002,-7.2262823489999732,0],[112.17702593200011,-7.2263073339999551,0],[112.17725793000011,-7.2263430239999593,0],[112.17740069900003,-7.2263251779999678,0],[112.17742568400001,-7.226375146999942,0],[112.17742211200004,-7.2264643759999672,0],[112.17741497500003,-7.2265428979999342,0],[112.17740783700003,-7.2266178519999471,0],[112.17737928300005,-7.2266713889999323,0],[112.17732931400008,-7.2266856679999592,0],[112.1772436550001,-7.2266820969999799,0],[112.17715799300004,-7.2267142199999626,0],[112.17705448700008,-7.2267891729999292,0],[112.17699024100011,-7.2268569869999624,0],[112.17695811800002,-7.2269355099999757,0],[112.17695097900003,-7.2270283089999339,0],[112.17696882600001,-7.2271746459999804,0],[112.17701351300002,-7.2273414769999249,0],[112.17709406500001,-7.2273554849999755,0],[112.17723207400002,-7.2273602439999536,0],[112.17725173300005,-7.2273759709999581,0],[112.17735104700012,-7.2274554219999345,0],[112.17736056500007,-7.2275743959999659,0],[112.17738435900003,-7.2277076449999527,0],[112.17738911800006,-7.2277647519999277,0],[112.17744352800003,-7.2279241759999309,0],[112.17741854300004,-7.2280026989999442,0],[112.17738197900007,-7.2280598059999761,0],[112.17741291100003,-7.2281121529999268,0],[112.17757947400003,-7.2282358859999363,0],[112.17762706300005,-7.2283786529999361,0],[112.17763182400006,-7.2285166619999472,0],[112.17763182300007,-7.2286356349999323,0],[112.17758423400005,-7.2286974999999529,0],[112.17752712700008,-7.2287831609999671,0],[112.17754616200011,-7.2288830989999724,0],[112.17768417100001,-7.2289211699999782,0],[112.17807765500004,-7.2289509129999487,0],[112.1781772600001,-7.2289651419999359,0],[112.17821373300001,-7.2290205579999451,0],[112.17823153600011,-7.2293389949999778,0],[112.1782275600001,-7.2293403689999423,0],[112.17704585000001,-7.2296521059999463,0],[112.17701916500005,-7.2296594719999803,0],[112.17729838100001,-7.2308187919999796,0],[112.17752680900003,-7.2310757719999401,0],[112.1776886130001,-7.2312851659999637,0],[112.17781234400002,-7.2315231099999551,0],[112.1778694520001,-7.2316849139999704,0],[112.17788848800001,-7.2318990649999364,0],[112.17783138000004,-7.2320561099999736,0],[112.17772356400008,-7.2322287549999373,0],[112.1775924530001,-7.2324620679999612,0],[112.17736452700001,-7.2330556819999288,0],[112.177351939,-7.2331554199999459,0],[112.17740827200009,-7.2332506549999493,0],[112.17749982300006,-7.2333398569999758,0],[112.17787421100002,-7.2335313759999735,0],[112.17813119300001,-7.2336360729999569,0],[112.17832155000008,-7.2336931789999426,0],[112.17846431700002,-7.2337502859999745,0],[112.17864991500005,-7.2338026339999715,0],[112.17883075400005,-7.2338407059999668,0],[112.17903062900007,-7.2338645009999709,0],[112.17917339600001,-7.2338787769999726,0],[112.1793970650001,-7.2340120269999488,0],[112.17940264900005,-7.234019056999955,0],[112.17944140200007,-7.234029871999951,0],[112.1795663260001,-7.2341250509999782,0],[112.17965555400008,-7.2342737669999337,0],[112.1797031430001,-7.2345295619999774,0],[112.17971326700001,-7.2346881439999606,0],[112.17968715800009,-7.2348648679999314,0],[112.17961986300008,-7.2349757089999684,0],[112.17953658200008,-7.2351006299999767,0],[112.17944735200001,-7.2352552959999343,0],[112.17939381400004,-7.2353742699999657,0],[112.17934027600006,-7.2355051389999403,0],[112.17930283300007,-7.2356549109999264,0],[112.17933550300006,-7.2358205949999501,0],[112.17935217400009,-7.2358442109999714,0],[112.17948304400011,-7.2359155959999271,0],[112.17964365600005,-7.2359929289999627,0],[112.1798518600001,-7.2361416439999289,0],[112.18017330500004,-7.2366301139999791,0],[112.18017600000007,-7.2369059999999763,0],[112.18005500000004,-7.2375419999999622,0],[112.17997600000001,-7.2376419989999476,0],[112.17997684900001,-7.2376423749999503,0],[112.18001219100006,-7.2376579869999773,0],[112.18119090500011,-7.2372759379999252,0],[112.18262958700006,-7.2369310189999396,0],[112.18496235200007,-7.2363717449999285,0],[112.18656848700005,-7.236098105999929,0],[112.1878415000001,-7.2361218999999437,0],[112.18905502400003,-7.2364074349999328,0],[112.19006292900008,-7.2367817999999602,0],[112.19030424200002,-7.236871429999951,0],[112.19126792400004,-7.2370023019999508,0],[112.19312390200002,-7.2372640409999462,0],[112.19408807500008,-7.2374482779999312,0],[112.19499178100011,-7.2376209609999478,0],[112.19650273700006,-7.2374543979999544,0],[112.19750211100006,-7.2374543979999544,0],[112.19860856100001,-7.2377399339999329,0],[112.19952641500004,-7.237769438999976,0],[112.1995270000001,-7.2377689999999575,0],[112.19992100100001,-7.2375409999999647,0],[112.20036900100001,-7.2372630009999739,0],[112.20061200000009,-7.2370329999999399,0],[112.20077900100011,-7.2368750019999766,0],[112.20108200000004,-7.2366980019999687,0],[112.20108248300005,-7.2366978679999647,0],[112.20175800000004,-7.2365119999999479,0],[112.20224800000005,-7.236396999999954,0],[112.20269200000007,-7.2361809999999309,0],[112.20294300100011,-7.2361749999999461,0],[112.20317600100009,-7.2362169999999537,0],[112.20378200100004,-7.2364889989999597,0],[112.2038940000001,-7.2366749999999342,0],[112.20398200000011,-7.236710999999957,0],[112.20428299900004,-7.2367139999999495,0],[112.20522400100003,-7.2367000019999637,0],[112.20552400000008,-7.2366780009999729,0],[112.2056960000001,-7.2366309989999422,0],[112.20612400000005,-7.2363599999999337,0],[112.20632500000011,-7.2362739999999803,0],[112.20641003800006,-7.2361536359999263,0],[112.20664453000006,-7.2358217269999727,0],[112.20682662500008,-7.2358640049999394,0],[112.20696707800005,-7.2359677219999412,0],[112.20703934100004,-7.2360148689999733,0],[112.20709662400009,-7.2360248089999573,0],[112.20711639700005,-7.2360265509999522,0],[112.20717554600003,-7.2359671699999808,0],[112.20720407100009,-7.235880950999956,0],[112.2072326760001,-7.2358604319999813,0],[112.2073045190001,-7.2358088989999487,0],[112.2074411860001,-7.2358408409999697,0],[112.20750576000012,-7.2359028449999414,0],[112.20754929200007,-7.2359446439999715,0],[112.20764637400009,-7.2359587439999586,0],[112.20771090800008,-7.2358975549999514,0],[112.2077145400001,-7.2358828869999456,0],[112.20773935800003,-7.2357826209999416,0],[112.20779315700008,-7.2357394059999365,0],[112.20789741900001,-7.2357498979999377,0],[112.20790615200008,-7.2357608849999338,0],[112.20790703300008,-7.2357619899999577,0],[112.20793771300009,-7.2357631599999763,0],[112.20794711100007,-7.2357949809999695,0],[112.20794856300006,-7.2357998939999675,0],[112.20795682100004,-7.2358278529999325,0],[112.20801158900008,-7.2359958279999432,0],[112.2081278930001,-7.2362655709999331,0],[112.20848394000006,-7.2364327329999583,0],[112.2085214980001,-7.2364104109999516,0],[112.20852967200005,-7.2364055519999511,0],[112.2085337530001,-7.23640312699996,0],[112.20859980600005,-7.2363638679999553,0],[112.20860566600004,-7.2363603839999655,0],[112.20889765200002,-7.2361924679999561,0],[112.20892025800003,-7.2361692029999745,0],[112.20922456500011,-7.235855972999957,0],[112.20936791000008,-7.2358053249999443,0],[112.20940829200003,-7.2358015149999346,0],[112.20958827600009,-7.2357845329999577,0],[112.20975471200006,-7.2361548519999701,0],[112.20986665400005,-7.2362745449999579,0],[112.21002726600011,-7.2363340329999346,0],[112.21019383000009,-7.2363399809999578,0],[112.21034849300008,-7.2363221349999662,0],[112.21049126100002,-7.2363161859999536,0],[112.21056859400005,-7.2363518789999262,0],[112.21063997800002,-7.2364589549999323,0],[112.21061618400006,-7.2365243889999533,0],[112.21058049100009,-7.2365719799999511,0],[112.21082438700012,-7.2369229489999611,0],[112.2109433600001,-7.2369645899999568,0],[112.21115156200005,-7.2369467429999759,0],[112.21125863900011,-7.2369229489999611,0],[112.21125269000004,-7.236566029999949,0],[112.21125863900011,-7.2364054159999682,0],[112.21135381700003,-7.2362210079999727,0],[112.21140735400002,-7.2360068559999604,0],[112.21143709600005,-7.2358640889999606,0],[112.21149063500002,-7.2358343469999795,0],[112.21165124900006,-7.2358640889999606,0],[112.21174047900001,-7.2359176269999352,0],[112.21178806900002,-7.2360366009999666,0],[112.21178806900002,-7.2361377269999707,0],[112.21174642700009,-7.2362567009999452,0],[112.21177617100011,-7.236399467999945,0],[112.21177617100011,-7.2365303379999659,0],[112.21177617100011,-7.23666120799993,0],[112.21177022200004,-7.2367682839999361,0],[112.21174642700009,-7.2368515649999381,0],[112.21188324700006,-7.236911053999961,0],[112.21210929600011,-7.2368991559999358,0],[112.21256734100007,-7.236732591999953,0],[112.21242457400001,-7.2366017219999321,0],[112.21229370200001,-7.2364054159999682,0],[112.21220447400003,-7.2361912649999454,0],[112.2122104230001,-7.2360841889999392,0],[112.21229965200007,-7.2359830619999457,0],[112.21238888200003,-7.2358759859999395,0],[112.212394829,-7.2355012219999253,0],[112.2124539990001,-7.2353540019999514,0],[112.21252338400006,-7.2353492099999812,0],[112.2137070010001,-7.2352659999999673,0],[112.21370612100009,-7.2352675559999398,0],[112.21324500000003,-7.2360839999999484,0],[112.21324544200002,-7.236084640999934,0],[112.21339500100009,-7.236300999999969,0],[112.21376400100007,-7.2365649999999277,0],[112.2139830000001,-7.236697000999925,0],[112.21450600100002,-7.2367859989999488,0],[112.21535200000005,-7.2368619999999737,0],[112.2155990010001,-7.2367940009999643,0],[112.21570900000006,-7.2367639999999369,0],[112.21601600000008,-7.2366819999999734,0],[112.21693400000004,-7.2364139999999679,0],[112.21713455500003,-7.2365187679999394,0],[112.21713499900011,-7.2365189999999302,0],[112.21741400100007,-7.2368249999999534,0],[112.21771600000011,-7.237226001999943,0],[112.21808500000009,-7.2378339999999639,0],[112.2183070000001,-7.2380099999999743,0],[112.21863400000007,-7.2382459999999469,0],[112.2188440000001,-7.238386999999932,0],[112.21928700100011,-7.238594998999929,0],[112.21967600100004,-7.2388679999999681,0],[112.22014700000011,-7.239027999999962,0],[112.22090900000001,-7.2392799999999511,0],[112.22107299900006,-7.23939299999995,0],[112.22122100000001,-7.2395879999999693,0],[112.22138800000005,-7.239770999999962,0],[112.22155300000009,-7.2398129999999696,0],[112.22189299900003,-7.2399189999999294,0],[112.22211800000002,-7.2400730019999742,0],[112.22240400100009,-7.2403719999999794,0],[112.22258100100009,-7.2405359999999632,0],[112.22275500100011,-7.2406709999999634,0],[112.22275497400005,-7.2406718029999411,0],[112.22274965000008,-7.2408362049999369,0],[112.22274700000003,-7.2409179999999651,0],[112.22270694300005,-7.2412874099999271,0],[112.22269299900006,-7.2414160009999478,0],[112.22266100000002,-7.2417009999999777,0],[112.22268807600005,-7.2417839189999427,0],[112.22288500000002,-7.2423869999999511,0],[112.22298600000011,-7.2426999999999566,0],[112.2230280010001,-7.2429479999999558,0],[112.22302766600001,-7.2429486689999294,0],[112.22285000000011,-7.2433049999999639,0],[112.22280300000011,-7.2434149999999704,0],[112.22280300700004,-7.2434155679999321,0],[112.22280551800009,-7.2436132959999782,0],[112.2228070000001,-7.2437299999999709,0],[112.22280864700008,-7.2438708209999731,0],[112.22281300100008,-7.2442430009999725,0],[112.22287400100004,-7.2446869999999421,0],[112.22289901300007,-7.2447830179999642,0],[112.22290500000008,-7.2448059999999259,0],[112.22290521500008,-7.2448064639999643,0],[112.22318100000007,-7.245399999999961,0],[112.22342400000002,-7.2457309999999779,0],[112.22352000000001,-7.2458889999999769,0],[112.22352000000001,-7.2464149999999563,0],[112.22352623300003,-7.2464768109999795,0],[112.22353200000009,-7.2465339999999401,0],[112.22353231600005,-7.2465343449999295,0],[112.22395600000004,-7.2469979999999623,0],[112.22422200000005,-7.2473419999999464,0],[112.22456000000011,-7.2475689999999418,0],[112.22486200100002,-7.2476929999999697,0],[112.22552300000007,-7.2478409999999371,0],[112.22623400000009,-7.2478889999999296,0],[112.22635568400005,-7.2478861419999703,0],[112.22708500100009,-7.2478689999999801,0],[112.22734600000001,-7.247862998999949,0],[112.22765400000003,-7.247955999999931,0],[112.22799500000008,-7.2481479989999684,0],[112.22852200000011,-7.2484649999999533,0],[112.2287530000001,-7.2485259999999698,0],[112.22906400000011,-7.2485119999999483,0],[112.22953400000006,-7.2484869999999546,0],[112.22986800000001,-7.2485439999999812,0],[112.23072699900001,-7.2487059999999701,0],[112.2309590000001,-7.2487649999999348,0],[112.23117499900002,-7.2488909999999578,0],[112.23116552700003,-7.2485764039999481,0],[112.23115599900007,-7.2482599999999593,0],[112.23115814300002,-7.2482535729999427,0],[112.23117097000011,-7.2482150909999632,0],[112.23117100000002,-7.2482149999999592,0],[112.23117196200008,-7.2482021789999749,0],[112.23118600000009,-7.2480149999999526,0],[112.23114600000008,-7.247434999999939,0],[112.23113920600008,-7.2473508559999686,0],[112.23112000000003,-7.247113001999935,0],[112.23112232700009,-7.2464837779999698,0],[112.23112400100001,-7.2460309999999595,0],[112.23114200100008,-7.2459759989999384,0],[112.23114132700005,-7.2459685939999758,0],[112.2311390000001,-7.2459430019999331,0],[112.23115699900006,-7.2457239999999388,0],[112.23117898300006,-7.2455237669999519,0],[112.23121200000003,-7.2452229999999531,0],[112.23133543400002,-7.2446080259999803,0],[112.23144577500011,-7.2440582859999267,0],[112.2314930010001,-7.2438229999999635,0],[112.2316372460001,-7.2433448619999581,0],[112.23188700000003,-7.2425169999999639,0],[112.2322630000001,-7.2414190019999296,0],[112.23273000000006,-7.2405960009999717,0],[112.23273155100003,-7.2405810119999501,0],[112.23275099700004,-7.2403930349999541,0],[112.23275100300009,-7.2403930009999726,0],[112.23285400000009,-7.2401039999999739,0],[112.23319200000003,-7.2394219999999336,0],[112.23341300000004,-7.2392759999999612,0],[112.23405000000002,-7.2386529999999425,0],[112.23459100000002,-7.2375049999999419,0],[112.23503600000004,-7.2365569999999479,0],[112.23543800000004,-7.23540399999996,0],[112.23569658600002,-7.2345323969999527,0],[112.23569697100004,-7.2345310959999551,0],[112.23569700000007,-7.2345310009999366,0],[112.23565400000007,-7.234442999999942,0],[112.23561400000006,-7.2342859999999405,0],[112.23557615400011,-7.2341395979999561,0],[112.23557600000004,-7.2341389999999706,0],[112.23560364200011,-7.2340305049999643,0],[112.23561583000003,-7.2339826689999427,0],[112.23561600000005,-7.233981999999969,0],[112.23573800000008,-7.2338029999999662,0],[112.23604200000011,-7.2334259999999517,0],[112.23623800000007,-7.2330949999999348,0],[112.23655000000008,-7.2328399999999533,0],[112.23686300000008,-7.2325440019999405,0],[112.23704599900009,-7.232283999999936,0],[112.23706100000004,-7.2322619999999347,0],[112.23706024600006,-7.2321472309999422,0],[112.23706000000004,-7.2321099999999774,0],[112.23698600000012,-7.2318659989999787,0],[112.23677301600003,-7.2312460419999525,0],[112.2367729990001,-7.2312459999999419,0],[112.23677477700005,-7.2312221999999338,0],[112.23679400000003,-7.2309650019999481,0],[112.23681944000009,-7.2305974049999691,0],[112.23687400100005,-7.229808999999932,0],[112.23690724800008,-7.2295912569999814,0],[112.23692500000004,-7.2294749999999794,0],[112.23696076100009,-7.2291509519999408,0],[112.23699000000011,-7.2288859999999318,0],[112.23695300100007,-7.2284290009999381,0],[112.2369788740001,-7.2282717659999776,0],[112.23697900000002,-7.2282710009999391,0],[112.23672189500007,-7.2278903259999652,0],[112.23672100100009,-7.2278889989999584,0],[112.23672100100009,-7.2278879999999504,0],[112.2366535860001,-7.2277948089999313,0],[112.23665300000005,-7.2277939999999603,0],[112.2367309660001,-7.227613076999944,0],[112.23673100000008,-7.2276129999999625,0],[112.23673170100005,-7.2276090729999396,0],[112.23675100000003,-7.2275009999999611,0],[112.23675897400005,-7.2273973509999792,0],[112.23675900100011,-7.2273970019999751,0],[112.23676100000012,-7.2267859999999473,0],[112.23664600000006,-7.2264020019999293,0],[112.2366477920001,-7.2263147839999533,0],[112.23665200000005,-7.2261100019999276,0],[112.23673399900008,-7.2259449999999674,0],[112.23700900000006,-7.2254359999999451,0],[112.23701049700003,-7.2253342009999528,0],[112.23701200100004,-7.2252320019999274,0],[112.23701100100004,-7.2252059999999574,0],[112.23701710500006,-7.2251193639999656,0],[112.2370320010001,-7.2249079999999708,0],[112.2370820000001,-7.2246949999999401,0],[112.23715900000002,-7.2245080009999469,0],[112.23728200000005,-7.2243619999999282,0],[112.23745488500003,-7.2241441469999472,0],[112.23745499900008,-7.224143999999967,0],[112.23746001900008,-7.2241157679999333,0],[112.23749499900009,-7.2239189999999667,0],[112.2375472440001,-7.2233414989999574,0],[112.23754600000007,-7.2233229999999367,0],[112.23750300000006,-7.2230999999999312,0],[112.23741993100009,-7.222804698999937,0],[112.23733000000004,-7.2224849999999492,0],[112.23731055300004,-7.2224017019999565,0],[112.23727000000008,-7.2222280019999516,0],[112.23726611800009,-7.222221837999939,0],[112.23716100000001,-7.2220549999999548,0],[112.23699900000008,-7.2217909999999392,0],[112.23695500100007,-7.2215899999999351,0],[112.23696209500008,-7.2215235859999325,0],[112.23702699900002,-7.2209159999999315,0],[112.23711400000002,-7.2204639999999358,0],[112.23724700100001,-7.2196869999999649,0],[112.23728400100003,-7.2193479989999787,0],[112.23727353100003,-7.2192286459999764,0],[112.23724900000002,-7.2189489999999523,0],[112.23720321000008,-7.2182940419999682,0],[112.23719300000005,-7.2181479999999283,0],[112.23716702200011,-7.2176444319999291,0],[112.2371670010001,-7.2176440009999396,0],[112.23711000100002,-7.217493999999931,0],[112.23699700000009,-7.217348999999956,0],[112.23667200000011,-7.2170220019999647,0],[112.23664956300001,-7.216921450999962,0],[112.23664527300002,-7.2169022239999663,0],[112.23664500000007,-7.2169009999999503,0],[112.23664589000009,-7.2167746139999736,0],[112.23664700000006,-7.2166169999999283,0],[112.23662300100011,-7.2160209999999552,0],[112.23654300100009,-7.2157309999999484,0],[112.23632734600005,-7.2150381119999452,0],[112.23632700000007,-7.2150369999999384,0],[112.23630014000003,-7.2147391979999611,0],[112.23623500000008,-7.2140170009999451,0],[112.23607987500009,-7.2119510999999648,0],[112.23610999900006,-7.2106859999999529,0],[112.23625700000002,-7.2094069999999419,0],[112.23652346200004,-7.2086552109999502,0],[112.23652244300001,-7.2086554659999251,0],[112.23652300100002,-7.2086540009999567,0],[112.23651270400001,-7.2085293049999564,0],[112.23650500100007,-7.2084359999999492,0],[112.2364480010001,-7.2080859999999802,0],[112.23641706400008,-7.2077367149999532,0],[112.23641700000007,-7.2077360009999438,0],[112.23645201300008,-7.2075432439999645,0],[112.23653600000011,-7.2075349999999503,0],[112.23667300000011,-7.2075040019999506,0],[112.23694500000011,-7.2074299999999312,0],[112.23739400000011,-7.2072199999999498,0],[112.23747900100011,-7.2071099999999433,0],[112.23752200000001,-7.2069770009999274,0],[112.23764418900009,-7.2063414699999271,0],[112.23769100000004,-7.2060980009999298,0],[112.23772868900005,-7.2057021409999606,0],[112.23784400000011,-7.2044909999999618,0],[112.23784699600003,-7.204193423999925,0],[112.2378470000001,-7.2041929999999752,0],[112.23777000000007,-7.2040269999999396,0],[112.23765332200003,-7.2037348069999325,0],[112.23765300000002,-7.2037339999999404,0],[112.23763500100006,-7.2035589999999274,0],[112.23762097200006,-7.2032407739999371,0],[112.23761600100011,-7.2031279999999356,0],[112.23756200000003,-7.2025049999999737,0],[112.2374820010001,-7.2016449999999281,0],[112.23748047900006,-7.2016302949999726,0],[112.23747900100011,-7.2016160019999802,0],[112.23747436500003,-7.2013021009999534,0],[112.23746400000005,-7.2006000009999411,0],[112.23747764300003,-7.2005660659999648,0],[112.23754200000008,-7.2004060019999656,0],[112.2378040000001,-7.199927999999943,0],[112.23829399900001,-7.1991770019999421,0],[112.23847200000012,-7.1988850019999404,0],[112.23866900100006,-7.198553001999926,0],[112.23889799900007,-7.1981250019999266,0],[112.23905399900002,-7.1977979999999775,0],[112.23927700000002,-7.197322000999975,0],[112.23939000100006,-7.1970500009999796,0],[112.2395130000001,-7.196726999999953,0],[112.23955100000001,-7.1966790009999499,0],[112.23961400000007,-7.1965269999999464,0],[112.23969496100005,-7.1963194539999336,0],[112.23979499900008,-7.196062999999981,0],[112.23984538500008,-7.1959401849999267,0],[112.23993900100004,-7.1957119999999577,0],[112.24007700000004,-7.1954479999999421,0],[112.24027187700005,-7.194438641999966,0],[112.240272,-7.1944380019999699,0],[112.24029710400009,-7.1941531719999716,0],[112.24032691100001,-7.1938150259999816,0],[112.24032700100008,-7.1938140019999537,0],[112.24026336200006,-7.193379623999931,0],[112.24017200100002,-7.1927559999999744,0],[112.24010310000006,-7.192027062999955,0],[112.2401030420001,-7.1920264389999602,0],[112.24010300000009,-7.1920259989999522,0],[112.24004095300006,-7.1918605859999616,0],[112.24002830200004,-7.191650162999963,0],[112.24007387300003,-7.191301388999932,0],[112.24010709000004,-7.1911399589999405,0],[112.24026347600011,-7.1903799529999333,0],[112.24035113000002,-7.19025881999994,0],[112.24069050700007,-7.1899846949999642,0],[112.24092157000007,-7.1897492919999308,0],[112.24104088800004,-7.1894840469999508,0],[112.24104091400011,-7.1894838539999455,0],[112.24106182000003,-7.1893294589999641,0],[112.24108149300002,-7.18906360699998,0],[112.24110609000002,-7.1889475809999794,0],[112.24105363700005,-7.1888595189999478,0],[112.24090959300008,-7.1887499089999665,0],[112.24052181700006,-7.1884573319999276,0],[112.24047456300002,-7.1883459499999276,0],[112.24052878000009,-7.1882297979999521,0],[112.24060054100005,-7.1880688319999422,0],[112.240697823,-7.1876819279999609,0],[112.24069788500003,-7.1876816759999542,0],[112.24075118200005,-7.1874697319999541,0],[112.24077131700005,-7.1872013129999459,0],[112.24073930800012,-7.1867780929999299,0],[112.24077709100004,-7.1865989319999812,0],[112.24082305400009,-7.1863514419999319,0],[112.24083859000007,-7.1862534389999269,0],[112.24084443900006,-7.1862165409999648,0],[112.2409531720001,-7.1859017909999352,0],[112.24103295100008,-7.1854750869999293,0],[112.24111520400004,-7.1852960139999595,0],[112.24113502300008,-7.1851678409999522,0],[112.24114951200011,-7.1850741249999714,0],[112.24114954200002,-7.1850739379999595,0],[112.2411549090001,-7.1850395909999634,0],[112.24130979400002,-7.1848587949999683,0],[112.24131000000011,-7.1848569999999654,0],[112.24130991600009,-7.1848570999999311,0],[112.24128634700003,-7.1846381849999261,0],[112.24128685400001,-7.1846383999999262,0],[112.24128300100006,-7.1846019999999271,0],[112.24118500100008,-7.1845759999999359,0],[112.24097700000004,-7.1845069999999396,0],[112.24099857900001,-7.1844004149999705,0],[112.24104299900011,-7.1841810019999457,0],[112.24096707100011,-7.183975534999945,0],[112.2409670620001,-7.1839755109999714,0],[112.24098545200002,-7.1837419489999661,0],[112.24098600000002,-7.1837350029999811,0],[112.24101700000006,-7.1835309999999595,0],[112.24100652000004,-7.183267505999936,0],[112.24099604000003,-7.1830040079999549,0],[112.24099600000011,-7.1830029999999283,0],[112.24089200100002,-7.1829659999999649,0],[112.23980700000004,-7.1826239999999757,0],[112.23974818300007,-7.1825023809999493,0],[112.23974800000008,-7.1825020009999321,0],[112.23973200000012,-7.1823409999999512,0],[112.23977460600008,-7.1820390599999655,0],[112.23977792000005,-7.1820155759999693,0],[112.23977800000011,-7.1820150009999679,0],[112.23985229700008,-7.1817319649999263,0],[112.23992500000008,-7.1814549999999713,0],[112.23998977200006,-7.18113393699997,0],[112.24002625200001,-7.1809531099999617,0],[112.24002691300007,-7.1809498349999785,0],[112.24004536900009,-7.1808583519999729,0],[112.24006460100009,-7.1808065959999681,0],[112.24004556500006,-7.1807932719999599,0],[112.24000559100011,-7.180755200999954,0],[112.23998772100003,-7.1807060569999521,0],[112.23998274700011,-7.1806923829999505,0],[112.23996528200007,-7.1806180579999364,0],[112.23988262800003,-7.1804564779999396,0],[112.23952803000009,-7.1799705879999465,0],[112.23946316800004,-7.1797171739999612,0],[112.23947889300007,-7.1795984499999577,0],[112.23954412800003,-7.1793244259999369,0],[112.23949948100005,-7.179145478999942,0],[112.23935166800004,-7.1788192439999534,0],[112.23927763100005,-7.1787017639999249,0],[112.23926223600006,-7.1785768829999483,0],[112.23924601500005,-7.1784750069999745,0],[112.23921921600004,-7.1783066789999452,0],[112.23925278800004,-7.1781245539999645,0],[112.23931934100005,-7.1776785309999696,0],[112.23932372500008,-7.1776420729999586,0],[112.23938819600005,-7.1773702409999487,0],[112.23962411100001,-7.1762331279999785,0],[112.2397139740001,-7.1759558439999296,0],[112.23982938000006,-7.1755997429999638,0],[112.23982741000009,-7.1753771709999796,0],[112.23982726100007,-7.1753602639999485,0],[112.2398269140001,-7.175320873999965,0],[112.23976948100005,-7.1748692029999575,0],[112.23970105600006,-7.1743310769999766,0],[112.2396950000001,-7.1742779999999584,0],[112.23976053700005,-7.1741158069999642,0],[112.23978772400005,-7.1740311049999264,0],[112.24020755400011,-7.1734602309999786,0],[112.24035032100005,-7.1734745079999698,0],[112.24047167500009,-7.1735101999999529,0],[112.24064299400004,-7.1734031239999467,0],[112.24080717800007,-7.1730890349999754,0],[112.24097849900011,-7.1726393169999483,0],[112.24102846800008,-7.1724537219999434,0],[112.24105702300005,-7.1723038139999744,0],[112.24103560600008,-7.172153906999938,0],[112.2409999140001,-7.1719040639999321,0],[112.24107843500008,-7.1715685599999688,0],[112.24125739100009,-7.1712255549999782,0],[112.24136082300004,-7.171096150999972,0],[112.24146202400004,-7.1708971889999589,0],[112.24150485300004,-7.1707306269999549,0],[112.24152864900009,-7.1706306909999284,0],[112.24152864900009,-7.1705164749999426,0],[112.24146678200009,-7.1703879849999339,0],[112.24131925500001,-7.1702642549999496,0],[112.24125263100007,-7.1701500389999637,0],[112.24123359500004,-7.1700548599999365,0],[112.24131925600011,-7.1696693879999316,0],[112.24132898900007,-7.1696146369999383,0],[112.2414047850001,-7.1692826499999569,0],[112.24139413300009,-7.1692348559999459,0],[112.24136441000007,-7.1689688109999565,0],[112.24137398100004,-7.1685757789999798,0],[112.24144400000012,-7.1685759999999732,0],[112.24150200000008,-7.1685759999999732,0],[112.24179200000003,-7.1685539999999719,0],[112.24176372200009,-7.1683562879999272,0],[112.24187793600004,-7.1683277349999344,0],[112.24240617700002,-7.1682135189999485,0],[112.24323422800001,-7.1680993049999415,0],[112.24346979600011,-7.1681064459999675,0],[112.24359114800006,-7.1681064459999675,0],[112.24369822300002,-7.1682063819999371,0],[112.24372190400004,-7.1684270169999422,0],[112.2439270000001,-7.1684159999999792,0],[112.2440130010001,-7.1684129979999511,0],[112.24404175200004,-7.1681620969999358,0],[112.24405017900006,-7.1680226219999668,0],[112.24406463100001,-7.1678798419999339,0],[112.24406618400008,-7.167864480999981,0],[112.24408379500005,-7.1676904789999298,0],[112.24413345800008,-7.1671998049999388,0],[112.24413590600011,-7.1671755949999465,0],[112.24416100700012,-7.1669275939999579,0],[112.24419754100006,-7.1665908999999601,0],[112.24420134400009,-7.166555844999948,0],[112.24423112800002,-7.1662813339999616,0],[112.24423182500004,-7.1662201629999345,0],[112.2442323250001,-7.166176385999961,0],[112.24423596700001,-7.1658565889999295,0],[112.24421401300003,-7.1654505339999446,0],[112.24421074400004,-7.1653900519999638,0],[112.24422785000002,-7.1650729529999353,0],[112.24430428700009,-7.1645798769999374,0],[112.24430486400001,-7.1645743119999565,0],[112.24430500100004,-7.1645729999999617,0],[112.24430621300007,-7.1645680099999254,0],[112.24436683700003,-7.1642086029999632,0],[112.24437161600008,-7.1641802729999426,0],[112.24439823700004,-7.1640224479999688,0],[112.24333714000011,-7.1638876599999435,0],[112.24049368500005,-7.1633403839999801,0],[112.23997615200005,-7.1632362819999571,0],[112.23885155800008,-7.1630572279999569,0],[112.23826621100011,-7.1629501519999508,0],[112.23825393300001,-7.1628190899999709,0],[112.23824798600003,-7.1626644239999564,0],[112.23816470300005,-7.1626227839999501,0],[112.23809926900003,-7.1625632969999629,0],[112.23808737100001,-7.1624740679999377,0],[112.23812901300005,-7.1622599159999254,0],[112.23817660100008,-7.162099302999934,0],[112.23823608900011,-7.1620338669999342,0],[112.23823608900011,-7.1619684319999806,0],[112.23820634300012,-7.1618851509999786,0],[112.23816470400004,-7.1617899739999302,0],[112.23812901300005,-7.1616947959999493,0],[112.23802209700011,-7.1615644269999734,0],[112.23802207400001,-7.1615644609999549,0],[112.23792055900003,-7.1617199109999774,0],[112.23782926900003,-7.1618001769999751,0],[112.23782844700008,-7.1618008989999566,0],[112.23778358300001,-7.1618403459999627,0],[112.237676781,-7.1618808419999596,0],[112.23751981400005,-7.1618967469999575,0],[112.23719545400002,-7.1619222249999552,0],[112.2360104820001,-7.1618508409999322,0],[112.23531805900006,-7.1617723189999651,0],[112.23483978700006,-7.1616937969999412,0],[112.23426871600009,-7.1615653049999537,0],[112.23370976300009,-7.1614019269999289,0],[112.23364869400007,-7.1612577419999752,0],[112.23375747500006,-7.1603384249999635,0],[112.23375852100003,-7.1603295769999704,0],[112.23379474700005,-7.1600234149999551,0],[112.2337390240001,-7.1599224549999576,0],[112.23363499100003,-7.1598887019999324,0],[112.23351653400005,-7.1598234859999366,0],[112.23351659500008,-7.1598219839999615,0],[112.23351659800005,-7.1598218989999509,0],[112.2335198940001,-7.1597402939999597,0],[112.23352111800011,-7.1597099469999534,0],[112.23352441300005,-7.159633188999976,0],[112.23352703500007,-7.1595720749999714,0],[112.2335359010001,-7.1593655249999415,0],[112.23353792600005,-7.1593183059999319,0],[112.23353880000002,-7.1592979609999361,0],[112.23353934000011,-7.1592853719999425,0],[112.23354099000005,-7.1592469299999379,0],[112.23354099300002,-7.1592461859999617,0],[112.23354099700009,-7.1592459999999392,0],[112.23292900000001,-7.1570829999999432,0],[112.23271200000011,-7.1560869989999674,0],[112.23261651500002,-7.1552378229999363,0],[112.2325340000001,-7.1545039999999744,0],[112.23251500000003,-7.1538259999999809,0],[112.23251414300012,-7.1534911559999728,0],[112.23251200000004,-7.1526529999999298,0],[112.23260745300001,-7.1526705309999556,0],[112.23299859500003,-7.1527260949999345,0],[112.23309597900004,-7.1526791239999739,0],[112.2331462520001,-7.152585166999927,0],[112.2331565930001,-7.1524263649999398,0],[112.23317923800005,-7.1521061969999664,0],[112.23325260500008,-7.1519459059999804,0],[112.23332693300006,-7.1519150689999265,0],[112.23350073300003,-7.1519192949999706,0],[112.23367072200006,-7.1519349349999288,0],[112.2336550330001,-7.1518036339999753,0],[112.23360149500002,-7.1516251739999461,0],[112.23354795700004,-7.1515597389999357,0],[112.23347657300008,-7.1515062029999399,0],[112.23337544600008,-7.1514586119999421,0],[112.23331596000003,-7.1513753309999402,0],[112.23330406300011,-7.1512742039999466,0],[112.23329811400004,-7.1511076409999532,0],[112.23332191000009,-7.1509886679999681,0],[112.23335165100002,-7.1508459009999683,0],[112.23336949800012,-7.1507864139999811,0],[112.23337544600008,-7.150715029999958,0],[112.23336354900005,-7.1506436469999812,0],[112.23329811400004,-7.1505722629999582,0],[112.2332564730001,-7.1505008789999351,0],[112.23323862700011,-7.1503224199999522,0],[112.23323862700011,-7.150233190999927,0],[112.23323862700011,-7.1501855999999293,0],[112.23322078100011,-7.1501261129999421,0],[112.23320888500007,-7.1500130909999484,0],[112.23320888500007,-7.1498762699999361,0],[112.23320888500007,-7.1497275539999805,0],[112.23320888500007,-7.1495966829999702,0],[112.23320888500007,-7.149477711999964,0],[112.23319103800009,-7.1493289939999727,0],[112.23319103800009,-7.1488887939999586,0],[112.23300068200001,-7.1487341299999798,0],[112.23307206400011,-7.1477347549999308,0],[112.23319698700004,-7.1474432709999292,0],[112.23312560200009,-7.1470030709999719,0],[112.23309586000005,-7.1463844119999749,0],[112.23295309200012,-7.1456467789999465,0],[112.23295309200012,-7.1451887319999514,0],[112.23297688600007,-7.1448318119999499,0],[112.23289099900001,-7.1447670009999342,0],[112.232838001,-7.1447260009999809,0],[112.23273103300005,-7.1446390269999256,0],[112.23273100000006,-7.1446389999999269,0],[112.23274200100002,-7.1445550019999473,0],[112.23282884200012,-7.1443533659999616,0],[112.23282900000004,-7.1443529999999669,0],[112.23286100000007,-7.1442479999999478,0],[112.23286830100005,-7.1442312389999643,0],[112.23296600000003,-7.1440070019999666,0],[112.23296800000003,-7.1439919999999688,0],[112.23297483200008,-7.1439422219999642,0],[112.23297500100011,-7.1439409989999376,0],[112.23272641400001,-7.1439329859999248,0],[112.23255118200007,-7.1439199979999444,0],[112.23245713000006,-7.1438809709999305,0],[112.2324376570001,-7.1437406979999309,0],[112.23242683300009,-7.1436376899999345,0],[112.23226125400004,-7.1435260999999741,0],[112.2319298000001,-7.143302723999966,0],[112.23174026000004,-7.1432271709999782,0],[112.23163664500009,-7.1432233309999447,0],[112.23126079000008,-7.1432094129999655,0],[112.23103443400009,-7.1432010289999539,0],[112.23067607000007,-7.1431607519999716,0],[112.23057183500009,-7.1431459839999434,0],[112.23031814400008,-7.1431100419999325,0],[112.23027500800004,-7.1431048359999636,0],[112.2300305550001,-7.1431299479999666,0],[112.22988422000003,-7.1432049019999795,0],[112.22967720600002,-7.143290560999958,0],[112.22943450100001,-7.143404774999965,0],[112.22936726400008,-7.1434328919999643,0],[112.2292381960001,-7.1434868659999324,0],[112.22910970500004,-7.1434904359999791,0],[112.22878847800007,-7.1434583129999396,0],[112.22861001800004,-7.1433762219999721,0],[112.22846725000011,-7.1433405289999428,0],[112.22828522200007,-7.1432548679999286,0],[112.2279425800001,-7.1430300099999613,0],[112.22783907200005,-7.1429229339999551,0],[112.22778553500007,-7.1428301349999401,0],[112.22774627400008,-7.1427551819999735,0],[112.2277248580001,-7.1426374009999449,0],[112.22769987400011,-7.1425802919999342,0],[112.22762300000011,-7.1425309999999627,0],[112.22752543800004,-7.1422079149999718,0],[112.22748500000012,-7.142074000999969,0],[112.22738088600011,-7.1415756779999811,0],[112.22735399900012,-7.141446999999971,0],[112.22720300100002,-7.1409499999999753,0],[112.22693300000003,-7.1404929999999354,0],[112.22656300000006,-7.1400660009999797,0],[112.22602300000005,-7.1396889999999757,0],[112.2251030000001,-7.1392249999999535,0],[112.22391700000003,-7.1388190009999448,0],[112.22292800000002,-7.1384729999999763,0],[112.22212000000002,-7.1381869999999594,0],[112.22154100000012,-7.1380089999999541,0],[112.22086476900006,-7.1378086909999752,0],[112.22064300000011,-7.1377429999999435,0],[112.21966500000008,-7.1374469999999519,0],[112.21876600000007,-7.1371810019999771,0],[112.218410371,-7.1370117229999437,0],[112.21828700000003,-7.1369529999999486,0],[112.21813700000007,-7.1367249999999558,0],[112.21803600100009,-7.1362969999999564,0],[112.21788600000002,-7.135928999999976,0],[112.21737500100005,-7.1352939999999307,0],[112.21689600000002,-7.1350259999999253,0],[112.21572800000001,-7.1345519999999283,0],[112.21495900000002,-7.1342750009999349,0],[112.21417099900009,-7.1340879999999629,0],[112.21350200000006,-7.1339850019999744,0],[112.21328300000005,-7.133907001999944,0],[112.2132828660001,-7.1339069519999612,0],[112.21297800000002,-7.1337979999999561,0],[112.21293100000003,-7.1337949999999637,0],[112.21249100000011,-7.133803999999941,0],[112.21203100100001,-7.134177000999955,0],[112.21188300000006,-7.134102999999925,0],[112.21163300000001,-7.1339019999999778,0],[112.21137900000008,-7.1336159999999609,0],[112.21072100000004,-7.1334029999999302,0],[112.21028200000001,-7.1332749999999692,0],[112.20977371800006,-7.1331890939999312,0],[112.20964300000003,-7.1331669999999576,0],[112.20883300100002,-7.1330119999999511,0],[112.20828400100004,-7.1329239999999459,0],[112.20814215900009,-7.1329111049999483,0],[112.20814100000007,-7.1329110019999575,0],[112.2074729950001,-7.1328619889999345,0],[112.20740500000011,-7.1328569999999445,0],[112.20680300100003,-7.1328399989999411,0],[112.20593100000008,-7.1327319999999759,0],[112.20495300100004,-7.1325649999999428,0]]]},"properties":{"OBJECTID":3935,"NAMOBJ":"Kedungpring","FCODE":"BA03070040","REMARK":null,"METADATA":"TASWIL1000020260612KECAMATAN_AR","SRS_ID":"4326","KDBBPS":null,"KDCBPS":null,"KDCPUM":"35.24.06","KDEBPS":null,"KDEPUM":null,"KDPBPS":null,"KDPKAB":"35.24","KDPPUM":"35","LUASWH":85.758503676237254,"TIPADM":3,"WADMKC":"Kedungpring","WADMKD":null,"WADMKK":"Lamongan","WADMPR":"Jawa Timur","WIADKC":null,"WIADKK":null,"WIADPR":null,"WIADKD":null,"UUPP":null,"SHAPE_Length":0.41515883526492087,"SHAPE_Area":0.0070207903421794799}}]}