{"type":"FeatureCollection","features":[{"type":"Feature","id":4021,"geometry":{"type":"Polygon","coordinates":[[[113.91164257500009,-7.019490879999978,0],[113.91155215500009,-7.019445669999925,0],[113.91144269900008,-7.0193647679999458,0],[113.91133324400005,-7.0192267599999809,0],[113.91129517400009,-7.0191244429999529,0],[113.91127137900003,-7.0189816749999636,0],[113.91125710100005,-7.0188365279999516,0],[113.91126424100003,-7.0187127979999673,0],[113.91127851600004,-7.0186271349999743,0],[113.91137066800002,-7.0184007629999314,0],[113.91138797200006,-7.0183582559999422,0],[113.91139986900009,-7.0182654589999629,0],[113.91139511000006,-7.0181916939999383,0],[113.91137845500009,-7.018110791999959,0],[113.91133800300008,-7.0180156139999781,0],[113.91126186000008,-7.0178990199999589,0],[113.91111909400001,-7.0177657699999259,0],[113.9108573530001,-7.0175849329999664,0],[113.910640822,-7.0174683379999578,0],[113.91050043300004,-7.0174207509999746,0],[113.91037908100009,-7.0174017129999697,0],[113.91029342000002,-7.0174064719999478,0],[113.91020300000002,-7.0174302659999626,0],[113.91013161600006,-7.0174897529999498,0],[113.91007451000007,-7.0175658979999298,0],[113.91003405800006,-7.0176753509999799,0],[113.91001264200008,-7.0178442929999392,0],[113.91001264200008,-7.0180203739999456,0],[113.91001520600003,-7.0180399489999559,0],[113.9100388170001,-7.0182202479999773,0],[113.91010068300011,-7.0184343989999434,0],[113.91014597000003,-7.0185612019999439,0],[113.91018396400011,-7.0186675859999355,0],[113.91019586200002,-7.0187651439999286,0],[113.91019586200002,-7.0188769799999591,0],[113.91018396400011,-7.0189673979999725,0],[113.91014916000006,-7.0190745569999535,0],[113.91009354500011,-7.0191934469999637,0],[113.91001264200008,-7.0193219379999618,0],[113.90996029600001,-7.0194528079999259,0],[113.90992936300006,-7.0196574419999251,0],[113.90992367300009,-7.0199595119999572,0],[113.9098865310001,-7.0201166779999653,0],[113.90983418500002,-7.0202332719999276,0],[113.90966644100001,-7.020533802999978,0],[113.90960575500003,-7.0206639539999287,0],[113.90946060800002,-7.0209114179999688,0],[113.90931070200008,-7.0210946379999655,0],[113.90919173000009,-7.0211945739999351,0],[113.90890619400011,-7.0213444799999252,0],[113.90856355000005,-7.0214848679999591,0],[113.90835891800009,-7.0215443549999463,0],[113.90823518600007,-7.0215491139999813,0],[113.90812573100004,-7.0215538719999699,0],[113.90797454700009,-7.0215259339999534,0],[113.90788861600004,-7.0214854819999459,0],[113.90778562200001,-7.021416047999935,0],[113.90765935600007,-7.0213064079999299,0],[113.90755703900004,-7.0212326449999409,0],[113.90748327600011,-7.0211969529999578,0],[113.90739999500011,-7.021177917999978,0],[113.90732147300002,-7.021177917999978,0],[113.90720487900001,-7.02119933299997,0],[113.90704307700003,-7.0212445419999767,0],[113.90681464800002,-7.0213468609999268,0],[113.90651959400009,-7.021503905999964,0],[113.90617623800006,-7.0217180549999512,0],[113.90598707100003,-7.0218572559999757,0],[113.90588713400007,-7.0219393469999432,0],[113.90581218200009,-7.0220214379999675,0],[113.90578237200009,-7.0221019599999295,0],[113.9057789850001,-7.0221439339999279,0],[113.90576807900004,-7.0222790919999625,0],[113.90575023400004,-7.0224182909999513,0],[113.90568241900007,-7.0225217969999676,0],[113.90552180500003,-7.022611028999961,0],[113.90536961900011,-7.0226118649999307,0],[113.9053166220001,-7.0225830739999537,0],[113.90528266900003,-7.022564627999941,0],[113.90525054700004,-7.0224896749999743,0],[113.90525768500004,-7.0223790299999678,0],[113.90531836100001,-7.0222505389999696,0],[113.90539688300009,-7.0220470949999481,0],[113.90541550100011,-7.0219353979999255,0],[113.90541550100011,-7.0219147549999548,0],[113.90541403900011,-7.0219127469999307,0],[113.90536119100011,-7.021840081999926,0],[113.90525054700004,-7.0217865449999408,0],[113.90509350200011,-7.0217686979999598,0],[113.90481510500001,-7.0218186669999341,0],[113.90477364500009,-7.0218346429999769,0],[113.90442606300007,-7.0219685739999704,0],[113.90397277600005,-7.0221577409999441,0],[113.90380502300002,-7.022204138999939,0],[113.90363727200008,-7.022204138999939,0],[113.90351592000002,-7.0221684469999559,0],[113.90343739700006,-7.0220934939999324,0],[113.9033767200001,-7.0218436509999265,0],[113.90325537000001,-7.0215438389999463,0],[113.90318773600006,-7.0214170269999272,0],[113.90316970800006,-7.0213832259999549,0],[113.90307690900011,-7.0212904259999505,0],[113.90295912700003,-7.0212440279999555,0],[113.90285561900009,-7.0212690129999373,0],[113.90274453800009,-7.0213667629999463,0],[113.90267715900006,-7.0214260579999745,0],[113.90239876300006,-7.0217972519999421,0],[113.90222387100005,-7.0219578649999335,0],[113.90208110500009,-7.0220078339999645,0],[113.90200451300007,-7.0220022639999797,0],[113.90188479900007,-7.0219935589999523,0],[113.90162781700008,-7.0218829119999668,0],[113.90135104900003,-7.0217055929999788,0],[113.90113110600009,-7.0220679619999373,0],[113.90101213300011,-7.0222154879999721,0],[113.90067900800011,-7.0222535599999674,0],[113.90064093700005,-7.0223154259999774,0],[113.90057431200012,-7.0222392829999762,0],[113.90051720500003,-7.0223963269999672,0],[113.90042678500004,-7.0224629519999553,0],[113.90025546400011,-7.0224962649999725,0],[113.90021812500004,-7.0225055479999696,0],[113.90010391100009,-7.0224427309999555,0],[113.89978433100009,-7.0222678359999691,0],[113.8996939110001,-7.0225010239999506,0],[113.89966059900007,-7.0226533089999634,0],[113.89966059900007,-7.0228864959999555,0],[113.89958445600007,-7.0230245049999667,0],[113.89955261000011,-7.0230438899999399,0],[113.89932815400005,-7.023008008999966,0],[113.89900126800001,-7.022937102999947,0],[113.89888943400001,-7.0229109289999769,0],[113.89863358200012,-7.023368980999976,0],[113.89854436000007,-7.0235453289999441,0],[113.89832878100003,-7.0239022479999562,0],[113.89814175600009,-7.0242591679999578,0],[113.89786050300006,-7.0247802689999617,0],[113.89752214400005,-7.0246789039999271,0],[113.89699390400006,-7.0244904509999628,0],[113.89686235300007,-7.0245188069999358,0],[113.89679096900011,-7.0244664579999494,0],[113.89677669200012,-7.0244331459999785,0],[113.89680048700006,-7.0243760389999466,0],[113.89683379900009,-7.0243046549999804,0],[113.89684819200011,-7.0242614749999461,0],[113.89645308500008,-7.0241000209999811,0],[113.89642975600009,-7.0240748969999345,0],[113.8964225950001,-7.0240216339999506,0],[113.89642449900009,-7.0238959979999436,0],[113.89643782400003,-7.0238645889999702,0],[113.89645495600007,-7.0238531679999596,0],[113.89649017200009,-7.0238531679999596,0],[113.89651682200008,-7.0238588789999312,0],[113.89654379100011,-7.0238646699999663,0],[113.8965644110001,-7.0238607819999288,0],[113.89658533500005,-7.0237915449999377,0],[113.89658544700001,-7.0237915969999563,0],[113.89658553300001,-7.0237913769999523,0],[113.8965925010001,-7.0237734899999396,0],[113.89656936300003,-7.0237708829999406,0],[113.89641807800001,-7.0237011699999812,0],[113.89635437100003,-7.0236718139999539,0],[113.89627670800007,-7.0236331519999453,0],[113.89619501000004,-7.0235924809999801,0],[113.89609316600001,-7.0235609089999684,0],[113.89596480000012,-7.0235211149999373,0],[113.89586125300002,-7.0234827859999314,0],[113.8958221900001,-7.0234683269999323,0],[113.89574775000006,-7.0234334879999665,0],[113.89566485600005,-7.0233946929999433,0],[113.89562382500003,-7.0233754899999781,0],[113.89550067900007,-7.0233178559999487,0],[113.8954811210001,-7.023308702999941,0],[113.89517891000003,-7.0232280589999618,0],[113.89507994400003,-7.0232176889999778,0],[113.89498417000004,-7.0232046019999643,0],[113.89479202900009,-7.0231861609999555,0],[113.89445890400009,-7.0231772379999597,0],[113.89439465900011,-7.0231950839999513,0],[113.8943292240001,-7.0232617089999394,0],[113.89416527900005,-7.0232706319999352,0],[113.89414381300003,-7.0233230249999679,0],[113.89412001400001,-7.0233811129999708,0],[113.89411507200009,-7.0233931739999775,0],[113.8940125580001,-7.0233913859999575,0],[113.89395406200003,-7.0233700929999259,0],[113.89393910900003,-7.0233633429999713,0],[113.89362093700004,-7.0232197109999674,0],[113.89356283800009,-7.0232181679999712,0],[113.89337007100005,-7.0234438019999743,0],[113.89292901400006,-7.0232193779999648,0],[113.89272557000004,-7.023590573999968,0],[113.89273529400009,-7.0236417459999529,0],[113.89272445500001,-7.0238047009999605,0],[113.89259880100008,-7.024018400999978,0],[113.89246522900009,-7.0242455669999799,0],[113.89240266600007,-7.0242455019999284,0],[113.89232990000005,-7.024259499999971,0],[113.89225911000005,-7.0243915339999603,0],[113.89215903500008,-7.024578187999964,0],[113.89206227500006,-7.0246934569999553,0],[113.8919766140001,-7.0248133819999339,0],[113.89181818800012,-7.0250693709999723,0],[113.89180985700011,-7.0250828319999528,0],[113.8917907010001,-7.0251084679999281,0],[113.89168060000009,-7.0252650719999679,0],[113.89165223500004,-7.0252988089999349,0],[113.8914809900001,-7.0255024849999472,0],[113.89150535200008,-7.0255180079999491,0],[113.89247844300007,-7.0262201199999481,0],[113.89315658900011,-7.0266841139999769,0],[113.89336122300006,-7.0268387789999451,0],[113.89339929400001,-7.0268292619999784,0],[113.89341119100004,-7.0268149849999304,0],[113.89364675800005,-7.0269648909999773,0],[113.8941297880001,-7.0273027739999634,0],[113.89494594400003,-7.02790239899997,0],[113.89533855500008,-7.0281855539999469,0],[113.8953751570001,-7.0282103859999552,0],[113.8954492690001,-7.028243009999926,0],[113.89552415300011,-7.0282759739999392,0],[113.89566454100009,-7.0283568759999753,0],[113.89575239600003,-7.0284272889999784,0],[113.89616693400001,-7.0287181039999496,0],[113.8961882860001,-7.0287335969999276,0],[113.89637392600002,-7.0288682929999595,0],[113.89651897500005,-7.0289609339999402,0],[113.89725422100003,-7.0294746599999485,0],[113.89763135400005,-7.0297492119999561,0],[113.89815816600003,-7.0301189799999406,0],[113.89881204100004,-7.0305801199999678,0],[113.89897808000001,-7.030699125999945,0],[113.89947734000009,-7.0310569639999585,0],[113.90006554400009,-7.0314767009999741,0],[113.90059663800002,-7.0318507519999685,0],[113.90117266700008,-7.0322536039999477,0],[113.90071677100002,-7.0329043429999274,0],[113.90044313300007,-7.033314799999971,0],[113.90006241900005,-7.0338501789999555,0],[113.89980067900001,-7.0342279179999423,0],[113.89936940100006,-7.0348465779999287,0],[113.89881022800012,-7.035628825999936,0],[113.89820481900006,-7.0364961909999693,0],[113.89820361800003,-7.0364979109999695,0],[113.89819156800002,-7.0365151749999768,0],[113.89793607100012,-7.036879522999925,0],[113.89793460100009,-7.0368816199999742,0],[113.89771842200003,-7.0371898979999514,0],[113.89769279200004,-7.0372264479999558,0],[113.89768890700009,-7.0372319879999736,0],[113.89750747300002,-7.0374996769999711,0],[113.89746642700004,-7.0375680859999648,0],[113.89745968200009,-7.0375772239999606,0],[113.89742954600001,-7.037618054999939,0],[113.89742170200009,-7.0376285129999587,0],[113.89742086900003,-7.037630480999951,0],[113.89740131700012,-7.037676653999938,0],[113.8973986310001,-7.0377055329999507,0],[113.89739420300009,-7.0377531089999366,0],[113.89737662300001,-7.0377946809999798,0],[113.89731487600011,-7.0378542879999486,0],[113.89726493600006,-7.0379024959999583,0],[113.89725152800008,-7.0379154389999599,0],[113.89717877100009,-7.0378558299999554,0],[113.89704686700009,-7.0377477619999809,0],[113.89681653500008,-7.0375745369999549,0],[113.89660523900011,-7.0374279619999811,0],[113.89637450900011,-7.0373048489999519,0],[113.8963174270001,-7.037268069999925,0],[113.89595043100007,-7.0370738759999654,0],[113.89568004100011,-7.0369144709999318,0],[113.89552260900007,-7.0368216589999406,0],[113.89537066300011,-7.0367320799999789,0],[113.89533196100001,-7.0367092639999669,0],[113.89515302600012,-7.036586424999939,0],[113.89510911800005,-7.0365562829999249,0],[113.89496635000012,-7.0364806159999489,0],[113.89471809600002,-7.0363644229999522,0],[113.89465562000009,-7.0363300959999719,0],[113.89430680400005,-7.0361384359999306,0],[113.89423416000011,-7.036068433999958,0],[113.89414136100004,-7.0359656409999616,0],[113.89403428500009,-7.0358756969999376,0],[113.89396004600007,-7.0358143069999528,0],[113.89387153000007,-7.0357657659999404,0],[113.89368466400003,-7.0356769989999748,0],[113.89358259300002,-7.0356168409999782,0],[113.89345667100008,-7.0355470819999368,0],[113.89331009600005,-7.0354709389999357,0],[113.89316161800002,-7.0353852779999784,0],[113.89307215000008,-7.0353167499999358,0],[113.89301314000011,-7.0352520289999347,0],[113.89296925000008,-7.0351952499999584,0],[113.89290612600007,-7.0351135869999553,0],[113.89281956500008,-7.0349334149999549,0],[113.89280141400002,-7.0349029689999725,0],[113.89278030900005,-7.0348482859999422,0],[113.89275953700007,-7.0347944659999371,0],[113.89269671800002,-7.0345489059999409,0],[113.89266626200003,-7.034402330999967,0],[113.89265484000009,-7.0343566449999457,0],[113.8926243840001,-7.0343033469999341,0],[113.89253682000003,-7.0341834199999766,0],[113.89249303600002,-7.0340996639999389,0],[113.89243727500002,-7.0339970129999756,0],[113.89238558900001,-7.0339116989999297,0],[113.89228157000002,-7.033779185999947,0],[113.89224250700011,-7.0337424669999677,0],[113.89221538100003,-7.0337155369999778,0],[113.8920233450001,-7.0335248829999273,0],[113.89176095700009,-7.0333832559999792,0],[113.89162532600005,-7.0333047329999658,0],[113.89151682300007,-7.0332347769999615,0],[113.89146727600007,-7.0331839909999303,0],[113.89140260900001,-7.033117706999974,0],[113.89126840800009,-7.0329977819999385,0],[113.89120290400001,-7.0329377539999314,0],[113.89111258000003,-7.0328549799999678,0],[113.89106498500007,-7.0328184599999304,0],[113.89097180900001,-7.0327377239999578,0],[113.89080977000003,-7.0325973189999331,0],[113.89075977000005,-7.0325539949999438,0],[113.89061667500005,-7.0324461899999733,0],[113.89035248800008,-7.0323329269999704,0],[113.89026760600007,-7.0323010759999534,0],[113.89020050500005,-7.03226966699998,0],[113.89013911500001,-7.0322225549999757,0],[113.89007344200002,-7.0321568819999811,0],[113.89001205200009,-7.0320826419999776,0],[113.88992850700004,-7.0319457829999692,0],[113.88989123300007,-7.0318847219999725,0],[113.88985806800008,-7.0318453019999652,0],[113.88980074700009,-7.031792300999939,0],[113.88960063900004,-7.031663273999925,0],[113.88946838200002,-7.0315872879999688,0],[113.88932323000006,-7.0315038949999575,0],[113.88932215700004,-7.031503278999935,0],[113.88927263700009,-7.0314748279999435,0],[113.88908356200011,-7.0313833839999802,0],[113.88889129800009,-7.0312903989999427,0],[113.88885947600011,-7.031275007999966,0],[113.88874915500003,-7.0312216529999318,0],[113.88853737900001,-7.0311379329999681,0],[113.8882062670001,-7.0310070359999486,0],[113.88802291700006,-7.0309613789999617,0],[113.88778236500002,-7.0308898749999571,0],[113.88766678000002,-7.0308383659999549,0],[113.88764703700008,-7.0308251429999586,0],[113.88758709500007,-7.0307688469999334,0],[113.88747992100002,-7.0306681899999717,0],[113.88740227400001,-7.03059882499997,0],[113.88737405900008,-7.0305820359999416,0],[113.88734218400009,-7.0305696899999361,0],[113.88722175000009,-7.0305230429999597,0],[113.88717511600009,-7.0305114029999345,0],[113.88697041900002,-7.0304603099999667,0],[113.88690393400009,-7.0304338569999345,0],[113.88685171200007,-7.0304130779999809,0],[113.88681014100007,-7.0303832479999642,0],[113.88655068600008,-7.0301970599999777,0],[113.88652724300005,-7.030178464999949,0],[113.88633306100007,-7.0300159399999416,0],[113.88611129500009,-7.0299150509999322,0],[113.88596281600007,-7.0298836419999589,0],[113.88587144500002,-7.0298817389999613,0],[113.88576770100008,-7.0298960159999524,0],[113.88553070600005,-7.0299654959999316,0],[113.88537649400007,-7.0300123219999477,0],[113.88529561600001,-7.0300368799999546,0],[113.88521759800005,-7.0300354589999756,0],[113.88508654000009,-7.0299921459999268,0],[113.8849282110001,-7.0298694979999254,0],[113.88467832000003,-7.0296667939999793,0],[113.88455099100008,-7.029563507999967,0],[113.88441682700011,-7.0294816799999467,0],[113.88423851400012,-7.0294182289999299,0],[113.88421541000002,-7.0294145469999307,0],[113.88419066300003,-7.0294269199999349,0],[113.88416646700011,-7.0294423169999618,0],[113.8841592550001,-7.029446906999965,0],[113.88411928000005,-7.0294783159999383,0],[113.88409738900009,-7.0294983039999579,0],[113.8840850150001,-7.0295220979999726,0],[113.88403266700004,-7.0297476709999387,0],[113.8840125160001,-7.029853161999938,0],[113.8840114300001,-7.0298588499999255,0],[113.88394715100003,-7.0299649389999672,0],[113.88389574500002,-7.030026027999952,0],[113.88382803400009,-7.0301064939999378,0],[113.88381992100005,-7.0301160819999495,0],[113.88373380700011,-7.0302178529999537,0],[113.88359008700002,-7.0303901259999293,0],[113.88351394500012,-7.0304596059999653,0],[113.88345874100003,-7.0304929179999363,0],[113.88338259800003,-7.0305110019999688,0],[113.88336996400005,-7.0305070869999327,0],[113.88292709300003,-7.0303698399999348,0],[113.88231676100008,-7.0301199969999288,0],[113.88156009300008,-7.0297380929999349,0],[113.88105326700008,-7.0294775419999382,0],[113.88041438200003,-7.0291741609999576,0],[113.88010029300005,-7.029006408999976,0],[113.87968626700001,-7.0289278869999521,0],[113.87930079400007,-7.0300985809999474,0],[113.8792294110001,-7.0303983929999276,0],[113.87954349900008,-7.0303734089999352,0],[113.88010029300005,-7.0302199339999447,0],[113.8802394920001,-7.0301592579999692,0],[113.88031801400007,-7.0301556879999794,0],[113.88063210300004,-7.0303448559999424,0],[113.88135308000005,-7.0308695269999362,0],[113.88222753200012,-7.0315084119999369,0],[113.88256660500008,-7.0317546859999425,0],[113.88256660500008,-7.0318153619999748,0],[113.88243818000001,-7.0319499019999512,0],[113.88219184000002,-7.0322079739999594,0],[113.8818083000001,-7.032600901999956,0],[113.88117105100002,-7.0332537469999465,0],[113.88097023300008,-7.0334564769999588,0],[113.8807194100001,-7.0337096899999665,0],[113.88057739800001,-7.0338530539999624,0],[113.88023246300008,-7.0342012739999404,0],[113.88004675500008,-7.0343887499999482,0],[113.87982148500009,-7.0346129209999617,0],[113.87935554100011,-7.0350765929999284,0],[113.87931507100006,-7.0351168649999636,0],[113.87885107600005,-7.0355844289999254,0],[113.87869760100011,-7.0357557499999643,0],[113.878635497,-7.0357907279999381,0],[113.87859684700004,-7.0357996979999484,0],[113.87848739200001,-7.0358193289999349,0],[113.8783922130001,-7.035847882999974,0],[113.87822446100006,-7.0359299739999415,0],[113.87773249100007,-7.0362128209999355,0],[113.87704545100007,-7.036541194999927,0],[113.87656752300006,-7.0372259179999332,0],[113.87638057200002,-7.0374937609999506,0],[113.87606401700009,-7.0379472869999518,0],[113.8758081310001,-7.0383138929999518,0],[113.87414210000009,-7.0405748929999277,0],[113.87376826400009,-7.0410822329999405,0],[113.87355698100009,-7.0413689689999615,0],[113.87247820400012,-7.0429046699999276,0],[113.87243276900006,-7.0429555459999733,0],[113.87228686100002,-7.0431189269999663,0],[113.87196786200002,-7.0438551839999377,0],[113.87149341400004,-7.0448442029999683,0],[113.87140438000006,-7.0450298009999415,0],[113.87114215800011,-7.0455764199999749,0],[113.87096043100007,-7.0458948089999467,0],[113.8709220610001,-7.045962033999956,0],[113.87051878700004,-7.0466313669999749,0],[113.87040498800002,-7.0469318159999261,0],[113.87031062800008,-7.0469893339999317,0],[113.8702085540001,-7.0471637219999366,0],[113.86991720000003,-7.0476614849999351,0],[113.8691880670001,-7.0489071709999394,0],[113.86911044800001,-7.0490703769999641,0],[113.86907993700004,-7.0491345299999466,0],[113.86904901300011,-7.0491833999999471,0],[113.8681591940001,-7.0484863489999725,0],[113.86761029000002,-7.0485994309999569,0],[113.86728994300006,-7.048597253999958,0],[113.86717028600003,-7.0485964409999724,0],[113.86717045600005,-7.0485987349999277,0],[113.86684216000003,-7.0488645229999634,0],[113.86666997700002,-7.0489616209999326,0],[113.86639999600004,-7.0489806919999296,0],[113.86622921500009,-7.0489113209999346,0],[113.86615130700011,-7.0488399479999657,0],[113.86608484300007,-7.048779058999969,0],[113.86597902200003,-7.0485879049999767,0],[113.86593990200004,-7.048464838999962,0],[113.86579846800009,-7.0483442129999503,0],[113.86561474700011,-7.0482796749999466,0],[113.86549188900005,-7.0482973219999394,0],[113.86546400500004,-7.0483013269999333,0],[113.86531899600004,-7.0484538399999792,0],[113.86527248800007,-7.0485731149999538,0],[113.86524565700006,-7.0486419279999382,0],[113.86522232400011,-7.0487198129999342,0],[113.86520809900003,-7.0489667479999412,0],[113.8652227550001,-7.0490452399999413,0],[113.86523255800012,-7.0490977369999541,0],[113.86525670900005,-7.049227076999955,0],[113.86540087700007,-7.049524488999964,0],[113.86554941000009,-7.0497628029999646,0],[113.86556451300009,-7.0499058609999565,0],[113.86556511100002,-7.0499115289999281,0],[113.86544376000006,-7.0501786509999533,0],[113.86534570100002,-7.0502922339999259,0],[113.86514740000007,-7.0503172859999381,0],[113.8649308140001,-7.0502866579999477,0],[113.86478714400005,-7.0501987279999412,0],[113.86462632400003,-7.0501003019999757,0],[113.8638552430001,-7.0498785179999572,0],[113.86385425000003,-7.0499644629999807,0],[113.86385354000004,-7.0500194509999687,0],[113.8638533510001,-7.0500340739999388,0],[113.86385022600007,-7.0502761759999544,0],[113.8638476430001,-7.0504763019999359,0],[113.86384635900004,-7.0505757879999464,0],[113.86419615700004,-7.050732403999973,0],[113.86431060600012,-7.0507914579999351,0],[113.86438459100009,-7.0509708799999657,0],[113.86440120600003,-7.0513241779999589,0],[113.86431215100004,-7.0518282499999714,0],[113.8642759280001,-7.0522410769999624,0],[113.86424450000004,-7.0524310479999599,0],[113.86425642500001,-7.052496299999973,0],[113.86444997700005,-7.0524768149999773,0],[113.86491007300003,-7.0527553299999681,0],[113.86518594900008,-7.0529991399999403,0],[113.865474242,-7.0532539249999786,0],[113.8656413220001,-7.0534474119999686,0],[113.86575745800008,-7.0538949019999677,0],[113.86578573600002,-7.0541386069999703,0],[113.8657130150001,-7.0542914799999608,0],[113.86556022400009,-7.0543523919999416,0],[113.86505967700009,-7.0544448229999261,0],[113.86487195100005,-7.054523612999958,0],[113.86477156300009,-7.0546834599999784,0],[113.86473041600004,-7.0552394499999309,0],[113.86472841200009,-7.0554517169999258,0],[113.86481102800008,-7.0555902499999661,0],[113.86494579900011,-7.0556635909999272,0],[113.86519519100011,-7.0556533489999538,0],[113.86547312900007,-7.0555672189999541,0],[113.86576756600005,-7.0555946659999336,0],[113.86604210900009,-7.0556724149999468,0],[113.86607913500006,-7.0556734439999786,0],[113.86605535400008,-7.0557795419999252,0],[113.86592448400006,-7.0559014879999609,0],[113.86572520300001,-7.0559728739999628,0],[113.86557946000005,-7.0560710269999731,0],[113.86538613000005,-7.056282203999956,0],[113.8650946460001,-7.0566093799999408,0],[113.86498221700003,-7.0567420329999777,0],[113.86482993100003,-7.0569228719999728,0],[113.86468716400009,-7.0571465419999413,0],[113.86456343200007,-7.0573844869999789,0],[113.86451358200009,-7.057503699999927,0],[113.86502516600001,-7.0578011319999518,0],[113.86625058800007,-7.0583959959999447,0],[113.86714883500008,-7.058859990999963,0],[113.86882635500001,-7.0597641869999279,0],[113.86979598500011,-7.0603055129999461,0],[113.87080141700005,-7.0608089189999532,0],[113.87078377500006,-7.0608336229999509,0],[113.87067222000007,-7.0609689299999445,0],[113.87046433000012,-7.0612768439999627,0],[113.8702865030001,-7.0615995239999734,0],[113.87021226800005,-7.0617121679999286,0],[113.87008549900008,-7.0618101729999694,0],[113.86998079600005,-7.0618407309999611,0],[113.86977092100005,-7.0618270639999423,0],[113.86958374800008,-7.0618506569999795,0],[113.86950952500001,-7.0619632919999731,0],[113.8694732570001,-7.0621579629999474,0],[113.86947533300008,-7.0624944989999676,0],[113.86945419800008,-7.0627115199999366,0],[113.86939490300006,-7.0628165799999465,0],[113.86931308900012,-7.0629143089999502,0],[113.86920869900007,-7.0629972249999469,0],[113.86908152300009,-7.0630279199999677,0],[113.86883422500011,-7.0630219619999366,0],[113.86857167500011,-7.0629712309999491,0],[113.86819695300005,-7.0630144919999793,0],[113.86814439600005,-7.0630258089999529,0],[113.86766670600002,-7.0631286769999519,0],[113.86692662100006,-7.063256484999954,0],[113.86603830200011,-7.0633728789999282,0],[113.86487848700006,-7.063515577999965,0],[113.86378032800008,-7.0636455839999712,0],[113.86316357100009,-7.0637479699999517,0],[113.86246045000007,-7.0638632199999734,0],[113.86182489900011,-7.0640435779999393,0],[113.86172589200009,-7.0640932889999704,0],[113.86078579200012,-7.065230794999934,0],[113.86021947900008,-7.0659589109999388,0],[113.85944853500007,-7.0668631059999711,0],[113.85912220000012,-7.0673172209999393,0],[113.85906782100005,-7.0672961669999381,0],[113.85880216400005,-7.0676065519999725,0],[113.8581350720001,-7.0683859599999437,0],[113.85727874200006,-7.069297694999932,0],[113.85711608100007,-7.0694771669999454,0],[113.8563022080001,-7.0703555719999258,0],[113.85594869300007,-7.0707305719999454,0],[113.85592520000012,-7.0708239409999578,0],[113.85589195900002,-7.0709560409999312,0],[113.85587753600009,-7.0710356109999566,0],[113.85571372300001,-7.0713997949999339,0],[113.85559772400006,-7.0716198959999588,0],[113.85547875100008,-7.0720363009999687,0],[113.85546647500007,-7.0722303539999416,0],[113.85536375100003,-7.0725189769999588,0],[113.85521332100006,-7.0728918439999688,0],[113.85513908300004,-7.0730664889999275,0],[113.85534133700003,-7.0734376839999413,0],[113.85551311400002,-7.0737339709999674,0],[113.85557696400008,-7.0738441019999527,0],[113.85558223600003,-7.0738531949999697,0],[113.85685980200003,-7.0740116719999264,0],[113.85846593800011,-7.0747968949999631,0],[113.86292742800003,-7.0766171839999288,0],[113.86260620000007,-7.0770811759999788,0],[113.86160682700006,-7.0796153029999687,0],[113.86085729800004,-7.0833986459999778,0],[113.86077264800008,-7.0836517629999776,0],[113.8593942870001,-7.0877733469999384,0],[113.85936828900003,-7.0878510869999332,0],[113.85939240900007,-7.0878986219999547,0],[113.85955897100007,-7.0882460229999538,0],[113.85970649800004,-7.0886838429999557,0],[113.85978264100004,-7.0889741369999797,0],[113.8598207120001,-7.0892739509999387,0],[113.8598278500001,-7.0895868479999535,0],[113.85978502100011,-7.0898652459999312,0],[113.85969222000006,-7.0902578579999727,0],[113.85947807000002,-7.0908217899999499,0],[113.85931446900008,-7.091219103999947,0],[113.85927819500012,-7.0913071999999602,0],[113.85920681000005,-7.0916569799999252,0],[113.8591908620001,-7.0920602259999441,0],[113.85922220400005,-7.0922301139999604,0],[113.85933530200009,-7.0924850329999458,0],[113.85954410000011,-7.0927241689999505,0],[113.85971899000003,-7.0928169679999655,0],[113.85994028000005,-7.0928847829999313,0],[113.86029756300002,-7.0929078559999539,0],[113.86093779000009,-7.0930296239999393,0],[113.86100862800004,-7.0930430969999634,0],[113.86101779000001,-7.0930448399999477,0],[113.86135527800002,-7.0930720349999774,0],[113.86215442600007,-7.0931364309999481,0],[113.86298491100001,-7.0931805349999308,0],[113.86340205200008,-7.0932026869999731,0],[113.86417983100011,-7.093173237999963,0],[113.86487095100006,-7.0931073469999433,0],[113.86561183400011,-7.0931027729999414,0],[113.86630386000002,-7.0931847729999618,0],[113.86751619400002,-7.0935347139999294,0],[113.86874147600008,-7.09398316599993,0],[113.86963745300011,-7.0942473409999707,0],[113.87034697000001,-7.0944565389999639,0],[113.87039604500001,-7.0944498829999816,0],[113.87039917400011,-7.0944469449999588,0],[113.87064523000004,-7.0942159539999352,0],[113.87082830500003,-7.0941040749999615,0],[113.87083339000003,-7.0939972819999753,0],[113.87075202400001,-7.0938803169999574,0],[113.87063505900005,-7.0937633529999289,0],[113.87050792400009,-7.0936769009999807,0],[113.87039604500001,-7.0935599359999628,0],[113.87020766900002,-7.0934133979999388,0],[113.87044584400007,-7.0930572779999466,0],[113.8704501200001,-7.09305881399996,0],[113.87064527100006,-7.0931288989999643,0],[113.8708222030001,-7.0931425259999514,0],[113.87109884900008,-7.09324016599993,0],[113.87119974400002,-7.0932889859999477,0],[113.87137875000008,-7.0933768609999674,0],[113.87155450200009,-7.0934614829999418,0],[113.87180511100007,-7.0935395949999815,0],[113.87203293700009,-7.0935981789999687,0],[113.87217614300005,-7.0936730359999274,0],[113.87236491300007,-7.0937023279999494,0],[113.87259599400011,-7.0936990729999252,0],[113.87265783300006,-7.0935981789999687,0],[113.87268712500008,-7.0933345509999413,0],[113.87272292600005,-7.0929863019999289,0],[113.87269363400003,-7.0925924869999335,0],[113.87273594500004,-7.0922247099999254,0],[113.87274582300006,-7.0918455169999675,0],[113.87270979900006,-7.09147343799998,0],[113.8728277670001,-7.0912451629999396,0],[113.87327258800008,-7.0891619209999703,0],[113.87350194800001,-7.0884611949999794,0],[113.87351971700002,-7.0884017129999393,0],[113.87358019200008,-7.0881992649999574,0],[113.87443631700012,-7.0853333179999254,0],[113.8742487610001,-7.0852596059999655,0],[113.87424082900009,-7.0851958069999341,0],[113.87462380600005,-7.0845088319999263,0],[113.8746271660001,-7.0844627199999763,0],[113.87456080800007,-7.084376453999937,0],[113.87503908000008,-7.0834984329999315,0],[113.87529606100009,-7.0829844689999391,0],[113.87571484700004,-7.0821231039999475,0],[113.87618122100002,-7.0812331859999631,0],[113.87623359500003,-7.0811648699999523,0],[113.87629067600005,-7.0810904179999739,0],[113.87640489000012,-7.0809048189999544,0],[113.87655717600001,-7.0806906689999778,0],[113.87751847800007,-7.0791154639999263,0],[113.87832253300007,-7.0779652249999572,0],[113.87857495900005,-7.077559297999926,0],[113.87863682500006,-7.0774974309999266,0],[113.8787320030001,-7.0773879759999545,0],[113.87883669900009,-7.0772071379999488,0],[113.87892236000005,-7.0770262989999537,0],[113.8791269940001,-7.0768073879999633,0],[113.87935542200012,-7.0764599859999748,0],[113.87961716300003,-7.0760459609999771,0],[113.87987890300008,-7.0757128349999334,0],[113.88018347400009,-7.075279772999977,0],[113.88021517000004,-7.0752079299999764,0],[113.88081641100007,-7.074361301999943,0],[113.88090356300006,-7.0743301759999326,0],[113.88212035600009,-7.0728574829999502,0],[113.88227740000002,-7.072671884999977,0],[113.88330256400002,-7.0712574479999262,0],[113.88337195200006,-7.0711490289999688,0],[113.88381937600002,-7.070619570999952,0],[113.88399061200005,-7.0703780849999589,0],[113.88408289000006,-7.0702718249999634,0],[113.88411983500009,-7.0702028289999248,0],[113.88419990500006,-7.0700532969999585,0],[113.88443178200009,-7.0696127309999497,0],[113.88458434500001,-7.0694601679999778,0],[113.88466571100003,-7.0694703389999631,0],[113.88486404200012,-7.0696076449999623,0],[113.88497592100009,-7.069505936999974,0],[113.88504203200011,-7.0693381189999513,0],[113.88491489700004,-7.0691753849999373,0],[113.88459048000004,-7.0689895139999521,0],[113.88471941400007,-7.068825277999963,0],[113.88482422300001,-7.0686917719999656,0],[113.88505146000011,-7.0688424869999267,0],[113.88533359300004,-7.0689963179999609,0],[113.88540497700001,-7.0689368309999736,0],[113.88572223800008,-7.0684173159999659,0],[113.88586897200003,-7.0682785139999282,0],[113.88606690100005,-7.0680154759999709,0],[113.8865930820001,-7.0675531389999264,0],[113.8870456840001,-7.0670496829999365,0],[113.88741183400009,-7.0666631919999645,0],[113.88769153100009,-7.0662105899999688,0],[113.88816956000005,-7.0657783299999437,0],[113.88846960000001,-7.0653613259999588,0],[113.88888156900009,-7.06487717899995,0],[113.88897814100005,-7.0648171869999601,0],[113.88927309500002,-7.0645527459999471,0],[113.88964433000001,-7.0641865959999564,0],[113.89000030900002,-7.0638814709999451,0],[113.89032577500006,-7.0634746379999456,0],[113.89080380400003,-7.063154256999951,0],[113.89121063700009,-7.0626457159999632,0],[113.8915615300001,-7.0623253349999686,0],[113.89191750900011,-7.0619591859999673,0],[113.89229891500008,-7.0616388049999728,0],[113.89258396200012,-7.0611678539999616,0],[113.89286339600005,-7.0610031279999248,0],[113.89324480100004,-7.0607234299999391,0],[113.8936465490001,-7.0603318539999691,0],[113.89415509000003,-7.0600114729999746,0],[113.89459752100004,-7.0595486999999366,0],[113.89508063500011,-7.0591672939999626,0],[113.895436614,-7.0587655469999504,0],[113.89600073500003,-7.0581482989999813,0],[113.89606892800009,-7.0580888689999597,0],[113.89692746300011,-7.0572872969999594,0],[113.89748095000004,-7.0568839439999351,0],[113.89803526000003,-7.0564516839999669,0],[113.89839123900003,-7.0561465599999451,0],[113.89895571900001,-7.0556990429999473,0],[113.89902620000009,-7.0556332609999686,0],[113.89906490500005,-7.0555971359999603,0],[113.89926084400008,-7.0554142599999636,0],[113.89988635000009,-7.0548802919999503,0],[113.90032369500011,-7.0545395689999282,0],[113.90094411500002,-7.0540564549999658,0],[113.9013255210001,-7.0537157329999332,0],[113.90184931900001,-7.0533038139999462,0],[113.90217478500006,-7.0530241169999499,0],[113.90258161800011,-7.0527698459999328,0],[113.90294268200012,-7.0525308319999453,0],[113.90341562600008,-7.0521901089999801,0],[113.90363938400003,-7.0519917779999446,0],[113.90405638800007,-7.05167139699995,0],[113.90433608500007,-7.0515340909999509,0],[113.90445813500003,-7.051412040999935,0],[113.90462086800005,-7.0512187949999543,0],[113.90470223500006,-7.0511628559999622,0],[113.90502261600011,-7.0510102929999334,0],[113.9054803030001,-7.0507356809999351,0],[113.90584136700011,-7.0504966669999476,0],[113.90604986900007,-7.0502932499999815,0],[113.90637533500001,-7.0501050899999314,0],[113.90667537500008,-7.0498406489999752,0],[113.9067285640001,-7.0497686869999256,0],[113.90675589300008,-7.0497413579999488,0],[113.90682493700001,-7.0496554369999558,0],[113.90694921500005,-7.0495357619999481,0],[113.90698143500003,-7.0494943359999525,0],[113.90701058600007,-7.0494391019999512,0],[113.90704280700004,-7.0493393719999631,0],[113.9070566150001,-7.0492672599999651,0],[113.90707195800007,-7.049215093999976,0],[113.90709037000011,-7.0491613939999525,0],[113.90716094700008,-7.0490570619999744,0],[113.90718856500007,-7.0490294449999737,0],[113.90720544200008,-7.0489910869999335,0],[113.9072008390001,-7.0489343179999651,0],[113.9071900990001,-7.0489097689999767,0],[113.90719623600012,-7.0488867549999554,0],[113.90721618200007,-7.0488698779999481,0],[113.90722078500005,-7.0488698779999481,0],[113.90723612800002,-7.0488652749999687,0],[113.90725147100011,-7.0488560689999531,0],[113.90726067700007,-7.0488437949999252,0],[113.90727602000004,-7.0488207799999714,0],[113.9072898280001,-7.0488008339999624,0],[113.90730517100008,-7.0487808889999428,0],[113.90732204900007,-7.0487655459999701,0],[113.90734506300009,-7.0487563399999544,0],[113.90736500900005,-7.0487409969999248,0],[113.90737114600006,-7.048717981999971,0],[113.90737114600006,-7.0486980369999515,0],[113.90737114600006,-7.0486826939999787,0],[113.90736654300008,-7.0486566109999558,0],[113.90734659700001,-7.0486105819999807,0],[113.90733349800007,-7.0485829849999391,0],[113.90742818400008,-7.0485244279999506,0],[113.90761108800007,-7.0485603149999747,0],[113.9076568590001,-7.0485692959999255,0],[113.90770686400003,-7.0485573379999664,0],[113.90789078800003,-7.048513355999944,0],[113.9081043760001,-7.0485235269999293,0],[113.90839932900008,-7.0484014769999703,0],[113.90861291700003,-7.0482997689999252,0],[113.90891804100011,-7.0480861809999737,0],[113.90913162900006,-7.0479641319999473,0],[113.90950286400005,-7.0478013979999332,0],[113.90987409900004,-7.04762849399998,0],[113.91021990700006,-7.0473843949999377,0],[113.91075387500007,-7.04710978199995,0],[113.91122681900003,-7.0467894009999554,0],[113.91163764600003,-7.0465335769999342,0],[113.91192860500007,-7.0464055549999784,0],[113.9123452020001,-7.0462363119999623,0],[113.91267066900002,-7.0461093799999617,0],[113.91350508300002,-7.0456756959999325,0],[113.91403905100003,-7.0454621089999705,0],[113.91489340100009,-7.0451010449999671,0],[113.9154273690001,-7.0447603219999451,0],[113.9159664230001,-7.0445111369999722,0],[113.91664278200005,-7.0442517809999572,0],[113.91715640900009,-7.0440788769999472,0],[113.91780225600007,-7.0439110579999351,0],[113.91844342600007,-7.0438115699999457,0],[113.91861167600007,-7.043882463999978,0],[113.91881950400011,-7.0439782759999616,0],[113.91893121800001,-7.0438907169999538,0],[113.9190430970001,-7.0438144349999448,0],[113.91916514700006,-7.0437890079999761,0],[113.91920628900004,-7.0438121499999511,0],[113.91924651300008,-7.0438347769999723,0],[113.91928719700002,-7.0439059729999371,0],[113.91933296500008,-7.0440025959999275,0],[113.91936347800004,-7.0440992179999284,0],[113.91939665700011,-7.0442443509999748,0],[113.91939865100005,-7.0442452699999762,0],[113.91941562600005,-7.0442977409999799,0],[113.91943336500003,-7.0443316059999574,0],[113.91946561800012,-7.0443751469999256,0],[113.91956882600005,-7.0444412639999427,0],[113.91962043000001,-7.044434813999942,0],[113.91968977300007,-7.044434813999942,0],[113.91974782700004,-7.0444606159999807,0],[113.91985426000008,-7.0445235079999406,0],[113.91992844100002,-7.0445767249999562,0],[113.91999939600009,-7.0446347789999777,0],[113.92005906400004,-7.0446718689999557,0],[113.92028483100012,-7.0446799319999514,0],[113.92031632200008,-7.0446783569999525,0],[113.9203170830001,-7.0446783199999459,0],[113.92038481400004,-7.044676706999951,0],[113.92039567000006,-7.0446720929999742,0],[113.92044931900011,-7.0446492929999636,0],[113.92048963400009,-7.0446138149999342,0],[113.92051543600007,-7.044583174999957,0],[113.92053962600005,-7.0445412469999269,0],[113.92057510300003,-7.0444944809999583,0],[113.92057994100003,-7.0444493269999384,0],[113.92058038500011,-7.0444456259999697,0],[113.92058477900002,-7.0444090119999601,0],[113.92059929300001,-7.0443928849999793,0],[113.9206250950001,-7.0443815969999264,0],[113.92065573500008,-7.0443944979999742,0],[113.92068314900007,-7.0444235249999565,0],[113.92069464100007,-7.0444551269999351,0],[113.92069605000006,-7.044459002999929,0],[113.92068637400007,-7.0444977059999587,0],[113.92067992400007,-7.044546084999979,0],[113.92070250100005,-7.0445815619999621,0],[113.92075894300001,-7.0446283289999769,0],[113.92083473600007,-7.044650904999969,0],[113.92089762800003,-7.0447266989999662,0],[113.92092504300001,-7.0448186179999652,0],[113.92097503400009,-7.044926663999945,0],[113.92098471000008,-7.0449460149999368,0],[113.92102825100005,-7.0450008449999473,0],[113.92106695400003,-7.0450282589999347,0],[113.92107954400001,-7.0450341199999684,0],[113.92116048600008,-7.0450717999999597,0],[113.92125563100001,-7.0451169539999796,0],[113.92133464900007,-7.0451169539999796,0],[113.92140560500002,-7.0451427559999615,0],[113.92144753300011,-7.0451492059999623,0],[113.92149268700007,-7.045157268999958,0],[113.92153784000004,-7.0451927469999305,0],[113.92154590300004,-7.0452362879999555,0],[113.92157815600001,-7.0453040179999675,0],[113.92161363300011,-7.0453411079999455,0],[113.92165556200007,-7.0453556219999314,0],[113.92175715700012,-7.0453991629999564,0],[113.92181843700007,-7.0454072259999521,0],[113.92184262600006,-7.0454281899999387,0],[113.92191358100001,-7.0454507669999771,0],[113.92202001500004,-7.0454943079999452,0],[113.92208129400001,-7.0455039829999464,0],[113.92213451100008,-7.0454749559999641,0],[113.92218772800004,-7.0454459289999249,0],[113.92222965600001,-7.0454023879999568,0],[113.92225545800011,-7.0453765859999748,0],[113.92230706200007,-7.0453136939999581,0],[113.92234737700005,-7.0452798289999805,0],[113.92236995400003,-7.0452749909999284,0],[113.92237640500002,-7.0452862789999813,0],[113.92236834200003,-7.0453104689999577,0],[113.92234737700005,-7.0453507839999361,0],[113.92231028700007,-7.0453846489999705,0],[113.9222828720001,-7.045452379999972,0],[113.92225062000011,-7.0454959199999507,0],[113.92221836700003,-7.0455765519999431,0],[113.92221514200003,-7.0456071909999309,0],[113.92221030400003,-7.0456362189999595,0],[113.92223126800002,-7.0456620209999414,0],[113.92225223300011,-7.0456733089999375,0],[113.92229416100008,-7.0456781469999328,0],[113.92235382800004,-7.0456700839999371,0],[113.92239898100001,-7.0456491199999505,0],[113.92241188200001,-7.0456362189999595,0],[113.92246026100008,-7.0456362189999595,0],[113.92247638700007,-7.0456571829999461,0],[113.92251670300004,-7.0457168499999625,0],[113.92266990200005,-7.045845859999929,0],[113.92276666000009,-7.0459474549999754,0],[113.92281987600006,-7.045981319999953,0],[113.92290050800011,-7.0459909959999436,0],[113.92293598500009,-7.0459780949999526,0],[113.92297468800007,-7.0459861579999483,0],[113.92297791400006,-7.0460264739999729,0],[113.92299887800004,-7.0460780779999368,0],[113.92302790500003,-7.0461329069999579,0],[113.92301747600004,-7.0461615859999256,0],[113.92300210300004,-7.0462038619999703,0],[113.92304080600002,-7.0462748179999721,0],[113.9230956350001,-7.046326421999936,0],[113.92316336500005,-7.046381250999957,0],[113.9232439970001,-7.0464296299999774,0],[113.92330850100007,-7.0464683329999502,0],[113.9234246100001,-7.04650703599998,0],[113.92349556600004,-7.0465038109999796,0],[113.92354394500001,-7.0465134859999807,0],[113.92362457600007,-7.0465779909999355,0],[113.92370520700001,-7.0466070179999747,0],[113.92382131600004,-7.0465844419999257,0],[113.92387292000001,-7.0465554149999434,0],[113.9238987220001,-7.0465521889999536,0],[113.92400838000003,-7.0466134689999649,0],[113.92407611100009,-7.0466650729999287,0],[113.92416319200004,-7.0466844239999773,0],[113.92427930100007,-7.0466682979999291,0],[113.92437928400011,-7.0466295949999562,0],[113.92441476200008,-7.0465973429999735,0],[113.92443411300007,-7.0465489639999532,0],[113.92443411300007,-7.0464813839999465,0],[113.92443411300007,-7.046474782999951,0],[113.92444701400007,-7.0464231789999303,0],[113.92446314000006,-7.046426404999977,0],[113.92460601500011,-7.0464709659999585,0],[113.92479794200005,-7.0464357839999252,0],[113.92483807600001,-7.0464215669999248,0],[113.92486549000012,-7.0464151159999346,0],[113.92491225600008,-7.046407052999939,0],[113.92492435100007,-7.0463965709999457,0],[113.92493483300007,-7.0463796379999621,0],[113.92495176600005,-7.0463594809999677,0],[113.92496063500005,-7.0463546429999724,0],[113.92497111700004,-7.0463554489999751,0],[113.92497998700003,-7.0463667369999712,0],[113.92497434200004,-7.046375606999959,0],[113.92497111700004,-7.0463893139999527,0],[113.92496224800004,-7.0464086659999339,0],[113.92495418500005,-7.0464368869999703,0],[113.92498048200002,-7.0464970949999497,0],[113.92498482400003,-7.04650703599998,0],[113.92502836500012,-7.0465844419999257,0],[113.92507029300009,-7.0466537849999327,0],[113.92514422300007,-7.0467142139999623,0],[113.92520558000001,-7.0467643659999339,0],[113.92525574500007,-7.0468053709999481,0],[113.92534605200001,-7.0468198849999339,0],[113.92543635900006,-7.0468166599999336,0],[113.92544556200005,-7.0468122669999502,0],[113.92550731500012,-7.046782794999956,0],[113.9255444050001,-7.0467279649999455,0],[113.92556214400008,-7.0466682979999291,0],[113.92557343200008,-7.0466424959999472,0],[113.92559762200005,-7.0466279829999507,0],[113.92563793700003,-7.0466489469999374,0],[113.9256959920001,-7.0466973249999683,0],[113.92578468600004,-7.0467763439999658,0],[113.92589595700008,-7.0468553629999633,0],[113.92598626400002,-7.0469230929999753,0],[113.92600641200011,-7.0469553289999567,0],[113.92601045300012,-7.0469617959999482,0],[113.92604593100009,-7.0469908229999305,0],[113.92610237300005,-7.0470214629999646,0],[113.92613623800003,-7.0470472649999465,0],[113.9261926800001,-7.0470585529999425,0],[113.92621848200008,-7.0470585529999425,0],[113.92629588800003,-7.0470569409999371,0],[113.92633942900011,-7.0470488779999414,0],[113.92635318300006,-7.0470437829999355,0],[113.92638297000008,-7.0470327509999606,0],[113.92641038400006,-7.0470392019999508,0],[113.92642408300003,-7.0470618679999575,0],[113.92643296100005,-7.0470827429999758,0],[113.92645715000003,-7.0471182199999589,0],[113.92650875400011,-7.047126283999944,0],[113.92653162200008,-7.0471148499999572,0],[113.92653778200008,-7.0471117699999581,0],[113.92655713300007,-7.047113382999953,0],[113.92657648500006,-7.0471182199999589,0],[113.92659439800002,-7.0471624069999734,0],[113.92662486300003,-7.0472375549999811,0],[113.92665711600011,-7.0472665819999634,0],[113.92670226900009,-7.0472972219999406,0],[113.92676032400004,-7.0473278619999746,0],[113.92680225200002,-7.0473617269999522,0],[113.9268377300001,-7.0474020419999306,0],[113.92689578400007,-7.0474617089999469,0],[113.92696512700002,-7.0475020249999716,0],[113.92701995600009,-7.0475326649999488,0],[113.92709252400005,-7.0475616919999311,0],[113.92718605700009,-7.0475745929999789,0],[113.92720991400006,-7.0475651759999778,0],[113.92724733600005,-7.047550403999935,0],[113.92729410200002,-7.0475181509999629,0],[113.9273392560001,-7.0474971869999763,0],[113.92736828300008,-7.0474778359999277,0],[113.92746962500007,-7.0474352489999319,0],[113.92765270000007,-7.0474199929999486,0],[113.92773406600008,-7.0474505049999721,0],[113.92773406600008,-7.0475217009999369,0],[113.9276272730001,-7.0476386649999654,0],[113.92761787900008,-7.0476556909999317,0],[113.92761178900003,-7.0476713509999627,0],[113.92761178900003,-7.0477100529999461,0],[113.92762307800001,-7.0477374679999798,0],[113.92762771700006,-7.0477486779999481,0],[113.92764242900012,-7.0477842339999484,0],[113.92764726700011,-7.0477939099999389,0],[113.92765533000011,-7.0478019729999346,0],[113.92767306900009,-7.047805197999935,0],[113.92769056800012,-7.0478011589999596,0],[113.92769403300008,-7.0478003599999397,0],[113.92772306000006,-7.0477842339999484,0],[113.92773596100005,-7.0477842339999484,0],[113.92775531300003,-7.0477971349999393,0],[113.92775531300003,-7.0478132609999307,0],[113.92774563700004,-7.0478293879999683,0],[113.92772144800006,-7.047835837999969,0],[113.92771072500011,-7.047840353999959,0],[113.92769080800008,-7.04784873899996,0],[113.92764888000011,-7.0478890549999278,0],[113.92763759100001,-7.0479277579999575,0],[113.92764726700011,-7.0479712989999257,0],[113.92768274500008,-7.0479971009999645,0],[113.92774563700004,-7.0479987129999699,0],[113.92779662600003,-7.0479811849999692,0],[113.92779724100001,-7.0479809739999268,0],[113.9278311060001,-7.0479616229999351,0],[113.92785368300008,-7.0479664609999304,0],[113.92787142200007,-7.0479841999999735,0],[113.92787303400007,-7.0480132269999558,0],[113.92786013300008,-7.0480616059999761,0],[113.92785815500008,-7.0480774379999502,0],[113.92785368300008,-7.04811320999994,0],[113.92787626000006,-7.0481986789999382,0],[113.92803591000006,-7.0483647789999395,0],[113.92815672200004,-7.0484424459999673,0],[113.92819245600003,-7.048453593999966,0],[113.92820039700007,-7.0484615359999339,0],[113.92824393800004,-7.0484921759999679,0],[113.92837456100006,-7.0485437799999318,0],[113.92838746200005,-7.048548617999927,0],[113.92845841700012,-7.0485695819999705,0],[113.92850840800008,-7.0485744199999658,0],[113.92851969700007,-7.0485857079999619,0],[113.92855840000004,-7.0486002219999477,0],[113.92857775100003,-7.0486002219999477,0],[113.92859710300002,-7.0485953839999524,0],[113.92860677900001,-7.0485953839999524,0],[113.92861806700012,-7.0486147359999336,0],[113.92862451700012,-7.0486373119999257,0],[113.92863741800011,-7.0486582769999586,0],[113.92864870700009,-7.0486760149999554,0],[113.92868257200007,-7.048685690999946,0],[113.92870514900005,-7.0486937539999417,0],[113.92874223900003,-7.0487066549999327,0],[113.92878739200012,-7.0487082679999276,0],[113.92882448300008,-7.0487034299999323,0],[113.92884383400008,-7.0487018169999374,0],[113.92890188900003,-7.0487131059999797,0],[113.92891962800002,-7.0487195559999805,0],[113.92894381700012,-7.0487437459999569,0],[113.9289615560001,-7.0487630969999486,0],[113.92897123200009,-7.0487695479999388,0],[113.92899219600008,-7.0487598719999482,0],[113.92899058300009,-7.0487389079999616,0],[113.92899219600008,-7.048717943999975,0],[113.92900025900008,-7.0487002049999319,0],[113.92902118200004,-7.0486940499999378,0],[113.92902767300006,-7.0486921419999362,0],[113.92903896200005,-7.0486889159999464,0],[113.92905347500005,-7.0486937539999417,0],[113.92906637600004,-7.0487034299999323,0],[113.92907121400003,-7.0487131059999797,0],[113.92907236700012,-7.0487229019999518,0],[113.92907444000002,-7.0487405199999671,0],[113.92907282700003,-7.0487743859999341,0],[113.92909862900001,-7.0488163139999642,0],[113.92911636800011,-7.048835664999956,0],[113.92914217000009,-7.0488501789999418,0],[113.92917926000007,-7.0488550169999371,0],[113.92920990000005,-7.0488372779999509,0],[113.92922925100004,-7.0488243769999599,0],[113.9292424680001,-7.0488187839999341,0],[113.92927118000011,-7.0488066379999736,0],[113.92927279200001,-7.0488082509999685,0],[113.92928246800011,-7.0488243769999599,0],[113.92928121900002,-7.0488406269999473,0],[113.92928085500012,-7.0488453409999465,0],[113.92928085500012,-7.0488679179999281,0],[113.92928246800011,-7.048890493999977,0],[113.9293034320001,-7.0489179089999539,0],[113.92931955800009,-7.0489275849999444,0],[113.92936632500005,-7.0489469359999362,0],[113.92938890100004,-7.0489614499999789,0],[113.92941309100001,-7.0489646749999793,0],[113.92945018100011,-7.0489646749999793,0],[113.9294598570001,-7.0489678999999796,0],[113.92948082100008,-7.0489840269999604,0],[113.92948888400008,-7.0489920899999561,0],[113.92952597400006,-7.0490162789999431,0],[113.92954693800004,-7.0490291799999341,0],[113.92956946000004,-7.0490250839999362,0],[113.92957711300005,-7.0490321619999463,0],[113.92959531700001,-7.0490356309999811,0],[113.92963563300009,-7.0490436939999768,0],[113.92965659700008,-7.0490517569999724,0],[113.92967111100006,-7.0490727209999591,0],[113.92969368700005,-7.0491210999999794,0],[113.92968562400006,-7.0491501269999617,0],[113.92967700000008,-7.0491616269999327,0],[113.92964208300009,-7.0492081809999263,0],[113.92963079500009,-7.0492372089999549,0],[113.9296243440001,-7.0492807499999799,0],[113.92964047100008,-7.0493371909999496,0],[113.92966788500007,-7.0493823449999695,0],[113.92971142600004,-7.049417822999942,0],[113.92979850800009,-7.0494565259999717,0],[113.92985333700005,-7.0494742639999686,0],[113.92989526500003,-7.0494952289999446,0],[113.9299404190001,-7.0495274809999273,0],[113.92997123600003,-7.0495421549999264,0],[113.93000814900006,-7.0495597339999563,0],[113.93005652800002,-7.0495984369999292,0],[113.93007427500004,-7.0496284699999592,0],[113.93007749200001,-7.0496339139999691,0],[113.93009845600011,-7.049672616999942,0],[113.93012587100009,-7.0496951939999803,0],[113.93017424900006,-7.0496935809999286,0],[113.93018851600004,-7.0496858989999396,0],[113.93019521300005,-7.0496822929999325,0],[113.93020619800006,-7.0496763429999305,0],[113.93021295200003,-7.0496758419999423,0],[113.93022988500002,-7.0496742299999369,0],[113.93024198000001,-7.0496742299999369,0],[113.93024843000001,-7.04967826099994,0],[113.93025971800012,-7.0496871309999278,0],[113.93026250300011,-7.0496913079999786,0],[113.93027261900011,-7.0497064819999764,0],[113.93028874600009,-7.0497234149999599,0],[113.93031132200008,-7.0497363159999509,0],[113.93035405700005,-7.049740346999954,0],[113.93038630900003,-7.0497298649999607,0],[113.93040324200001,-7.0497137389999693,0],[113.93040854700007,-7.0497105099999544,0],[113.93042178700011,-7.0497024509999733,0],[113.9304346880001,-7.0497008379999784,0],[113.9304475890001,-7.0497056759999737,0],[113.93046297900003,-7.0497204959999635,0],[113.93046936000007,-7.0497266399999603,0],[113.93047097200008,-7.0497363159999509,0],[113.93051128800005,-7.049753247999945,0],[113.93052418900004,-7.0497516359999395,0],[113.93053547700003,-7.0497556669999426,0],[113.93054515300003,-7.0497637299999383,0],[113.93057176100001,-7.0497661489999359,0],[113.93058466200011,-7.0497588929999324,0],[113.93059272500011,-7.0497459919999415,0],[113.9305969940001,-7.0497353199999679,0],[113.93062244100008,-7.0497391569999763,0],[113.93069186300011,-7.0497603949999643,0],[113.93069674000003,-7.0497629239999355,0],[113.93072334800001,-7.0497750189999806,0],[113.93074269900001,-7.049783887999979,0],[113.93076930800009,-7.0497943699999723,0],[113.93079269100008,-7.049802432999968,0],[113.93081365500007,-7.0498016269999653,0],[113.93083300600006,-7.0497992079999676,0],[113.93084106900005,-7.04979678899997,0],[113.93084391100001,-7.0497951649999777,0],[113.93087472500008,-7.0498013599999467,0],[113.9309937270001,-7.0498252849999403,0],[113.93107940800007,-7.0498683489999507,0],[113.93114492600012,-7.049965641999961,0],[113.93114922300003,-7.0499720219999631,0],[113.93125077100001,-7.0501219479999691,0],[113.93132462400001,-7.050207908999937,0],[113.93137081700002,-7.0502273599999512,0],[113.93151212400005,-7.0502623069999686,0],[113.93153320200008,-7.0502623069999686,0],[113.93167283100001,-7.0502272169999287,0],[113.93181880600002,-7.0501889379999625,0],[113.93195208800012,-7.0501315179999438,0],[113.93205046300011,-7.0501091899999437,0],[113.93217422500004,-7.0502080779999687,0],[113.93228212000008,-7.0504218029999493,0],[113.93230750700002,-7.050530260999949,0],[113.93241857600003,-7.0505844899999488,0],[113.93245348300002,-7.0506578589999549,0],[113.93244396300008,-7.0507057079999527,0],[113.93240588200001,-7.0507535569999504,0],[113.93234558800009,-7.0508014049999588,0],[113.93221230600011,-7.0508939139999711,0],[113.93219643900011,-7.0510310819999518,0],[113.93223769300005,-7.0512065279999661,0],[113.93265023300012,-7.0513628349999635,0],[113.93297391800002,-7.0514968129999716,0],[113.9330378200001,-7.0515043299999434,0],[113.93309536200002,-7.0516151399999671,0],[113.93324633500004,-7.0518137889999366,0],[113.93332579500009,-7.0519568159999722,0],[113.93344498400006,-7.0521395729999767,0],[113.93354828100007,-7.0523938429999475,0],[113.93364363300009,-7.0526957899999729,0],[113.93365248500004,-7.0527323049999495,0],[113.93362204000005,-7.0529478569999355,0],[113.93346561500005,-7.0534671219999723,0],[113.93336240700012,-7.053794484999969,0],[113.93334950600001,-7.053899304999959,0],[113.93326565000007,-7.054205703999969,0],[113.93318018100001,-7.0545137149999277,0],[113.93316728000002,-7.0545556439999473,0],[113.93315760400003,-7.0545862829999351,0],[113.93315921700002,-7.054618535999964,0],[113.93317856800002,-7.0546411129999456,0],[113.93320275800011,-7.0546443379999459,0],[113.93323017200009,-7.0546362749999503,0],[113.93323823500009,-7.0546136979999687,0],[113.93324791100008,-7.054563706999943,0],[113.93326403700007,-7.0545121029999791,0],[113.93327048800006,-7.0544814629999451,0],[113.93328661400005,-7.0544427599999722,0],[113.93330596600003,-7.0543976059999522,0],[113.93332209200003,-7.0543411639999363,0],[113.93333176800002,-7.0543169749999493,0],[113.93334466900001,-7.0542927859999622,0],[113.93338982200009,-7.0541992539999683,0],[113.93340111000009,-7.0541718389999346,0],[113.93343336300006,-7.0541057209999281,0],[113.93344787700005,-7.0540589549999595,0],[113.93346239000005,-7.0539992879999431,0],[113.93353012000011,-7.0538331879999419,0],[113.9335430210001,-7.0537880339999788,0],[113.93357849900008,-7.053713853999966,0],[113.93359785100006,-7.0536267719999728,0],[113.93363010300004,-7.0534848609999585,0],[113.93364945500002,-7.0533719769999266,0],[113.93365913000002,-7.0533268239999529,0],[113.93373976200007,-7.0532752199999322,0],[113.93382361800002,-7.0532429669999601,0],[113.93386227500002,-7.0532429669999601,0],[113.9338752220001,-7.0532429669999601,0],[113.93395585300004,-7.0532494179999503,0],[113.93402358300011,-7.0532719949999318,0],[113.93408994400011,-7.0533383549999371,0],[113.93409776400006,-7.0533461749999447,0],[113.93421064800009,-7.0534655089999774,0],[113.93428805400004,-7.0535364649999792,0],[113.93440738800007,-7.0536332219999736,0],[113.93454284800009,-7.0537267549999569,0],[113.93467830900011,-7.0537977099999694,0],[113.93475894000005,-7.0538428639999324,0],[113.93494277900004,-7.053920269999935,0],[113.93503308600009,-7.0539589729999648,0],[113.93509759100004,-7.0539783239999565,0],[113.93521370000008,-7.0539912249999475,0],[113.93537744100001,-7.0539598319999754,0],[113.93543846500006,-7.0538835509999558,0],[113.93556560100001,-7.0537309889999733,0],[113.93569411800001,-7.0535851039999784,0],[113.93576197700008,-7.0536366169999383,0],[113.93584582900007,-7.0536436399999616,0],[113.93595372400011,-7.0536372609999489,0],[113.93599758800008,-7.0536372609999489,0],[113.93604575200004,-7.0536372609999489,0],[113.9361225990001,-7.0536732199999506,0],[113.93622980900011,-7.0537233889999698,0],[113.93633125100007,-7.0537426009999535,0],[113.93652674400005,-7.0539344049999499,0],[113.93659285400008,-7.0541174799999453,0],[113.93662336600005,-7.0542649569999298,0],[113.93664370800002,-7.0543870069999457,0],[113.93669456200007,-7.0545700819999411,0],[113.9369386620001,-7.0546768759999736,0],[113.93707596800004,-7.0546514479999587,0],[113.93717259100004,-7.0546005939999645,0],[113.93720310300012,-7.054488714999934,0],[113.93719293300001,-7.0543158109999808,0],[113.93719914900009,-7.0541714339999544,0],[113.93738492000011,-7.0542114499999684,0],[113.93764513700012,-7.0542497279999452,0],[113.93776255300008,-7.0543199079999681,0],[113.93792756900007,-7.0545049239999571,0],[113.93765881100001,-7.0549893429999315,0],[113.93763667900009,-7.0550935439999307,0],[113.93760555900008,-7.0552652699999499,0],[113.93759722700008,-7.0553756679999537,0],[113.93759722700008,-7.0555506389999323,0],[113.93764097000007,-7.0557589369999505,0],[113.93767846300011,-7.055950571999972,0],[113.93772428900002,-7.0562026129999253,0],[113.93775345100005,-7.0563650859999711,0],[113.93780760800007,-7.0565796329999557,0],[113.93788259600001,-7.0566337909999675,0],[113.93805965000001,-7.0567275249999284,0],[113.93817629700004,-7.0567962639999564,0],[113.9382158730001,-7.0569587369999454,0],[113.93827836300011,-7.0571670349999636,0],[113.93833460400003,-7.0573607529999549,0],[113.93841792300009,-7.0573378399999456,0],[113.93840542500004,-7.0572628519999512,0],[113.93837001400004,-7.0570920479999586,0],[113.93830752500003,-7.0569108279999568,0],[113.93827211400003,-7.0567566869999609,0],[113.93833369200001,-7.0566382169999429,0],[113.93821977900006,-7.0565698689999294,0],[113.93805053700009,-7.0565047759999402,0],[113.93788780300008,-7.0563973719999353,0],[113.93785525700002,-7.0562606759999653,0],[113.93782921900004,-7.0560816699999691,0],[113.93779016300005,-7.0558408249999616,0],[113.93776946200001,-7.0555754199999683,0],[113.93808258800004,-7.0557489999999348,0],[113.93818017000001,-7.0557370379999611,0],[113.93823253100004,-7.055703542999936,0],[113.93831107200003,-7.0556604779999361,0],[113.9384276940001,-7.0555719579999732,0],[113.93850623500009,-7.0555528189999563,0],[113.93858001600006,-7.0555767419999711,0],[113.93867759800003,-7.0556269849999467,0],[113.93879898000012,-7.055701150999937,0],[113.93896796200011,-7.0558638369999471,0],[113.93920120600001,-7.056004990999952,0],[113.93923928600009,-7.0560576259999266,0],[113.93930354700001,-7.0561150449999559,0],[113.93937494900001,-7.05615093199998,0],[113.93951299100002,-7.0561748559999273,0],[113.93962009200004,-7.0561939949999442,0],[113.93967245300007,-7.0561772489999726,0],[113.93970339400005,-7.0561317919999738,0],[113.93973909400006,-7.0560648039999592,0],[113.93978198400009,-7.0560353039999768,0],[113.93980102500007,-7.0559651529999314,0],[113.93982393800002,-7.0559318249999592,0],[113.93985726500011,-7.0559318249999592,0],[113.93988226100009,-7.0559630699999616,0],[113.93986351400008,-7.056008894999934,0],[113.93987478600002,-7.0561201379999261,0],[113.93990093700006,-7.0561581089999663,0],[113.93997233800008,-7.0562801239999544,0],[113.94005087900007,-7.0563207959999659,0],[113.94020082100008,-7.0563495059999468,0],[113.94038170400006,-7.056306440999947,0],[113.94045472900007,-7.0561508389999403,0],[113.94051147100004,-7.0561742069999696,0],[113.94053230000009,-7.0561810159999254,0],[113.9405209040001,-7.0562579369999412,0],[113.94049424200011,-7.0563899149999543,0],[113.94047957800001,-7.0565005629999291,0],[113.94044891600004,-7.0566725339999721,0],[113.94042758700004,-7.0568138439999757,0],[113.94044908100011,-7.056815940999968,0],[113.94044870300002,-7.0568321879999303,0],[113.94043846500006,-7.0568774069999449,0],[113.9404282270001,-7.0569473679999533,0],[113.94041286900006,-7.0570335409999529,0],[113.94039921800004,-7.0571052089999284,0],[113.94037874200001,-7.0572058849999735,0],[113.94036338400008,-7.0572903509999492,0],[113.94034717300008,-7.0573859079999579,0],[113.94030622000002,-7.0573782299999266,0],[113.94029001000001,-7.057456722999973,0],[113.94028318400001,-7.0575343639999346,0],[113.94034120100002,-7.0575463079999281,0],[113.94035741200003,-7.0575821419999443,0],[113.94038044800004,-7.0576802589999375,0],[113.94040519000009,-7.0577843479999274,0],[113.94042908000006,-7.0578696669999772,0],[113.94047856500003,-7.0578577229999269,0],[113.94047685800001,-7.0578406589999645,0],[113.94046406100006,-7.0577911739999308,0],[113.94045041000004,-7.0577271849999761,0],[113.94043078600009,-7.0576614889999405,0],[113.94042054800002,-7.0576009119999412,0],[113.94040689700012,-7.0575497209999298,0],[113.94041286900006,-7.0575104739999688,0],[113.94042396100008,-7.0574550169999384,0],[113.94043846500006,-7.0573995589999754,0],[113.94039153900007,-7.0573901739999769,0],[113.94040007100011,-7.0573534869999435,0],[113.94041457600008,-7.0572877909999647,0],[113.9404282270001,-7.0572101509999356,0],[113.94044102400005,-7.0571359239999651,0],[113.94045126300011,-7.0570574299999294,0],[113.94046064800011,-7.0569934409999746,0],[113.94048283100005,-7.0569064149999576,0],[113.94049748400005,-7.0568246639999757,0],[113.94051557200009,-7.0568311749999566,0],[113.94053156900009,-7.0567405229999736,0],[113.94055423200007,-7.0566218759999515,0],[113.94057289600005,-7.0565072289999762,0],[113.94060755700002,-7.0563499219999812,0],[113.94063574800009,-7.0562148339999453,0],[113.94104377000008,-7.0563482199999612,0],[113.94114563500011,-7.0563918769999532,0],[113.94141029700006,-7.0565062809999404,0],[113.9413883630001,-7.0565614109999615,0],[113.94116512700009,-7.0572535209999501,0],[113.94119765100004,-7.0572761379999633,0],[113.94124814600002,-7.0573112539999556,0],[113.94145009800002,-7.0573039129999415,0],[113.94144523000011,-7.057254516999933,0],[113.94145290800009,-7.057187967999937,0],[113.94147253200003,-7.0571794359999558,0],[113.94149812800003,-7.0571700509999573,0],[113.94153396200011,-7.0571768769999608,0],[113.94155955700001,-7.0571777299999781,0],[113.94157576800001,-7.0571768769999608,0],[113.9416090420001,-7.0571700509999573,0],[113.94163890400011,-7.0571640789999606,0],[113.94164402300009,-7.0571461619999809,0],[113.9416414640001,-7.0571137409999665,0],[113.94164231700006,-7.0570821729999693,0],[113.94164999500003,-7.0570634019999261,0],[113.94166108700006,-7.0570574299999294,0],[113.94169350800007,-7.0570582829999466,0],[113.94172251700002,-7.0570659619999674,0],[113.94175323200011,-7.0570787599999676,0],[113.94178309300003,-7.0570889979999265,0],[113.94181295500005,-7.057098382999925,0],[113.9418257530001,-7.0571504279999431,0],[113.94182404600008,-7.0571845549999352,0],[113.94183343100008,-7.0572528109999553,0],[113.94182434100003,-7.0572903079999492,0],[113.9418668190001,-7.0572887639999635,0],[113.94205199500004,-7.0572132629999373,0],[113.94208475200003,-7.0572036629999388,0],[113.94209530800003,-7.0572311079999395,0],[113.94209130800004,-7.0572910979999506,0],[113.94205398100007,-7.057367084999953,0],[113.94200065700011,-7.0574324069999648,0],[113.9420126550001,-7.0574857319999751,0],[113.94204198300008,-7.0574897309999756,0],[113.94212463600002,-7.0574897309999756,0],[113.94213396800001,-7.0573830819999444,0],[113.9421579640001,-7.0572671019999689,0],[113.9421803030001,-7.0571756609999738,0],[113.94226539700003,-7.0571507229999497,0],[113.94227398600003,-7.0571536239999659,0],[113.94229260800012,-7.0571844489999762,0],[113.94231127100011,-7.0572497709999311,0],[113.94234993200007,-7.0572284409999497,0],[113.94240458900003,-7.0572177769999485,0],[113.94255235500009,-7.0571449759999609,0],[113.94263290400011,-7.0571247949999361,0],[113.94276299300009,-7.0570649839999646,0],[113.94294077000006,-7.05697583999995,0],[113.94325956000012,-7.0567362649999268,0],[113.94376228100009,-7.0570183489999749,0],[113.94376424500001,-7.0570167739999761,0],[113.94376846800003,-7.0570352469999307,0],[113.94376590800005,-7.0570540169999276,0],[113.94379150400005,-7.0570634019999261,0],[113.94382221900003,-7.0570284219999735,0],[113.94387255700008,-7.0569738169999709,0],[113.94393398700004,-7.0569106809999766,0],[113.94400394800005,-7.0568321879999303,0],[113.94408244200008,-7.0567485749999719,0],[113.94415325700004,-7.0566769069999395,0],[113.9442198050001,-7.056594147999931,0],[113.9442991520001,-7.0565139479999743,0],[113.94438788400009,-7.0564072989999431,0],[113.94437563700001,-7.0563876199999527,0],[113.94433226700005,-7.0563205929999526,0],[113.94431150000003,-7.0562587239999743,0],[113.94452818200011,-7.0560146789999294,0],[113.94453750100001,-7.0559947469999429,0],[113.94462155200006,-7.0558846659999404,0],[113.94470287100012,-7.0558060129999376,0],[113.94478952300005,-7.0557153609999546,0],[113.94486751000011,-7.0556107119999751,0],[113.94499215600001,-7.0554860659999576,0],[113.94504148100009,-7.0554474059999279,0],[113.9451721260001,-7.0553727519999256,0],[113.94528944000001,-7.05529676499998,0],[113.94542675000002,-7.0551967809999496,0],[113.94557205900003,-7.0550661369999261,0],[113.94565071300008,-7.0550194779999629,0],[113.94569337200005,-7.0549661529999526,0],[113.94569261700008,-7.0549412389999588,0],[113.94569203900005,-7.054922160999979,0],[113.94568804000005,-7.054871501999969,0],[113.94567070900007,-7.0548075129999575,0],[113.9456307160001,-7.054803513999957,0],[113.94558056000005,-7.0548382369999558,0],[113.9454805360001,-7.0547462959999621,0],[113.94558749400005,-7.0545508349999295,0],[113.94566681000003,-7.054463587999976,0],[113.94579768000006,-7.0544556569999486,0],[113.94597614000008,-7.0544834169999717,0],[113.94610701000011,-7.0544516909999402,0],[113.94618235900009,-7.0542692649999594,0],[113.94616649600005,-7.0541225319999512,0],[113.94630926400009,-7.0540035589999661,0],[113.94647542100006,-7.0539230379999367,0],[113.94654996700001,-7.0538650519999351,0],[113.94666618300005,-7.0537735449999559,0],[113.94680498500009,-7.053646639999954,0],[113.94692792400008,-7.0536069819999625,0],[113.9471420750001,-7.0535950839999373,0],[113.94733791700003,-7.0533245759999659,0],[113.94743554200011,-7.0530755689999296,0],[113.94761003600001,-7.0529010759999551,0],[113.94779099200002,-7.0525400569999306,0],[113.94785091000006,-7.0523557139999298,0],[113.94790864100003,-7.0521781019999707,0],[113.94791024300002,-7.0521721469999648,0],[113.94796045300006,-7.0519855089999623,0],[113.94801871000004,-7.0517262769999434,0],[113.94806688400001,-7.0514320689999295,0],[113.94805635300008,-7.0510592809999366,0],[113.94806056300001,-7.0509758269999452,0],[113.94807729400009,-7.0508503039999368,0],[113.94810745300003,-7.0507104539999546,0],[113.94817926700011,-7.0505692389999695,0],[113.94829288000005,-7.0503114199999573,0],[113.94830379100006,-7.0502337059999718,0],[113.9483410680001,-7.0499681859999441,0],[113.94837903200005,-7.0496961299999725,0],[113.94838226200011,-7.0494986829999675,0],[113.94838243600009,-7.0494983769999635,0],[113.94846595900003,-7.0493517529999394,0],[113.9484768850001,-7.0492611359999273,0],[113.94846238500008,-7.0491727619999551,0],[113.94845203500006,-7.0487371139999482,0],[113.94843169300009,-7.0485692959999255,0],[113.94827404600005,-7.0483099399999674,0],[113.94816216600009,-7.0481116089999318,0],[113.94795875000011,-7.0478776799999423,0],[113.9478773830001,-7.0476488359999507,0],[113.94776041900002,-7.0474403339999299,0],[113.94760785700009,-7.0472013199999424,0],[113.94750614800012,-7.0469775619999382,0],[113.94744578600012,-7.0468077879999669,0],[113.94767968000008,-7.0465117359999567,0],[113.94798158700007,-7.0463230859999726,0],[113.9482282460001,-7.0461317479999366,0],[113.94928678800011,-7.0472053349999442,0],[113.94930265500011,-7.0472946529999376,0],[113.94938833600008,-7.0473807809999585,0],[113.94943276400011,-7.0473744019999458,0],[113.94943911100006,-7.0473297419999312,0],[113.94943911100006,-7.0472946529999376,0],[113.94923601400001,-7.0469692789999385,0],[113.948436861,-7.0459699219999266,0],[113.94789285800005,-7.0451200109999377,0],[113.94793922200006,-7.0451004339999486,0],[113.94785500800003,-7.0449869279999575,0],[113.9477964240001,-7.0449027139999316,0],[113.9478275460001,-7.0448898979999512,0],[113.94780374700008,-7.0448349759999473,0],[113.94770854800004,-7.044703161999962,0],[113.94762799500006,-7.0445859939999309,0],[113.94752364200008,-7.0444248879999805,0],[113.94744858100012,-7.0443058899999755,0],[113.94736253600001,-7.0441832289999411,0],[113.94732481000005,-7.0442039519999753,0],[113.94727970800011,-7.0442203959999574,0],[113.94723728100007,-7.0442358649999619,0],[113.94720187000007,-7.0442629439999678,0],[113.94714354600001,-7.0443129359999261,0],[113.94703939700003,-7.0443670939999379,0],[113.94697482400011,-7.0444483299999661,0],[113.94687275800004,-7.0444879069999615,0],[113.94682693300001,-7.0444983219999813,0],[113.94680818600011,-7.0444712429999754,0],[113.94679360500004,-7.0444316659999799,0],[113.94680402000006,-7.0443983379999509,0],[113.94696024400002,-7.044244196999955,0],[113.94708314000002,-7.0441379649999476,0],[113.94714788500005,-7.044067909999967,0],[113.94715636400008,-7.044058735999954,0],[113.9471684770001,-7.044047753999962,0],[113.94710440100005,-7.0439726929999438,0],[113.9469705460001,-7.0438490689999753,0],[113.94696892500008,-7.0438463719999618,0],[113.94693231000008,-7.0437713109999436,0],[113.94691949500009,-7.0437328649999813,0],[113.94684443500012,-7.0436687889999803,0],[113.94680507600003,-7.0436980839999705,0],[113.94678052600011,-7.043716356999937,0],[113.94675255400011,-7.0437413329999572,0],[113.94673253000008,-7.0438586149999765,0],[113.94678402000011,-7.0439244069999631,0],[113.94686983600002,-7.0439901999999393,0],[113.94691846500007,-7.0440474109999514,0],[113.94694135000009,-7.044110342999943,0],[113.94693562900011,-7.0441675539999551,0],[113.94691274400009,-7.0442133219999619,0],[113.94688413900008,-7.0442533699999785,0],[113.94683837000002,-7.0443077199999493,0],[113.94676971700005,-7.0443706519999409,0],[113.94671536700002,-7.0444106999999576,0],[113.94665529500003,-7.0444450259999485,0],[113.94658664200006,-7.0444536079999693,0],[113.9465437340001,-7.0444507479999743,0],[113.94646649900005,-7.0444450259999485,0],[113.94642645200008,-7.0443963969999572,0],[113.94639498600009,-7.0443391859999451,0],[113.94632347200002,-7.0442676729999789,0],[113.94626054000003,-7.0442247649999672,0],[113.94619188700005,-7.0441704139999501,0],[113.94613181600005,-7.0441189239999744,0],[113.94603741800006,-7.0440502709999464,0],[113.94595160100005,-7.0439959209999756,0],[113.94590297200011,-7.0439158259999317,0],[113.94588866900006,-7.0438300089999757,0],[113.9458772270001,-7.0437527749999731,0],[113.94593443800011,-7.0436440739999284,0],[113.94598306700004,-7.043526791999966,0],[113.94602025400002,-7.0434695809999539,0],[113.94613753700003,-7.0434381149999581,0],[113.94620905000011,-7.0434381149999581,0],[113.94628056400006,-7.0434609989999331,0],[113.94632633300012,-7.0435153499999501,0],[113.94640928900003,-7.0435868629999732,0],[113.94655231600007,-7.0437012849999405,0],[113.94661238700007,-7.0436240499999485,0],[113.94667790300002,-7.0435665239999707,0],[113.94667973000003,-7.0435642749999374,0],[113.94671250600004,-7.0435239309999815,0],[113.9464521970001,-7.0432950879999794,0],[113.94633777500007,-7.0431892469999298,0],[113.9461804450001,-7.0430404989999715,0],[113.9461498390001,-7.0430180539999583,0],[113.94613666100008,-7.0430066019999344,0],[113.9461132560001,-7.0430255549999288,0],[113.94610812700012,-7.043046191999963,0],[113.9459025860001,-7.0435450929999774,0],[113.94472843500012,-7.0426279839999779,0],[113.94375262000005,-7.0420059469999501,0],[113.94220559600001,-7.0411526379999714,0],[113.94035710000003,-7.0405784479999625,0],[113.93887354300011,-7.0399883099999556,0],[113.93756452300011,-7.0395018449999611,0],[113.9361999680001,-7.0389515799999458,0],[113.93592456800002,-7.038732136999954,0],[113.93489888100009,-7.0379148489999466,0],[113.93485524800008,-7.0378912499999728,0],[113.93466569900011,-7.0377887319999672,0],[113.93448589700006,-7.0376914859999715,0],[113.93406348400003,-7.0374630229999298,0],[113.93343912500006,-7.037125337999953,0],[113.93215390500006,-7.03686216899996,0],[113.93190003400002,-7.0367425469999603,0],[113.93074968300004,-7.0365272259999756,0],[113.92985320200012,-7.0361524069999746,0],[113.92840931300009,-7.0352512499999307,0],[113.92811257200003,-7.0351204199999415,0],[113.92787293200001,-7.0350147659999607,0],[113.92781717300011,-7.0349901829999339,0],[113.92756206200011,-7.0348777079999536,0],[113.92750489900004,-7.0348525069999255,0],[113.92694955700006,-7.0344697129999645,0],[113.92591820700011,-7.03322563699993,0],[113.92555326800004,-7.0330023419999748,0],[113.92507034300002,-7.0325804649999668,0],[113.92502699000011,-7.0325425929999597,0],[113.92488685800004,-7.032420176999949,0],[113.92427598200004,-7.0318459879999295,0],[113.92355339800008,-7.0311751509999567,0],[113.92326642400008,-7.0309087269999395,0],[113.92322411600003,-7.0308694489999652,0],[113.92303042900005,-7.0306896339999412,0],[113.92235792200006,-7.0303673479999702,0],[113.92234815200004,-7.0303626659999736,0],[113.92170554100005,-7.0299559479999516,0],[113.92093599600003,-7.0298761999999329,0],[113.92067649700004,-7.0298066379999682,0],[113.92057899100007,-7.0297805009999479,0],[113.92055620700012,-7.0297676169999477,0],[113.92045205500006,-7.0297087269999565,0],[113.92031425000005,-7.029594202999931,0],[113.92038070400008,-7.0291553499999395,0],[113.92058504000011,-7.0290571919999252,0],[113.92091581200009,-7.0289700289999359,0],[113.92162648100009,-7.0287390889999415,0],[113.92191836100005,-7.028345685999966,0],[113.92222293200007,-7.0275334959999327,0],[113.92228638400002,-7.026772067999957,0],[113.92266159900009,-7.0259924509999792,0],[113.92282023000007,-7.0257386419999648,0],[113.92297251500008,-7.0253388929999687,0],[113.92302962200006,-7.0250216319999481,0],[113.92299789600008,-7.0244569059999549,0],[113.92293444400002,-7.0238921809999511,0],[113.92243767500008,-7.0236371929999564,0],[113.92244883500007,-7.0236451289999309,0],[113.92191708700011,-7.0233860569999251,0],[113.92152685500002,-7.0231385929999419,0],[113.92118421200007,-7.0228530599999317,0],[113.92105096400007,-7.02270077299994,0],[113.92089867700008,-7.0225960759999566,0],[113.92067024900007,-7.0225484869999377,0],[113.9203561600001,-7.0226151119999258,0],[113.91993737500002,-7.0227769149999517,0],[113.91937582200001,-7.0233289489999606,0],[113.91892772900007,-7.0239123209999548,0],[113.91858459500008,-7.0243590439999366,0],[113.91845973000011,-7.0245091629999479,0],[113.91830982500005,-7.0246923809999657,0],[113.91817181500005,-7.0247994569999719,0],[113.91801715000008,-7.0248589439999591,0],[113.91768878400001,-7.0249398449999489,0],[113.91752460200007,-7.0249446059999627,0],[113.91731988900005,-7.0249018099999603,0],[113.91716768200001,-7.0247661449999441,0],[113.91701777700007,-7.024594823999962,0],[113.91696542800003,-7.0244377789999248,0],[113.91693449500008,-7.0242616989999647,0],[113.91694401200004,-7.0240546859999426,0],[113.91697732600005,-7.0238690879999695,0],[113.91702491500007,-7.0237215609999453,0],[113.91713912800003,-7.0235383429999274,0],[113.91730055300002,-7.0233154919999379,0],[113.91740800900004,-7.023167146999981,0],[113.9174746330001,-7.0230791069999441,0],[113.91751746200009,-7.0229553749999809,0],[113.91752222300011,-7.0228506789999301,0],[113.91746987400006,-7.0227459839999256,0],[113.91734852100001,-7.0226436659999649,0],[113.91712009300011,-7.0225484869999377,0],[113.91675841500012,-7.022481862999939,0],[113.91643480800008,-7.0225056589999326,0],[113.91593512200006,-7.0225484869999377,0],[113.91555202800009,-7.0226008369999704,0],[113.91540926100004,-7.0226341479999519,0],[113.91511896700001,-7.0227150499999311,0],[113.91480487800004,-7.0228173659999698,0],[113.9143645900001,-7.0229948599999261,0],[113.91408628000011,-7.0230886249999571,0],[113.91387688800012,-7.023152869999933,0],[113.91368891000002,-7.0231861849999291,0],[113.91342003200009,-7.0231861849999291,0],[113.91330819700011,-7.023167146999981,0],[113.9132177780001,-7.0231385929999419,0],[113.91312497800004,-7.0230624509999302,0],[113.91307025100002,-7.0229767899999729,0],[113.91304645600007,-7.0228720949999683,0],[113.91304407700011,-7.0226817369999708,0],[113.91308690700009,-7.0224033399999257,0],[113.91313449600011,-7.0222677109999267,0],[113.91319636200001,-7.0221439789999636,0],[113.91325585000004,-7.0220369029999574,0],[113.91337718500006,-7.0218788319999703,0],[113.91351521000001,-7.0216990189999251,0],[113.91357707700001,-7.0215610129999391,0],[113.91360800900009,-7.0214087249999579,0],[113.91361276800001,-7.0213159269999323,0],[113.91359611200005,-7.0212445419999767,0],[113.91355566100003,-7.0211755379999659,0],[113.91349855400006,-7.0211231899999689,0],[113.91340099700005,-7.0210922569999639,0],[113.91327726400004,-7.0210874979999289,0],[113.91316067000002,-7.0211136739999347,0],[113.91306311200003,-7.0211612609999747,0],[113.91288425500011,-7.021271957999943,0],[113.91260863400009,-7.021503905999964,0],[113.91253249200008,-7.0215705289999732,0],[113.91242541600002,-7.0216252569999256,0],[113.9123159610001,-7.0216585689999533,0],[113.9122041280001,-7.0216633279999314,0],[113.91209467200008,-7.021649052999976,0],[113.91190907300006,-7.0215681499999505,0],[113.91177115200003,-7.0214732619999722,0],[113.91127613700007,-7.0211327099999608,0],[113.91104434700003,-7.0209931059999349,0],[113.91085735200011,-7.0208804869999426,0],[113.91075027600004,-7.0207948239999496,0],[113.91065509700002,-7.0206877489999329,0],[113.91062892400009,-7.0206615739999734,0],[113.91060750800011,-7.0206235029999675,0],[113.91058847300008,-7.0205878109999276,0],[113.91057657500005,-7.0205330839999647,0],[113.91057181800011,-7.0204664589999766,0],[113.91057895500001,-7.0204117309999674,0],[113.91059323200011,-7.0203617619999363,0],[113.91064796000001,-7.0203141739999637,0],[113.9107193430001,-7.0202832399999693,0],[113.91082879800001,-7.0202594459999546,0],[113.91114050700003,-7.0202975169999604,0],[113.91133723400003,-7.0203344659999516,0],[113.91160926200007,-7.0203855569999405,0],[113.91173061500001,-7.0203926949999413,0],[113.91183769100007,-7.0203879359999632,0],[113.91194000700011,-7.0203665209999713,0],[113.91209943100012,-7.0203236909999305,0],[113.91244439800005,-7.0202048219999256,0],[113.91249428600008,-7.0201876339999671,0],[113.91266509400009,-7.0201337339999554,0],[113.91309444100011,-7.0199982549999618,0],[113.91312735800011,-7.0199810489999663,0],[113.91320112000005,-7.0199215619999791,0],[113.91330105800012,-7.0198168659999283,0],[113.91337244200008,-7.019726445999936,0],[113.9134057550001,-7.019645546999925,0],[113.91341051400002,-7.0195622639999442,0],[113.91329867900004,-7.019243415999938,0],[113.91319160300009,-7.0190744739999786,0],[113.91316791700001,-7.0190458539999554,0],[113.9131344970001,-7.0190054699999678,0],[113.91302980100011,-7.0189102909999406,0],[113.91289417000007,-7.0188555639999777,0],[113.91278947500007,-7.0188365279999516,0],[113.91267763900009,-7.0188460469999541,0],[113.91256104600006,-7.0188888759999486,0],[113.91242065800009,-7.0189602599999716,0],[113.9122945470001,-7.0190364029999728,0],[113.91212322500007,-7.0192053449999321,0],[113.91201048100004,-7.0193222649999711,0],[113.91193048900004,-7.0194052189999638,0],[113.91184958700001,-7.0194742229999747,0],[113.91179723900007,-7.0195099149999578,0],[113.91172347600002,-7.0195146739999359,0],[113.91164257500009,-7.019490879999978,0]]]},"properties":{"OBJECTID":4021,"NAMOBJ":"Kalianget","FCODE":"BA03070040","REMARK":null,"METADATA":"TASWIL1000020260612KECAMATAN_AR","SRS_ID":"4326","KDBBPS":null,"KDCBPS":null,"KDCPUM":"35.29.02","KDEBPS":null,"KDEPUM":null,"KDPBPS":null,"KDPKAB":"35.29","KDPPUM":"35","LUASWH":29.523165474669291,"TIPADM":3,"WADMKC":"Kalianget","WADMKD":null,"WADMKK":"Sumenep","WADMPR":"Jawa Timur","WIADKC":null,"WIADKK":null,"WIADPR":null,"WIADKD":null,"UUPP":null,"SHAPE_Length":0.40228759714136147,"SHAPE_Area":0.0024162790554788645}}]}