{"type":"FeatureCollection","features":[{"type":"Feature","id":3987,"geometry":{"type":"Polygon","coordinates":[[[112.85305235100009,-7.0260836729999596,0],[112.85246096500009,-7.0259415669999612,0],[112.85188102500001,-7.0256489479999686,0],[112.8513213980001,-7.025442087999977,0],[112.85052602500002,-7.0252345379999497,0],[112.85016516700011,-7.0250252809999552,0],[112.84977893700011,-7.0246797799999285,0],[112.84939315800011,-7.0244458289999443,0],[112.84833599500007,-7.0239666589999388,0],[112.84778891500002,-7.0237581229999364,0],[112.84703079400003,-7.023550418999946,0],[112.84619842100005,-7.023404975999938,0],[112.84586322900009,-7.0234062949999725,0],[112.84552576200008,-7.0234875499999703,0],[112.84509483300008,-7.0237439409999638,0],[112.84477033300004,-7.0241283399999475,0],[112.84365077000007,-7.0254806209999288,0],[112.84302367900011,-7.0269000729999789,0],[112.84280652000007,-7.0271294829999533,0],[112.84230627700003,-7.0274579809999409,0],[112.84218682300002,-7.0275781689999803,0],[112.84206774600011,-7.0277963149999323,0],[112.84198297100011,-7.0284170439999798,0],[112.8419991610001,-7.0288443289999805,0],[112.84191791700005,-7.0291489959999467,0],[112.84163238200006,-7.0295297079999273,0],[112.84123263200001,-7.0297581369999307,0],[112.84041409700001,-7.0300817439999719,0],[112.83986206200007,-7.0302340289999279,0],[112.83934809900006,-7.0303482429999349,0],[112.83904352700006,-7.0303482429999349,0],[112.83871992200011,-7.0304624569999419,0],[112.83847245700008,-7.0306337779999808,0],[112.83835824300002,-7.0308812439999429,0],[112.83828210000001,-7.0310525639999355,0],[112.83828210000001,-7.0312238849999744,0],[112.83820595600002,-7.0314713489999576,0],[112.83809174300006,-7.0317568859999255,0],[112.83801560100005,-7.0320995259999677,0],[112.8379013870001,-7.032366025999977,0],[112.83784428000001,-7.032727705999946,0],[112.83786331600004,-7.0329561319999812,0],[112.8379775300001,-7.0331464889999324,0],[112.83807270700004,-7.0333368459999406,0],[112.83822499300004,-7.0337365959999261,0],[112.83852956400005,-7.034193451999954,0],[112.83891027800007,-7.0344599539999422,0],[112.83921484900009,-7.0346122379999656,0],[112.83948134900004,-7.0347454869999524,0],[112.83976688500002,-7.0347835579999582,0],[112.84005241900002,-7.0348025939999275,0],[112.84064252700011,-7.0349168079999345,0],[112.84087095300004,-7.0350119869999617,0],[112.84108034600001,-7.0350690939999367,0],[112.84142299000007,-7.0351642719999745,0],[112.84170852400007,-7.0353165599999556,0],[112.84203416100002,-7.035505637999961,0],[112.84235900900001,-7.0358133869999619,0],[112.84262007500001,-7.0362594739999622,0],[112.84278750400006,-7.0368706469999438,0],[112.84283743900005,-7.0375764169999684,0],[112.84277315300005,-7.0384603209999455,0],[112.84263824400011,-7.0391181969999366,0],[112.84232607300009,-7.0394139409999639,0],[112.84178490700003,-7.0396749269999646,0],[112.8413990790001,-7.0397548969999661,0],[112.83956686900001,-7.0393062939999709,0],[112.83902526400004,-7.0392857289999711,0],[112.8382952290001,-7.0394768579999436,0],[112.8374012060001,-7.0399274869999431,0],[112.83672629900002,-7.0402832949999379,0],[112.83566057300004,-7.0408991389999755,0],[112.83437463900009,-7.0418653149999386,0],[112.83339355200008,-7.0423339819999455,0],[112.83262579400002,-7.0424877019999599,0],[112.8319833920001,-7.0425124979999509,0],[112.83100332700008,-7.0424470249999445,0],[112.83069303900004,-7.0425658709999652,0],[112.83017562100008,-7.0428738209999437,0],[112.82963573500001,-7.0434642429999599,0],[112.82951724300005,-7.0440370389999316,0],[112.82959339200011,-7.044688085999951,0],[112.82983568000009,-7.0463579329999675,0],[112.83007593900004,-7.0475100749999342,0],[112.83036765300005,-7.0486329009999622,0],[112.83096872600004,-7.0507442699999388,0],[112.83143396300011,-7.0518524889999412,0],[112.83153307500004,-7.0523755459999506,0],[112.83147666100001,-7.0528191049999691,0],[112.83130298300011,-7.0537694169999554,0],[112.83128245500006,-7.0545885629999248,0],[112.83142834000012,-7.0557175439999469,0],[112.83166956100001,-7.0567809989999546,0],[112.83208435500001,-7.0578850369999486,0],[112.83241661300008,-7.0588808219999351,0],[112.83252701400011,-7.0593371969999339,0],[112.83270906400003,-7.0605356009999696,0],[112.83161175400005,-7.0605999369999495,0],[112.8296807160001,-7.0609250349999684,0],[112.82856788200002,-7.0610704079999778,0],[112.8274658150001,-7.061216108999929,0],[112.82536805400002,-7.0613184469999624,0],[112.82291566300012,-7.0612515179999491,0],[112.82286754900008,-7.0612502059999542,0],[112.82035395800006,-7.0609178669999437,0],[112.81911585600005,-7.0609568009999748,0],[112.81782699200005,-7.0609129759999405,0],[112.81665878700005,-7.0610156299999289,0],[112.81586322600003,-7.0609727409999437,0],[112.81492141100011,-7.0608500989999357,0],[112.81396712100002,-7.0606034239999644,0],[112.81320400000004,-7.0602458309999747,0],[112.81268526500003,-7.0602289229999542,0],[112.81217243900005,-7.0604504809999753,0],[112.81169109300004,-7.0608437949999256,0],[112.81113002400002,-7.0613227889999735,0],[112.81078548100004,-7.0617417989999467,0],[112.81003922000002,-7.0625224759999696,0],[112.80964273600011,-7.0630732859999625,0],[112.81021795400011,-7.0631048189999319,0],[112.8112167380001,-7.0633204299999761,0],[112.81211429500001,-7.0636039669999491,0],[112.81253800500008,-7.0638218109999684,0],[112.81269187800001,-7.0642432979999512,0],[112.81279526800006,-7.0647325289999685,0],[112.81278072200007,-7.0653403959999537,0],[112.81256367000003,-7.0660672379999596,0],[112.81227836200003,-7.0666423909999594,0],[112.81202949800002,-7.0668154109999364,0],[112.8116147400001,-7.067339206999975,0],[112.811562976,-7.0677683289999322,0],[112.81165773200007,-7.0679786189999732,0],[112.81199825200008,-7.0681475289999298,0],[112.81252101700011,-7.0681441029999519,0],[112.8137208710001,-7.0678692919999548,0],[112.81471366400001,-7.0678316929999596,0],[112.81576372200004,-7.0679386489999274,0],[112.81811437900001,-7.0686172439999382,0],[112.81885034400011,-7.0689064209999515,0],[112.81871431800005,-7.0695196749999809,0],[112.81836533000001,-7.0704555959999311,0],[112.81832567200001,-7.0705983629999309,0],[112.81804806800005,-7.0706380209999793,0],[112.81791323200002,-7.0707331989999602,0],[112.81800841000006,-7.0708204459999706,0],[112.81803220500001,-7.0709790769999472,0],[112.81796082100004,-7.0714708319999318,0],[112.81784184700007,-7.0719863819999773,0],[112.81778632700002,-7.0723195069999747,0],[112.81777046500008,-7.0724860689999787,0],[112.81797668500008,-7.0725574529999449,0],[112.81831774000011,-7.0725812469999596,0],[112.81857948100003,-7.0725891789999764,0],[112.81881742700011,-7.0725336579999407,0],[112.81905537300008,-7.0725891789999764,0],[112.81926952600008,-7.0725733159999322,0],[112.81944401800001,-7.0726526309999258,0],[112.81952333400011,-7.0728191949999655,0],[112.81959471800008,-7.0730412789999377,0],[112.81969782900001,-7.0730650709999736,0],[112.8198088690001,-7.073080933999961,0],[112.8199357740001,-7.0730888659999778,0],[112.82007061000002,-7.073144387999946,0],[112.82018958200001,-7.0731047289999651,0],[112.82035614500001,-7.0731126599999357,0],[112.82037200800005,-7.0728985089999696,0],[112.82048305000001,-7.0727160849999677,0],[112.82083996900008,-7.0726446999999553,0],[112.82114136600001,-7.0727002209999341,0],[112.82134758600012,-7.0727795359999277,0],[112.82166484900006,-7.07267642599993,0],[112.82171243900007,-7.0724543429999471,0],[112.82209315200009,-7.0724146849999556,0],[112.82255318200009,-7.0724781369999619,0],[112.82293389500001,-7.0726288369999679,0],[112.82320748100005,-7.0725867489999814,0],[112.82336928300003,-7.0725106039999446,0],[112.82365482000012,-7.0725867489999814,0],[112.82380710500001,-7.0727580689999741,0],[112.82419574900007,-7.0729864959999418,0],[112.8245843950001,-7.0730737429999522,0],[112.82522684900005,-7.0732085789999815,0],[112.82571860500002,-7.0733196209999392,0],[112.82605966200003,-7.0734385949999705,0],[112.82656727900007,-7.0733910039999728,0],[112.82689247300004,-7.0733354849999728,0],[112.82725732300003,-7.0731689209999331,0],[112.82736015500006,-7.0730954699999415,0],[112.82759044700003,-7.0729309749999629,0],[112.82793090900009,-7.0729156139999532,0],[112.82852302900005,-7.0730015679999383,0],[112.8287540450001,-7.0730431189999763,0],[112.82876727400003,-7.0730454959999634,0],[112.82921715300006,-7.0731264079999505,0],[112.82962959200006,-7.073227931999952,0],[112.82977553400008,-7.0731644799999458,0],[112.82981360500003,-7.0729614319999428,0],[112.8298622100001,-7.0727298009999799,0],[112.8299278180001,-7.072599754999942,0],[112.82997858100009,-7.072415742999965,0],[112.83006741300005,-7.0722380759999623,0],[112.83011817500005,-7.0721238619999554,0],[112.83023238900012,-7.0721111739999287,0],[112.83032122100008,-7.0720223389999433,0],[112.83039736500007,-7.0719017789999725,0],[112.83056234000003,-7.0719461969999315,0],[112.83105092400001,-7.0721238619999554,0],[112.8310826500001,-7.0719779219999737,0],[112.83143798200001,-7.0720413749999693,0],[112.83148239900004,-7.0719588859999476,0],[112.83177195300004,-7.0720321739999576,0],[112.83197764400006,-7.0721505509999361,0],[112.83225651800001,-7.0723110459999248,0],[112.83219941100003,-7.0724442959999578,0],[112.83209471400005,-7.0726060999999731,0],[112.83191387500005,-7.0728535629999669,0],[112.83173303700005,-7.0729868129999431,0],[112.83207377500003,-7.0731467129999714,0],[112.83214040100006,-7.0732276149999507,0],[112.83214515800012,-7.0734655619999671,0],[112.83213714500005,-7.0735316759999591,0],[112.83210708700005,-7.0737796519999279,0],[112.83213564100004,-7.0738795869999649,0],[112.83236882800009,-7.0740651849999381,0],[112.83248304100005,-7.0739890429999264,0],[112.83254490900003,-7.0738510339999721,0],[112.83256394400007,-7.0736892299999568,0],[112.83243545300002,-7.0735654979999367,0],[112.83268291800005,-7.0732656859999565,0],[112.8328542380001,-7.0729515969999284,0],[112.83304308300001,-7.0726649459999749,0],[112.83361419700009,-7.0733969949999391,0],[112.83434436200002,-7.0743649119999645,0],[112.83467076600004,-7.0751031509999507,0],[112.83521934400005,-7.0761692829999561,0],[112.83569184900011,-7.0770699449999483,0],[112.83684976400002,-7.0786943529999462,0],[112.83710471100005,-7.0787185829999544,0],[112.83771724100006,-7.0788492149999342,0],[112.83809163500007,-7.0789457859999629,0],[112.83831307500009,-7.0790029059999711,0],[112.83873837500005,-7.0791231039999616,0],[112.83914089900009,-7.0793721239999741,0],[112.83937773800005,-7.0795386139999437,0],[112.8395848880001,-7.0796175489999769,0],[112.84031878300004,-7.0795842479999465,0],[112.84071624800004,-7.0795680379999339,0],[112.84102010000004,-7.0795839619999583,0],[112.84105704700005,-7.0795799719999764,0],[112.84115141800009,-7.0795340829999418,0],[112.84140317400011,-7.0793789219999326,0],[112.84184266800003,-7.0794035579999672,0],[112.84200426500001,-7.0794456389999709,0],[112.84210006900003,-7.0795216299999311,0],[112.84215266400008,-7.0797680279999327,0],[112.84217541600003,-7.0799074799999744,0],[112.84247918900007,-7.0801354939999328,0],[112.84272116600005,-7.0802366569999435,0],[112.84305599800007,-7.0802526259999468,0],[112.84318528900008,-7.0802231649999499,0],[112.84351837400004,-7.0801750359999573,0],[112.84416661000012,-7.0802232629999367,0],[112.84430404700004,-7.0802167429999372,0],[112.8444045550001,-7.0801369049999607,0],[112.84449773300003,-7.0801507299999571,0],[112.84504367900001,-7.0802449989999445,0],[112.84580962200005,-7.080683196999928,0],[112.84601835800004,-7.0807966239999587,0],[112.84666764200006,-7.0808397689999651,0],[112.8468284270001,-7.0807780299999763,0],[112.84693861800008,-7.0807776279999644,0],[112.84756991300003,-7.0811944309999717,0],[112.84766337500002,-7.0812321419999762,0],[112.84790905000011,-7.0811343689999262,0],[112.84830802200008,-7.0809813429999622,0],[112.84836257900008,-7.0809633879999296,0],[112.84902262200001,-7.0810177519999797,0],[112.84944291600004,-7.0814339429999791,0],[112.84982696800012,-7.0823061329999746,0],[112.84994720000009,-7.0838251499999387,0],[112.84991247500011,-7.0846610139999484,0],[112.85025833100008,-7.0854953649999288,0],[112.85028989500006,-7.0860249879999628,0],[112.84981545000005,-7.0866697319999616,0],[112.84987038600002,-7.087404041999946,0],[112.84925477000002,-7.0881341449999695,0],[112.84857244300008,-7.0887910109999552,0],[112.84802691900006,-7.0894767329999695,0],[112.84771712000008,-7.09005480299993,0],[112.84733744900007,-7.090546895999978,0],[112.84682693200011,-7.0912358599999266,0],[112.84641826900008,-7.0919186709999735,0],[112.84623901500004,-7.0924619979999761,0],[112.8462864280001,-7.0933307289999448,0],[112.84636181200005,-7.0943113869999479,0],[112.84623294300002,-7.0948681319999309,0],[112.84621683700004,-7.0950867529999755,0],[112.84614130700004,-7.0952460169999654,0],[112.84566829100004,-7.0955617409999263,0],[112.84551833100011,-7.0956434929999546,0],[112.84509852200006,-7.0956719169999474,0],[112.84478732600007,-7.0957243359999325,0],[112.84449461100007,-7.0962021769999524,0],[112.84439889300006,-7.0964267559999712,0],[112.84393631100011,-7.0974539649999429,0],[112.8438391200001,-7.0976996169999325,0],[112.84378409500005,-7.0978670649999458,0],[112.84377997200011,-7.0978730319999386,0],[112.84375759200009,-7.0979054689999543,0],[112.84370856400005,-7.0982335749999379,0],[112.84369044500011,-7.0983561849999433,0],[112.84359454300011,-7.0987345959999288,0],[112.84351017000006,-7.0988713909999319,0],[112.84314693800002,-7.0990370519999715,0],[112.84311590800007,-7.0990497049999703,0],[112.84310006900012,-7.1003368699999783,0],[112.84301982700003,-7.1010951709999404,0],[112.84294270800001,-7.1018239209999479,0],[112.84302390500011,-7.1021736519999763,0],[112.84300037900005,-7.102668643999948,0],[112.84370391000004,-7.1043942669999751,0],[112.84365887200011,-7.1046079719999398,0],[112.84364164100009,-7.1046477789999471,0],[112.84360484700005,-7.1048633709999649,0],[112.8434953950001,-7.1055046859999607,0],[112.84357909400001,-7.1055393049999793,0],[112.84386163500005,-7.1056561719999536,0],[112.84439688900011,-7.1062618459999385,0],[112.8451979570001,-7.1067145049999567,0],[112.84645574100011,-7.1071653509999351,0],[112.8478654590001,-7.1075396039999532,0],[112.84954144000005,-7.1078748069999733,0],[112.8507223470001,-7.1081360069999278,0],[112.85135812500005,-7.1082147309999755,0],[112.85146822700005,-7.1083509849999587,0],[112.85157775300002,-7.1084382919999598,0],[112.85162792200003,-7.1084061399999428,0],[112.8517667430001,-7.1083408869999403,0],[112.85189949200003,-7.1083596859999716,0],[112.85226212000009,-7.1084110559999658,0],[112.85244596700011,-7.1084693789999278,0],[112.85257156900002,-7.1086385469999414,0],[112.8529641990001,-7.10916737499997,0],[112.85336243100005,-7.1105726899999695,0],[112.85426562100008,-7.1118007559999796,0],[112.85441539300007,-7.111893016999943,0],[112.85441850500001,-7.111980740999968,0],[112.8544253120001,-7.112289837999981,0],[112.85443902700001,-7.1124254449999285,0],[112.8546443030001,-7.1127034489999801,0],[112.85486829000001,-7.1129093889999808,0],[112.85538218300007,-7.1137479719999419,0],[112.85702038600004,-7.1145804349999366,0],[112.85763088700003,-7.1139062919999674,0],[112.85772922400008,-7.113947469999971,0],[112.85817893100011,-7.1139407449999794,0],[112.85837963000006,-7.1139550019999547,0],[112.85860656600005,-7.1140023809999775,0],[112.85878972400008,-7.1141381509999633,0],[112.85906896300003,-7.1142586259999803,0],[112.85920627100006,-7.1143123769999761,0],[112.86000785600004,-7.1146261529999606,0],[112.85933769700011,-7.1156818279999356,0],[112.85865422600011,-7.1158343609999406,0],[112.8577999470001,-7.1157537319999733,0],[112.85767430600004,-7.116140823999956,0],[112.85748120700009,-7.1167357209999409,0],[112.8577040670001,-7.1170476529999291,0],[112.85736683100004,-7.1185196539999538,0],[112.85681827900009,-7.1190468089999399,0],[112.85671072900004,-7.1193008949999808,0],[112.85715366500006,-7.119980992999956,0],[112.85786079400009,-7.1192659149999713,0],[112.85829113300008,-7.118844337999974,0],[112.85856293300003,-7.1185822629999507,0],[112.858880537,-7.1183994289999646,0],[112.85923216300012,-7.1181937639999546,0],[112.85985686600009,-7.1180437349999579,0],[112.86048161600002,-7.1179050519999691,0],[112.86101586700011,-7.117880209999953,0],[112.86184603300001,-7.1179336149999699,0],[112.86286904700012,-7.1181076549999602,0],[112.86403516500002,-7.1174813219999464,0],[112.86534868500007,-7.1165021859999342,0],[112.86561010500009,-7.116452823999964,0],[112.8658003270001,-7.1163113479999538,0],[112.86586496200005,-7.1162639479999257,0],[112.86594284200009,-7.1162068269999281,0],[112.86642919600001,-7.1149669499999391,0],[112.86649977000002,-7.1148888129999364,0],[112.86704313600001,-7.114950667999949,0],[112.86775298700002,-7.1150314719999415,0],[112.86897482800009,-7.1150653279999574,0],[112.86916319200009,-7.1148124159999497,0],[112.86940404900008,-7.1143585969999776,0],[112.86959175400011,-7.1138102119999758,0],[112.86969582300003,-7.1134517319999304,0],[112.86997810700007,-7.1128081769999767,0],[112.87015628900008,-7.1125125769999613,0],[112.87032438400001,-7.1123328749999359,0],[112.87048239700005,-7.112269046999927,0],[112.87066173000005,-7.1122577879999653,0],[112.87093619700011,-7.1122882709999544,0],[112.87115803400002,-7.1123505619999605,0],[112.87256362400001,-7.1129030409999814,0],[112.87341981900011,-7.1132787009999561,0],[112.87415469400003,-7.1135578319999695,0],[112.87451252500011,-7.1136510089999661,0],[112.87499963700009,-7.113816260999954,0],[112.87547914600009,-7.1141392609999343,0],[112.87572572800002,-7.1144378219999567,0],[112.87591766800006,-7.1147093739999718,0],[112.87613699100007,-7.1150080469999466,0],[112.87627385300004,-7.1151436619999799,0],[112.87646524900003,-7.1152790459999551,0],[112.87672725200002,-7.115402200999938,0],[112.87703267000006,-7.1154740629999651,0],[112.87721588800002,-7.1155098649999786,0],[112.8774846880001,-7.1155818629999317,0],[112.87772912500009,-7.1156661469999563,0],[112.87804663800011,-7.1157135839999341,0],[112.87838876900003,-7.1158096479999813,0],[112.87869422900008,-7.1158936839999569,0],[112.87902415200006,-7.1159897989999763,0],[112.87912213200002,-7.1160746689999428,0],[112.87930569600007,-7.1161957449999704,0],[112.87942823900005,-7.1163170689999333,0],[112.87952637700005,-7.1164384909999399,0],[112.87967356900003,-7.1166206149999311,0],[112.87980856800004,-7.1168027969999343,0],[112.87998022900001,-7.1169970109999667,0],[112.88013958200008,-7.1171669059999658,0],[112.88029893300006,-7.1173368099999266,0],[112.88044583700002,-7.1174458499999673,0],[112.88060499200003,-7.1175670219999461,0],[112.88080071600007,-7.1176758579999273,0],[112.88093506300004,-7.1176996799999301,0],[112.88114025600009,-7.1177195679999272,0],[112.88234626600001,-7.1176632919999747,0],[112.88245828400011,-7.1181646109999406,0],[112.88221718200009,-7.1185993959999792,0],[112.88249952100011,-7.1195849449999287,0],[112.8827836690001,-7.1194940999999403,0],[112.88318312000001,-7.1195772899999383,0],[112.88359602600008,-7.11967354199993,0],[112.88398629300002,-7.1197645269999725,0],[112.88420031700002,-7.1198144189999653,0],[112.88465486400003,-7.1199335109999424,0],[112.88501930000007,-7.120042969999929,0],[112.88506245300005,-7.1201018069999691,0],[112.88507480100009,-7.1202130069999612,0],[112.88534408500004,-7.1200809259999573,0],[112.88550216300007,-7.1200033909999547,0],[112.88569867300009,-7.1198985799999264,0],[112.88601371900006,-7.1197397479999722,0],[112.88632876100007,-7.1195809179999401,0],[112.88659888600012,-7.1194672839999384,0],[112.88680109600011,-7.119286403999979,0],[112.88702575900004,-7.119082920999972,0],[112.88722777500004,-7.1188570279999794,0],[112.88733969700002,-7.1186540139999579,0],[112.88743162300011,-7.1183688349999557,0],[112.88762328600001,-7.118101185999933,0],[112.8877650070001,-7.1179032559999769,0],[112.88793448200011,-7.1176665939999566,0],[112.88812345300005,-7.1174026959999424,0],[112.8882285630001,-7.1172559019999539,0],[112.88844898800005,-7.1169480739999358,0],[112.88866904200006,-7.1167005179999592,0],[112.88891616000001,-7.1164744379999547,0],[112.88902834900011,-7.1163389409999809,0],[112.88920790700001,-7.1161356519999686,0],[112.8894100230001,-7.1159322609999549,0],[112.88961194300009,-7.1156838649999372,0],[112.88981378000005,-7.1154129549999539,0],[112.89015072000007,-7.1150964859999704,0],[112.89035265200005,-7.1148480889999632,0],[112.89055475600003,-7.1146446969999602,0],[112.8907794160001,-7.114441223999961,0],[112.89093688900005,-7.114350548999937,0],[112.89120691800008,-7.1142144059999737,0],[112.89140958200005,-7.1141460619999748,0],[112.8916800720001,-7.1141224529999363,0],[112.89190583600009,-7.114189046999968,0],[112.89215433300001,-7.1143005669999297,0],[112.8923127270001,-7.1144349579999471,0],[112.8925675370001,-7.1148176919999742,0],[112.89281964800011,-7.1153100159999667,0],[112.89297211900009,-7.1156526849999295,0],[112.89304181200009,-7.1159975259999442,0],[112.89305830400008,-7.1160791259999314,0],[112.8932521160001,-7.116398869999955,0],[112.89342218200011,-7.1165718159999756,0],[112.89343509900004,-7.1165849559999401,0],[112.89356154500001,-7.1167175299999599,0],[112.89366977800012,-7.1167896779999751,0],[112.89380371400011,-7.116804138999953,0],[112.8938219370001,-7.1167937569999253,0],[112.89402409200011,-7.1166785609999579,0],[112.89434698600007,-7.1164116009999248,0],[112.89461947400002,-7.1162860359999627,0],[112.89489374800007,-7.1163528849999693,0],[112.89508037400003,-7.1164190589999521,0],[112.89522305700007,-7.1163968519999798,0],[112.89541141900008,-7.1163675259999764,0],[112.89567189900004,-7.1163420319999773,0],[112.89579700200011,-7.1163129209999738,0],[112.89604700900009,-7.1161416189999613,0],[112.8966381570001,-7.1161275769999293,0],[112.89691860700009,-7.1160984029999668,0],[112.89715172000001,-7.1160164819999636,0],[112.89721073800001,-7.1159804559999316,0],[112.8974114880001,-7.1158579039999381,0],[112.89744802600001,-7.1158244739999645,0],[112.89749961100006,-7.1157917059999249,0],[112.89787613700003,-7.1155246169999486,0],[112.89811920800003,-7.1154077769999731,0],[112.89834345200006,-7.1153509839999742,0],[112.89860970900008,-7.1153527129999361,0],[112.89864227400005,-7.1153527219999546,0],[112.89904048100004,-7.1153528529999335,0],[112.89952519100007,-7.1153156509999462,0],[112.90013890500006,-7.1151043359999449,0],[112.9005333340001,-7.1149783929999444,0],[112.90070407900009,-7.1149399179999477,0],[112.90098167000008,-7.1148106399999733,0],[112.90142758000002,-7.1146445949999588,0],[112.90171504200009,-7.1145647309999731,0],[112.90213111200001,-7.114526638999962,0],[112.90257221400009,-7.1145693809999671,0],[112.90265986600002,-7.1145802429999776,0],[112.90310035000005,-7.1144644499999572,0],[112.90323995300002,-7.1144638779999809,0],[112.90332210700001,-7.1144717379999634,0],[112.90343720500005,-7.1145040479999579,0],[112.90352777300006,-7.1145610509999528,0],[112.90363500100011,-7.1146753669999612,0],[112.90370934100008,-7.1147816209999633,0],[112.90378433300009,-7.1150436019999574,0],[112.90385093800001,-7.1152646339999706,0],[112.90390929600005,-7.1154775019999761,0],[112.90395924800009,-7.115641228999948,0],[112.90401730500002,-7.1157803289999606,0],[112.90408363900008,-7.1159357979999527,0],[112.90413352100006,-7.1160831239999425,0],[112.90418323400002,-7.1161894799999459,0],[112.90426589600008,-7.1163202869999509,0],[112.90437328500002,-7.1164755759999707,0],[112.90448885900003,-7.116622642999971,0],[112.90460426600009,-7.1167287179999335,0],[112.90476060000003,-7.1168018499999448,0],[112.90496606500005,-7.1168419839999615,0],[112.90515494100009,-7.1168412069999363,0],[112.90538470400008,-7.1167992769999273,0],[112.9055814510001,-7.1167165019999743,0],[112.90579461700008,-7.1166336579999552,0],[112.90594202200009,-7.1165346929999487,0],[112.90612180900007,-7.1163208379999787,0],[112.90625244900002,-7.1161399759999426,0],[112.9063830660001,-7.1159509159999743,0],[112.90652189100001,-7.1157618289999505,0],[112.9066935620001,-7.115572598999961,0],[112.90682447000006,-7.1154573099999538,0],[112.90696343000002,-7.115300996999963,0],[112.90712583100003,-7.1149886369999535,0],[112.90714310600004,-7.1148933019999276,0],[112.90713940000001,-7.1146516689999544,0],[112.90701503100001,-7.1139328939999587,0],[112.9069088120001,-7.1135067759999515,0],[112.90694224200001,-7.1131896869999309,0],[112.90711716400006,-7.11219201199998,0],[112.90723951700011,-7.1116899289999651,0],[112.90740467900002,-7.1114527089999342,0],[112.90769281000007,-7.1110031859999481,0],[112.90773613500005,-7.1103821869999706,0],[112.90781691000007,-7.1096351669999649,0],[112.90792525000006,-7.1094462319999252,0],[112.90826928400008,-7.1089918319999583,0],[112.90879468500009,-7.1083254239999292,0],[112.9089647830001,-7.1082335709999711,0],[112.90913497000008,-7.1081660209999313,0],[112.90932344700002,-7.1081044799999518,0],[112.90950588400005,-7.108055113999967,0],[112.90970658400011,-7.1080056739999691,0],[112.90990729200007,-7.1079562339999711,0],[112.91010809300008,-7.1079310949999694,0],[112.91024811800003,-7.1079305169999429,0],[112.91036990500004,-7.1079360909999423,0],[112.91058922100001,-7.1079716489999782,0],[112.91069893200006,-7.1080015839999646,0],[112.9108147280001,-7.1080314859999589,0],[112.91099153300001,-7.1080915279999317,0],[112.91109515500011,-7.1081214789999763,0],[112.91125377100002,-7.1081998249999288,0],[112.91136979200007,-7.1082844229999296,0],[112.91154695000012,-7.1084295339999812,0],[112.91170595900007,-7.1086051029999453,0],[112.91177979600002,-7.1087931769999386,0],[112.9118113400001,-7.1090604259999282,0],[112.91181848800011,-7.1093156239999757,0],[112.91178948200002,-7.1095265189999282,0],[112.91176777400005,-7.1097291609999616,0],[112.9117461510001,-7.1099543169999606,0],[112.91172453500008,-7.1101794729999597,0],[112.9117028280001,-7.1103821159999256,0],[112.91165856600003,-7.1105848549999564,0],[112.91159203600012,-7.1108552119999331,0],[112.91150305400004,-7.1111481629999389,0],[112.91139152500011,-7.1114412079999738,0],[112.91127980400006,-7.111689240999965,0],[112.91119063500003,-7.1119371769999589,0],[112.91109677100008,-7.1121416939999449,0],[112.91102684100008,-7.1123450779999757,0],[112.91097448900007,-7.112521911999977,0],[112.91093979200002,-7.1126898289999758,0],[112.91091387800009,-7.1128400539999461,0],[112.91092356100012,-7.1130431199999293,0],[112.91095104700003,-7.1132725999999593,0],[112.91100482400009,-7.1134401539999317,0],[112.9111027240001,-7.1135810449999326,0],[112.91122691400005,-7.1136600009999711,0],[112.91143057900001,-7.1137033159999419,0],[112.91174917400008,-7.1137284909999607,0],[112.91202343500004,-7.1137273589999381,0],[112.91221792100009,-7.113691231999951,0],[112.91243887900009,-7.113637338999979,0],[112.91250960900004,-7.1136282139999594,0],[112.91263347200004,-7.1136277029999633,0],[112.91279297100004,-7.1136888569999428,0],[112.91295251300005,-7.1137588439999604,0],[112.91314743700002,-7.1138286849999304,0],[112.91328898300003,-7.1138280999999779,0],[112.91345696800011,-7.1138009159999456,0],[112.91366015800008,-7.113729429999978,0],[112.91380137600004,-7.1136493669999368,0],[112.91390710500002,-7.1135429689999796,0],[112.91399509200005,-7.113427804999958,0],[112.91403882100008,-7.1133039979999353,0],[112.91407377100006,-7.1131978909999702,0],[112.91405530800012,-7.1130125169999587,0],[112.91403648000005,-7.1127388529999394,0],[112.91400003100011,-7.1124829169999657,0],[112.91396387300006,-7.1122976269999754,0],[112.91393605600001,-7.1119886739999743,0],[112.91392618000009,-7.1117414619999408,0],[112.91393433600001,-7.1115736459999539,0],[112.91393349300006,-7.111370552999972,0],[112.91395915600003,-7.1111585159999322,0],[112.91401998400011,-7.1108933459999548,0],[112.91406327300001,-7.110663570999975,0],[112.91409782100004,-7.1104603309999561,0],[112.91410141800009,-7.1101950979999629,0],[112.91406621900001,-7.1101486559999785,0],[112.91402477800011,-7.1100032399999691,0],[112.91400068900009,-7.1098228089999793,0],[112.91398817900006,-7.1096190429999524,0],[112.91397586000005,-7.109461850999935,0],[112.91396961300006,-7.1093628769999668,0],[112.91396188500005,-7.1092911069999332,0],[112.91395330300008,-7.1091770729999553,0],[112.9139424220001,-7.1090324619999592,0],[112.91393553700004,-7.1089410199999747,0],[112.91391882400001,-7.1087189529999364,0],[112.91390990600007,-7.1086004609999804,0],[112.91385918200001,-7.1085128579999264,0],[112.91381932500008,-7.1084606199999598,0],[112.91377465200003,-7.1084020929999383,0],[112.91371245000005,-7.1083205919999273,0],[112.91366297100001,-7.1082557449999513,0],[112.91360209100003,-7.108175972999959,0],[112.91364869800009,-7.1080436029999419,0],[112.91367774500009,-7.1079610919999254,0],[112.91371089900008,-7.1078669199999354,0],[112.91376870600004,-7.1077027309999607,0],[112.91381975900003,-7.1075577109999699,0],[112.91388460700011,-7.1073735329999295,0],[112.9139315540001,-7.1072401809999519,0],[112.91400873000009,-7.1070209879999311,0],[112.9140717140001,-7.1068479739999475,0],[112.9141510390001,-7.1066386079999688,0],[112.91414039100005,-7.1064693689999672,0],[112.91416888600008,-7.1063388359999635,0],[112.9141974800001,-7.106230026999981,0],[112.91425489000005,-7.1060703869999315,0],[112.91429778400004,-7.1059108099999548,0],[112.91434784300009,-7.1057294649999676,0],[112.91438323800003,-7.1055119579999655,0],[112.91441152400012,-7.105330692999928,0],[112.91442514000005,-7.105113274999951,0],[112.91444586700004,-7.1048595959999261,0],[112.91445951500009,-7.1046494199999302,0],[112.91444832100001,-7.1044728029999646,0],[112.91409379400011,-7.1034852899999805,0],[112.91427793600008,-7.1031794699999296,0],[112.91437778500006,-7.1029519649999315,0],[112.91439178000007,-7.1028061479999565,0],[112.91440566400001,-7.1026311829999713,0],[112.91429827000002,-7.1022424779999369,0],[112.91429406900011,-7.1022353149999731,0],[112.91429137600005,-7.1022299279999288,0],[112.9140366690001,-7.1018255999999269,0],[112.91347183500011,-7.101210880999929,0],[112.91340461700008,-7.1010251499999413,0],[112.91340186900004,-7.1010175599999457,0],[112.91338518500004,-7.1008547179999368,0],[112.91343273700011,-7.1008372899999586,0],[112.91369491900002,-7.1007028899999796,0],[112.91365181300011,-7.1005809679999743,0],[112.91353150100008,-7.1004738739999311,0],[112.91324128700001,-7.1002419499999405,0],[112.91307830400001,-7.1000128909999489,0],[112.91301960600003,-7.0997733479999283,0],[112.91303581400007,-7.0994990839999446,0],[112.91310083100007,-7.0992003899999645,0],[112.91314844600004,-7.0991326759999538,0],[112.91356508000001,-7.0985452189999592,0],[112.91361470000004,-7.0980117209999776,0],[112.91364156500003,-7.0977228409999498,0],[112.91362437800001,-7.0976491829999304,0],[112.91341478200002,-7.0974610899999675,0],[112.91339706500003,-7.0972953419999385,0],[112.91340830500008,-7.0970560979999391,0],[112.9134874670001,-7.0968054979999806,0],[112.91365307000001,-7.0963392309999449,0],[112.91381898500003,-7.0958720759999778,0],[112.91381110600003,-7.0954724409999699,0],[112.91375975900007,-7.0949941509999803,0],[112.9136399570001,-7.0944358189999548,0],[112.91348576100006,-7.0939043189999325,0],[112.91310187600004,-7.09298301299998,0],[112.91287102900003,-7.0924128169999676,0],[112.91268464100006,-7.0916149649999625,0],[112.91249951400005,-7.0913832389999811,0],[112.91201714200008,-7.0908769649999499,0],[112.91197926300003,-7.0906874409999432,0],[112.91185923900002,-7.0897100039999259,0],[112.9117412920001,-7.0894268549999424,0],[112.91163141800007,-7.0891067409999664,0],[112.91146227200011,-7.0886812699999382,0],[112.91119210600004,-7.0881855699999505,0],[112.91112909300011,-7.0878799149999736,0],[112.91106276800008,-7.0876837089999754,0],[112.9107047650001,-7.0873786379999615,0],[112.91013731400005,-7.0870318589999783,0],[112.90968847300007,-7.0866503549999607,0],[112.90927892700006,-7.0862723869999513,0],[112.90909421400011,-7.0861775259999717,0],[112.90879761800011,-7.0861074659999304,0],[112.90853990700009,-7.0860163979999697,0],[112.90819376700006,-7.0857980209999596,0],[112.908132765,-7.085735634999935,0],[112.90775887000007,-7.0853617139999301,0],[112.90767084400011,-7.085251828999958,0],[112.90765653900007,-7.0851360899999349,0],[112.90760604500008,-7.0848741609999593,0],[112.90751429500006,-7.0847779519999676,0],[112.90706862900004,-7.0845076269999367,0],[112.90690430900008,-7.0844900919999532,0],[112.90653992900002,-7.084451190999971,0],[112.90644364400009,-7.0843494409999721,0],[112.90642996500003,-7.0843039749999548,0],[112.90636453100001,-7.0842337779999411,0],[112.9061831680001,-7.083982510999931,0],[112.90601614000002,-7.0837095869999303,0],[112.90576940700009,-7.0833505839999589,0],[112.90555174000008,-7.0830418659999737,0],[112.90537008100011,-7.0827185879999774,0],[112.90522483500001,-7.0824815739999281,0],[112.90507965400002,-7.0822589629999584,0],[112.90487569800007,-7.0819536059999564,0],[112.90475699600006,-7.081780225999978,0],[112.90462848700008,-7.0816258069999662,0],[112.90452561400002,-7.0814590029999636,0],[112.90443187500011,-7.0813241339999422,0],[112.90432854100004,-7.0811923229999252,0],[112.90416435300006,-7.0809911059999422,0],[112.90398087000005,-7.0807874409999272,0],[112.90379464000011,-7.0805893149999406,0],[112.9036663280001,-7.0804719549999504,0],[112.90218868700003,-7.0801028509999355,0],[112.90243627400002,-7.0791939439999396,0],[112.90178561800008,-7.0785814849999724,0],[112.90182118500002,-7.0784135009999432,0],[112.9020013920001,-7.077426672999934,0],[112.90248569800008,-7.0763512589999777,0],[112.9025384900001,-7.0760421799999449,0],[112.90258868000001,-7.0757338549999531,0],[112.90262223400009,-7.0755539829999634,0],[112.90262951800003,-7.0752372699999455,0],[112.90259448000006,-7.0750576759999717,0],[112.90254212800005,-7.074835362999977,0],[112.90249869500008,-7.074698595999962,0],[112.90236927900003,-7.0745022739999399,0],[112.90218855800003,-7.0743403909999643,0],[112.90169536200005,-7.0739981109999803,0],[112.90111895300004,-7.074095568999951,0],[112.90060434800012,-7.0742101619999289,0],[112.90054535800004,-7.0742191069999762,0],[112.90052519200003,-7.0738953659999311,0],[112.90082117600002,-7.0720681469999249,0],[112.90096034800001,-7.0712532419999548,0],[112.90101452900001,-7.0709360029999289,0],[112.90054619400007,-7.0707107119999364,0],[112.90026562800006,-7.0706998229999272,0],[112.90004763500008,-7.0706955349999703,0],[112.89980868000009,-7.0706447019999814,0],[112.89970471700008,-7.0705908889999591,0],[112.89955857200005,-7.0703473489999737,0],[112.89945526600002,-7.0701947219999397,0],[112.89951400700011,-7.0696864389999519,0],[112.89955870500012,-7.0693651609999506,0],[112.89952672700008,-7.0692006449999667,0],[112.89940824100006,-7.0690587229999551,0],[112.89936149900007,-7.0688354159999562,0],[112.89918011800012,-7.0685885739999321,0],[112.8989537330001,-7.068364436999957,0],[112.89872753100008,-7.0681852969999568,0],[112.89847860500004,-7.0679612509999288,0],[112.89825194600007,-7.0676695869999548,0],[112.89802519400007,-7.0673554089999584,0],[112.89788863800004,-7.0670408749999751,0],[112.89781503300003,-7.0664871899999753,0],[112.8978482330001,-7.0662571499999558,0],[112.89774435400011,-7.0656692519999638,0],[112.89754186200003,-7.065224556999965,0],[112.8974730330001,-7.0650577839999755,0],[112.89759532500011,-7.0641985819999604,0],[112.89765691900004,-7.064018376999968,0],[112.898277613,-7.0634207219999325,0],[112.89829569900007,-7.063409002999947,0],[112.89815798400002,-7.0633130929999766,0],[112.89803958500011,-7.0631857979999495,0],[112.8978490180001,-7.0630907939999474,0],[112.89766032400007,-7.0630778899999314,0],[112.8974034690001,-7.063077939999971,0],[112.89715850000005,-7.0630175209999493,0],[112.8969613160001,-7.0628890359999446,0],[112.89687814900003,-7.0628348469999764,0],[112.89622978900002,-7.0625691179999421,0],[112.89581667600009,-7.0624707869999384,0],[112.89541495700007,-7.0624439569999709,0],[112.89469612700009,-7.0625054189999332,0],[112.89442373000009,-7.0625244009999619,0],[112.89399200000003,-7.062457396999946,0],[112.89371295800004,-7.062368686999946,0],[112.89365550900004,-7.0623380299999781,0],[112.89343029300005,-7.0620421129999613,0],[112.89279298300005,-7.0614856699999677,0],[112.89248009400001,-7.061337200999958,0],[112.89184440500003,-7.0611728989999278,0],[112.89130125300005,-7.0611246269999697,0],[112.89128151400007,-7.0611263679999752,0],[112.89068511200003,-7.0605503369999383,0],[112.89047255500009,-7.0602487699999301,0],[112.89048210100009,-7.0601852899999358,0],[112.89091455100004,-7.0599531079999451,0],[112.89104270300004,-7.0598891359999811,0],[112.89120617200001,-7.059529720999933,0],[112.89136708100011,-7.059321764999936,0],[112.89139380600011,-7.0593016939999416,0],[112.89154044100007,-7.0591915659999813,0],[112.89211902000011,-7.0588812689999259,0],[112.89240436800003,-7.0587899719999427,0],[112.89315524300002,-7.0588288039999725,0],[112.89445138000008,-7.0586975549999806,0],[112.89475636800012,-7.0586375149999299,0],[112.89502830200001,-7.0584787139999321,0],[112.89513459900002,-7.0584129419999613,0],[112.89530930500007,-7.0584365609999509,0],[112.89533428700008,-7.0584528239999713,0],[112.89557047000005,-7.0586065309999526,0],[112.89560101000006,-7.0586264149999352,0],[112.89577007500009,-7.0587415179999766,0],[112.89604549900002,-7.0587820059999444,0],[112.89668728800007,-7.059062780999966,0],[112.89695529100004,-7.059166151999932,0],[112.89717277500006,-7.0591815949999273,0],[112.89731126700008,-7.059130004999929,0],[112.89748359900011,-7.0589702709999642,0],[112.89766320800004,-7.0588061769999513,0],[112.89781820900009,-7.0587396729999341,0],[112.89837525400003,-7.058991381999931,0],[112.89853173600011,-7.0590601249999736,0],[112.89868375200001,-7.0590605029999551,0],[112.89877396600002,-7.0590207139999279,0],[112.89916971200012,-7.0583008069999664,0],[112.89936555500003,-7.0580302689999712,0],[112.89965880200009,-7.0578033289999667,0],[112.89977414100008,-7.057638155999939,0],[112.89979425700005,-7.0574025649999612,0],[112.89970706000008,-7.056952219999971,0],[112.89965174000008,-7.0566664779999542,0],[112.89961174300004,-7.0561817829999427,0],[112.89971252100008,-7.0556728209999733,0],[112.89971730100001,-7.0556619879999403,0],[112.89992088100007,-7.0552003789999276,0],[112.9001927810001,-7.0546749269999509,0],[112.90020537700002,-7.0546505729999467,0],[112.90028153700007,-7.0544610499999294,0],[112.90022135400011,-7.0542853099999547,0],[112.90016344100002,-7.0541161899999452,0],[112.90015101300003,-7.0540799129999527,0],[112.90010897600007,-7.0539465909999421,0],[112.90012671600005,-7.0536280929999293,0],[112.90007061000006,-7.0534693629999765,0],[112.90002595300007,-7.0531925869999554,0],[112.90004408900006,-7.0527668859999721,0],[112.90006237800003,-7.0525575829999525,0],[112.90022337000005,-7.0519612089999555,0],[112.90031832800003,-7.0515474919999406,0],[112.90031248800005,-7.051435779999963,0],[112.90035841700001,-7.0513539039999387,0],[112.90049925700009,-7.0511553759999401,0],[112.90060628100002,-7.0510022279999589,0],[112.90073587300003,-7.0508263669999565,0],[112.900848526,-7.0506618849999541,0],[112.90095545700001,-7.0504861069999265,0],[112.90105099000004,-7.0502934169999776,0],[112.90112947900002,-7.0500894809999295,0],[112.90117985300003,-7.0499365629999602,0],[112.9012027120001,-7.0498365209999747,0],[112.90121931200008,-7.0497284479999394,0],[112.90136337200011,-7.0493989659999556,0],[112.90202014300007,-7.0477734179999629,0],[112.90212162100011,-7.0474118579999754,0],[112.90216077300011,-7.0472022079999306,0],[112.90211745800002,-7.0470197459999326,0],[112.90197432700006,-7.0464538959999459,0],[112.90201416000002,-7.0461662909999632,0],[112.90204668500007,-7.0459313709999378,0],[112.90226616900009,-7.0457293499999309,0],[112.90291747500009,-7.045039160999977,0],[112.90306916200007,-7.0447072529999559,0],[112.90319580000005,-7.0442540579999786,0],[112.90323659500007,-7.0442442999999457,0],[112.90323984700001,-7.0442435179999734,0],[112.90369644000009,-7.0441021009999645,0],[112.90409152200004,-7.0438950689999729,0],[112.90419216900011,-7.0437191269999744,0],[112.90424524900004,-7.0432408359999386,0],[112.90437912700008,-7.0426588959999776,0],[112.90457234000007,-7.0421779119999428,0],[112.90466876900007,-7.0417865379999398,0],[112.90464882200001,-7.0416558569999665,0],[112.90466567200008,-7.0415731449999726,0],[112.90470597400008,-7.0413170639999407,0],[112.90478715400002,-7.0409452359999705,0],[112.90486846800002,-7.0406064259999539,0],[112.90494984800011,-7.0402841329999433,0],[112.9050231010001,-7.0399948899999458,0],[112.90507154200009,-7.0397057579999682,0],[112.90510360600001,-7.0394579569999678,0],[112.90511916300011,-7.039218486999971,0],[112.90511992500001,-7.039063700999975,0],[112.90469422300009,-7.0389689379999254,0],[112.90443300900006,-7.0389121029999728,0],[112.90423804900001,-7.0388670519999437,0],[112.90402579600004,-7.0387846809999814,0],[112.90393082800006,-7.0387420599999473,0],[112.90380436900011,-7.0386735539999563,0],[112.90361766800004,-7.0385851599999683,0],[112.90323441500004,-7.0383341029999542,0],[112.90290776000006,-7.0381214559999421,0],[112.90254676500001,-7.0379003949999515,0],[112.90217714000005,-7.0376622469999575,0],[112.90184189900003,-7.0374496439999348,0],[112.90142912800002,-7.0371431999999459,0],[112.90106775100003,-7.0368279859999348,0],[112.90072363600007,-7.0365383789999782,0],[112.90046545700011,-7.0362997869999617,0],[112.90016430500009,-7.036035677999962,0],[112.89986316600005,-7.0357715729999768,0],[112.89962244900005,-7.0356099359999575,0],[112.89948475300002,-7.0354821099999754,0],[112.89929187200005,-7.0353554889999259,0],[112.89884347300006,-7.0350726999999438,0],[112.89862515000004,-7.0349679779999406,0],[112.8984796310001,-7.034896038999932,0],[112.89836586500007,-7.0348308919999454,0],[112.89827404200003,-7.0347914899999751,0],[112.89816966000001,-7.0347391889999358,0],[112.89797667800008,-7.0346443509999403,0],[112.89777686600007,-7.0345844129999477,0],[112.89762824200011,-7.0345060689999741,0],[112.89739082500012,-7.0344010879999814,0],[112.89712762400006,-7.0343180359999451,0],[112.89694398600011,-7.0342392189999714,0],[112.89669374300001,-7.0341404359999729,0],[112.89632942900005,-7.0339987549999705,0],[112.89622194500009,-7.0339400549999596,0],[112.8957626560001,-7.0336786809999694,0],[112.89547828000002,-7.033499633999952,0],[112.89511627900004,-7.0332522589999371,0],[112.89473763300009,-7.0331422439999756,0],[112.89444446000005,-7.0329117509999719,0],[112.89421144800008,-7.0326810149999801,0],[112.89396960500005,-7.0323902469999666,0],[112.89375354400011,-7.0320993819999558,0],[112.89348655700007,-7.0318005309999307,0],[112.89338552600009,-7.0317355429999679,0],[112.89309832900005,-7.0316129219999652,0],[112.89279750000003,-7.0316141379999522,0],[112.89255475800007,-7.0316513019999434,0],[112.89216844200007,-7.0317828839999379,0],[112.89161522000006,-7.0319587459999298,0],[112.89119150500005,-7.0321299319999753,0],[112.89084531100002,-7.0322301859999357,0],[112.89051136100011,-7.0323460849999719,0],[112.89013905400009,-7.0325013789999389,0],[112.88980714800005,-7.0326368879999563,0],[112.88945396300005,-7.0327583629999708,0],[112.88908721600001,-7.032874230999937,0],[112.88882519700007,-7.0329515579999793,0],[112.888575317,-7.0330518929999357,0],[112.88847615000009,-7.0330855659999543,0],[112.88822364200007,-7.0331553579999309,0],[112.88800637200006,-7.0332097129999624,0],[112.88784327400003,-7.0332732889999647,0],[112.8876479490001,-7.0333417129999702,0],[112.88730892700005,-7.0334517009999331,0],[112.88706532300012,-7.0335693319999564,0],[112.88681475800001,-7.0337154879999275,0],[112.88642450900011,-7.0338854079999464,0],[112.88605725400009,-7.0340552419999653,0],[112.88557492900009,-7.0342025769999736,0],[112.885090332,-7.0343286899999384,0],[112.8847861480001,-7.0343894159999536,0],[112.88439549600002,-7.0344598559999554,0],[112.88404350700011,-7.0345023749999314,0],[112.88375185900009,-7.0345236619999696,0],[112.8834721720001,-7.0345402319999266,0],[112.88323068600005,-7.0345410669999637,0],[112.882982889,-7.0345167929999661,0],[112.88278281700002,-7.0344759269999599,0],[112.88255405100006,-7.0344378729999448,0],[112.88232239800004,-7.0343774939999548,0],[112.8820465550001,-7.03428790199996,0],[112.88178972700007,-7.0342049239999369,0],[112.88158083100006,-7.0341098559999296,0],[112.88127044000009,-7.0339847989999384,0],[112.88097087500012,-7.0338651189999268,0],[112.88063423400001,-7.0336963009999636,0],[112.88043510200009,-7.0335854579999477,0],[112.8802830620001,-7.0334983529999704,0],[112.8801509540001,-7.0334034879999763,0],[112.87983458100007,-7.0331999129999758,0],[112.87954736100005,-7.0329655599999796,0],[112.87925863100008,-7.0327425069999663,0],[112.87912967300008,-7.0326230559999772,0],[112.8790037330001,-7.032516376999979,0],[112.87879786100007,-7.0323649239999781,0],[112.8786349830001,-7.0322314699999424,0],[112.87857207100001,-7.0321733619999804,0],[112.87845878300004,-7.0320732129999328,0],[112.87837379700011,-7.0319988989999729,0],[112.87823851900009,-7.0318761829999517,0],[112.8781254380001,-7.0317601419999392,0],[112.87806261900005,-7.0316956679999407,0],[112.87792131100002,-7.0315474239999389,0],[112.8778615440001,-7.0314925329999483,0],[112.87775775200009,-7.0313957029999301,0],[112.87741706600002,-7.0311557009999319,0],[112.87733178000008,-7.0311036499999773,0],[112.87703626500002,-7.030932365999945,0],[112.87630928200008,-7.0305834559999312,0],[112.87585950800008,-7.0304462239999452,0],[112.87504454200007,-7.0300736779999511,0],[112.87499919400011,-7.0300331109999661,0],[112.87479917000007,-7.0298478969999678,0],[112.87464371900001,-7.0296188089999418,0],[112.87446098900011,-7.0291672719999383,0],[112.87427723000008,-7.0288266369999519,0],[112.87390223400007,-7.0280481519999398,0],[112.8736212660001,-7.0274460519999593,0],[112.87325493000003,-7.0277780819999407,0],[112.87292461000004,-7.0280041229999597,0],[112.87264279400006,-7.0280378349999637,0],[112.87271684600012,-7.0279262659999517,0],[112.87279225400005,-7.027724682999974,0],[112.87279442500005,-7.0275479599999358,0],[112.87269218200004,-7.0273357369999303,0],[112.87249335900003,-7.0270971009999812,0],[112.87248243500005,-7.027085599999964,0],[112.87142108700004,-7.0259676229999286,0],[112.87111803800008,-7.025694729999941,0],[112.87090862200012,-7.0254072769999425,0],[112.87082574300007,-7.0252935159999765,0],[112.87020794600005,-7.0246317579999413,0],[112.86971396100012,-7.0247253359999604,0],[112.86932654700001,-7.0248926679999499,0],[112.86912132400005,-7.0248658029999547,0],[112.86894830200004,-7.0247699949999287,0],[112.86740386000008,-7.0237453829999481,0],[112.86721594800008,-7.0237438069999598,0],[112.8671211730001,-7.0238573999999403,0],[112.86671120300002,-7.0238558839999428,0],[112.86568770500003,-7.0237665099999731,0],[112.86381197000003,-7.0243061669999634,0],[112.8628622980001,-7.0245270229999619,0],[112.86182565400009,-7.0247482129999526,0],[112.86119134900002,-7.0248618599999304,0],[112.85954836000008,-7.0251835329999608,0],[112.85911454400002,-7.0252509119999331,0],[112.85806363300003,-7.0253202869999427,0],[112.8573654270001,-7.0253497689999449,0],[112.85655029500003,-7.0254580499999406,0],[112.85466702200006,-7.0258124679999696,0],[112.85393069100007,-7.0259894789999748,0],[112.85357660400007,-7.0261420319999388,0],[112.85305235100009,-7.0260836729999596,0]]]},"properties":{"OBJECTID":3987,"NAMOBJ":"Tanah Merah","FCODE":"BA03070040","REMARK":null,"METADATA":"TASWIL1000020260612KECAMATAN_AR","SRS_ID":"4326","KDBBPS":null,"KDCBPS":null,"KDCPUM":"35.26.13","KDEBPS":null,"KDEPUM":null,"KDPBPS":null,"KDPKAB":"35.26","KDPPUM":"35","LUASWH":71.738400749510035,"TIPADM":3,"WADMKC":"Tanah Merah","WADMKD":null,"WADMKK":"Bangkalan","WADMPR":"Jawa Timur","WIADKC":null,"WIADKK":null,"WIADPR":null,"WIADKD":null,"UUPP":null,"SHAPE_Length":0.44974141198330858,"SHAPE_Area":0.0058715750177014414}}]}