{"type":"FeatureCollection","features":[{"type":"Feature","id":5524,"geometry":{"type":"Polygon","coordinates":[[[124.8516567260001,1.4821348500000227,0],[124.8516925240001,1.4821981880000408,0],[124.85174540900005,1.4822686110000518,0],[124.85180182600004,1.4823267140000667,0],[124.85186177300011,1.4823884530000555,0],[124.85192769200012,1.4824651230000541,0],[124.85201052700006,1.4825732690000564,0],[124.85201294600006,1.4825764270000263,0],[124.85204422200002,1.4826172610000299,0],[124.85213578200012,1.4827368000000547,0],[124.85224103100006,1.4828863190000448,0],[124.8524860660001,1.4831972190000329,0],[124.85261800100011,1.4833233450000307,0],[124.85278644700008,1.4834135820000256,0],[124.85278776700011,1.4834142890000521,0],[124.85280006300002,1.4834222650000584,0],[124.85300447700001,1.4835548620000623,0],[124.85304523900004,1.4835813030000509,0],[124.85304541800008,1.4835823570000457,0],[124.85318311000003,1.4836891090000677,0],[124.85320578000005,1.4837171730000591,0],[124.85329324400004,1.4838254500000403,0],[124.85330858100008,1.4838600080000219,0],[124.85335108300001,1.4839557750000267,0],[124.85336163900001,1.484013965000031,0],[124.85335907000001,1.4840572950000706,0],[124.85334749800006,1.4841249920000337,0],[124.85333054300008,1.4841752420000489,0],[124.85328449500003,1.484258268000076,0],[124.85321423100004,1.4843417310000291,0],[124.85306961900005,1.4844700780000721,0],[124.85306920100004,1.4844703050000589,0],[124.85296979300006,1.4845243660000733,0],[124.85293097600004,1.4845512980000422,0],[124.8529305290001,1.4845517260000634,0],[124.85286949800002,1.4846103110000399,0],[124.85277323100001,1.4847194120000609,0],[124.85277197300002,1.4847203600000398,0],[124.85269651400006,1.4847773010000651,0],[124.85269640900003,1.4847774170000321,0],[124.85264323800004,1.484835950000047,0],[124.85264206800002,1.4848368040000537,0],[124.85256651300006,1.4848919970000338,0],[124.85256621500002,1.484892283000022,0],[124.85242302000006,1.4850297540000383,0],[124.85239328300008,1.4850593630000617,0],[124.85200964600006,1.4854413510000199,0],[124.85200772600001,1.4854432620000466,0],[124.85195341000008,1.4855121800000575,0],[124.85187187400004,1.4856444000000693,0],[124.85183965400006,1.4857428830000572,0],[124.85181300900001,1.4858039250000274,0],[124.85173896200001,1.4859074900000451,0],[124.85165540900005,1.486125874000038,0],[124.85165295700006,1.4861833190000198,0],[124.85165280800004,1.4861926380000341,0],[124.85164806900002,1.4864889260000496,0],[124.85164804600004,1.4864903820000563,0],[124.85164672200005,1.4865731310000569,0],[124.85164669300002,1.4865749500000334,0],[124.85165849900011,1.4866589450000447,0],[124.85164213500002,1.4868080140000757,0],[124.85163327600003,1.4868588250000698,0],[124.85162874700006,1.4868848060000346,0],[124.85159222000004,1.4870296440000743,0],[124.85157934600011,1.4870681200000604,0],[124.8514757050001,1.4873778790000642,0],[124.85145311000008,1.4875246990000619,0],[124.85140299400007,1.4876280380000253,0],[124.85139094100009,1.4876675910000472,0],[124.85130333500001,1.4880878610000536,0],[124.85127420200001,1.4882729680000466,0],[124.85127390000002,1.4882734820000678,0],[124.85110381400011,1.4885627610000256,0],[124.85091291300012,1.4888375610000253,0],[124.85090091800009,1.4888468400000647,0],[124.85089422400006,1.4888370600000371,0],[124.85089068900004,1.4888318950000325,0],[124.85075070800008,1.4886273930000584,0],[124.85059255800002,1.4884073990000388,0],[124.85049574200002,1.4882178840000506,0],[124.85030622900001,1.4878469190000487,0],[124.85016924400009,1.4875769530000298,0],[124.85014993300001,1.4875388970000358,0],[124.85009740800001,1.4874353840000367,0],[124.85009073200001,1.4874222280000708,0],[124.85003647800011,1.4873522740000453,0],[124.85003640600007,1.4873521800000731,0],[124.85003753400008,1.4873514160000241,0],[124.84997450500009,1.4872637510000573,0],[124.84970536300011,1.4867040910000355,0],[124.84965819200011,1.4866060040000662,0],[124.84950669300008,1.486290972000063,0],[124.84948271100006,1.4862411030000544,0],[124.84943429700002,1.4861486290000698,0],[124.84920076600008,1.4856584340000722,0],[124.84917829500012,1.4856229350000376,0],[124.84915485800002,1.4854773370000203,0],[124.84914998700003,1.4854671830000257,0],[124.84913999300011,1.4854463510000642,0],[124.84903594700006,1.4852294710000251,0],[124.84901024100009,1.4852041650000274,0],[124.84894003900001,1.485135059000072,0],[124.8486790930001,1.4850891120000256,0],[124.84791680800004,1.485001526000076,0],[124.84789514800002,1.4849883000000546,0],[124.8478928400001,1.4849868900000729,0],[124.84801230800008,1.484030500000074,0],[124.84802694000007,1.4838488440000219,0],[124.84802744400008,1.4838415840000607,0],[124.84804197300002,1.4836325300000226,0],[124.84804205900002,1.4836312940000198,0],[124.84804480900004,1.4835106790000623,0],[124.84806452500004,1.4834353820000388,0],[124.84806065700002,1.4834264140000641,0],[124.84805900400011,1.4834225830000491,0],[124.84802494600001,1.4833911800000692,0],[124.84799576300009,1.4833747320000725,0],[124.84794159400008,1.4833550920000675,0],[124.84779990300001,1.4833037210000271,0],[124.84774131000006,1.4832824780000351,0],[124.84768689100008,1.4832627480000724,0],[124.84767803600005,1.4832595380000271,0],[124.84764484800007,1.4832513980000499,0],[124.84762297300006,1.4832460330000572,0],[124.84761098900003,1.483244485000057,0],[124.84733631800009,1.4832089950000409,0],[124.84732894400008,1.4832059240000603,0],[124.84730681100007,1.4831967080000368,0],[124.84730303800006,1.4831951370000525,0],[124.84715807800001,1.4827723470000365,0],[124.84712855800001,1.4827017770000452,0],[124.84711615000003,1.4826553570000556,0],[124.84705710700007,1.4824344780000729,0],[124.84697827100001,1.4822407860000339,0],[124.84695032200011,1.4821721180000509,0],[124.84694051300005,1.4821480180000322,0],[124.84693402100004,1.4821320690000448,0],[124.84693231900008,1.4821322740000369,0],[124.84688593500005,1.4821378460000574,0],[124.84688092800002,1.4821384480000575,0],[124.84678411700008,1.4821532660000685,0],[124.84675393100008,1.482157887000028,0],[124.84647874400002,1.482200007000074,0],[124.84645565000005,1.4822035420000361,0],[124.84645181300004,1.4822041300000706,0],[124.84641884000007,1.4822091760000262,0],[124.84641844900011,1.4822081420000472,0],[124.84640363200003,1.4821689720000677,0],[124.8463759550001,1.4820958070000643,0],[124.84636314700003,1.4820659270000647,0],[124.8463273640001,1.4819824430000494,0],[124.84631814200009,1.4819393080000509,0],[124.84630588500011,1.4818819760000679,0],[124.84629453200012,1.4818213170000263,0],[124.84629299100004,1.4818130820000306,0],[124.84627530600005,1.4817637730000683,0],[124.84626725600003,1.4817413290000445,0],[124.84626650000007,1.4817374200000586,0],[124.84625497700006,1.4816777630000502,0],[124.84625006600004,1.4816523420000749,0],[124.8462141440001,1.4815375610000387,0],[124.84619469800009,1.4815369930000202,0],[124.84616454700006,1.4815361120000716,0],[124.8461170700001,1.4815347240000278,0],[124.84611427200002,1.4813969400000246,0],[124.84619526400002,1.4813429170000632,0],[124.84628811100004,1.4812809870000478,0],[124.84631036700011,1.4812661410000487,0],[124.84632593800006,1.4812582240000438,0],[124.8463499830001,1.4812460000000556,0],[124.84636089600008,1.4812404510000761,0],[124.8463986590001,1.4812212520000685,0],[124.84645189500009,1.4811941860000388,0],[124.84650587300007,1.4811662140000408,0],[124.84653489400011,1.4811511630000496,0],[124.84657888800007,1.4811283460000482,0],[124.84663523600011,1.4810961720000364,0],[124.84667749900007,1.4810720400000719,0],[124.84669432200008,1.4810567050000714,0],[124.84671815500008,1.4810349780000251,0],[124.84678308800005,1.4809738090000337,0],[124.84674087400003,1.4809602820000691,0],[124.8465683930001,1.4809050090000255,0],[124.84643854300009,1.4808697320000306,0],[124.84632539200004,1.480842745000075,0],[124.84622831600007,1.4808257440000716,0],[124.84619755300002,1.480823823000037,0],[124.84610458900011,1.4808180180000363,0],[124.84610854700009,1.4807711770000651,0],[124.84611030300005,1.480750401000023,0],[124.84611042500001,1.4807489610000744,0],[124.84610920300008,1.480748462000065,0],[124.84608189100004,1.4807373180000241,0],[124.84592808100001,1.4807009550000316,0],[124.84583647400007,1.4806628030000297,0],[124.84574939200002,1.4806203070000379,0],[124.84563476100004,1.4805519190000496,0],[124.84556954200002,1.4805215970000631,0],[124.84548435700003,1.4806933920000347,0],[124.84547951200011,1.4807031620000544,0],[124.84547037200002,1.4807016270000304,0],[124.84544686700008,1.480697679000059,0],[124.84522701000003,1.4806568950000383,0],[124.84517353700005,1.4806439760000671,0],[124.84515424400001,1.4806393150000758,0],[124.84507352600008,1.4807721680000441,0],[124.84502722000002,1.4808344110000462,0],[124.84497852100003,1.4808775170000672,0],[124.8449567990001,1.480898436000075,0],[124.84491429800005,1.4809393660000296,0],[124.84497086200008,1.4810322440000618,0],[124.84499203900009,1.4810702990000664,0],[124.84500857900002,1.4811000210000316,0],[124.84501091900006,1.4811042270000598,0],[124.84492407100004,1.4811527010000418,0],[124.84487253000009,1.4811680270000238,0],[124.84478788500007,1.4811880250000513,0],[124.84478470500005,1.4811887770000567,0],[124.84460673100011,1.4811876590000566,0],[124.84455086700007,1.4811912940000411,0],[124.84450333900008,1.4812116700000502,0],[124.84441089000006,1.4812955520000628,0],[124.84433704300011,1.4813510060000681,0],[124.84427567600005,1.4813736450000761,0],[124.84415796000008,1.4814094560000513,0],[124.84412153100004,1.4814265630000705,0],[124.8440258920001,1.4814688510000451,0],[124.84400169800006,1.481479547000049,0],[124.84403096500012,1.4814455590000648,0],[124.84403184000007,1.481444543000066,0],[124.84403247000012,1.4814438120000659,0],[124.84409690400003,1.4814147100000241,0],[124.84409711700005,1.481414614000073,0],[124.84415469400005,1.481366079000054,0],[124.84416880300012,1.4813521730000616,0],[124.84418374300003,1.481333917000029,0],[124.84419991800007,1.4813094980000301,0],[124.84420936000004,1.4812905060000503,0],[124.84422132800012,1.4812578640000424,0],[124.84422646400003,1.481236043000024,0],[124.84422963300005,1.4812134000000583,0],[124.84423000800007,1.4811424320000697,0],[124.84423516900006,1.4810099050000645,0],[124.84428976200002,1.4809640320000312,0],[124.84429047200001,1.4809634360000246,0],[124.84429173700005,1.4809623730000681,0],[124.84430816000008,1.4809632570000417,0],[124.84432655300009,1.4809618060000389,0],[124.84434043100009,1.4809585280000306,0],[124.84435572900009,1.4809518000000708,0],[124.8444141010001,1.48090611300006,0],[124.84441545400011,1.4809050540000612,0],[124.84441867300006,1.4809019950000675,0],[124.8444641860001,1.4808587490000491,0],[124.84446974600007,1.4808534670000313,0],[124.8444978010001,1.48082213400005,0],[124.84450250900011,1.4808157570000731,0],[124.84451697300005,1.4807961670000509,0],[124.84455739600003,1.4807414180000364,0],[124.84456901400006,1.4807256840000491,0],[124.84458281700006,1.4806977570000299,0],[124.84460754300005,1.4806334850000553,0],[124.84460817700005,1.4806318370000326,0],[124.84463813400009,1.4805715880000321,0],[124.84464616300011,1.4805593090000571,0],[124.84465901500005,1.4805459910000422,0],[124.84465928800012,1.4805457090000687,0],[124.84467968500007,1.4805310770000233,0],[124.84468948100005,1.4805249140000569,0],[124.8447844640001,1.4804651450000392,0],[124.84479895900006,1.4804536640000379,0],[124.84488261700005,1.4803874050000445,0],[124.84488396600011,1.4803863400000523,0],[124.84504801900005,1.4802323460000366,0],[124.84508017200005,1.4801951230000441,0],[124.84508038700005,1.4801948740000626,0],[124.84512589600001,1.48016255400006,0],[124.84512728800007,1.4801615660000493,0],[124.84510020400012,1.480111556000054,0],[124.84508413600008,1.4800871390000339,0],[124.84505637700011,1.4800479270000437,0],[124.84502379200001,1.4800100070000326,0],[124.84517388900008,1.4798342670000579,0],[124.84519780700009,1.4798104140000419,0],[124.84526214200002,1.4797552690000657,0],[124.84526284600008,1.4797546670000656,0],[124.84538429800011,1.4796643820000668,0],[124.8454655700001,1.4796262740000543,0],[124.84556134900004,1.4795946120000281,0],[124.84566117000008,1.4795648610000285,0],[124.8456934940001,1.4795557430000486,0],[124.84571963600001,1.4795451940000248,0],[124.84576673200002,1.47952465700007,0],[124.84582703300009,1.4794776360000697,0],[124.84587248800005,1.4794311140000218,0],[124.84588926600009,1.4794139420000647,0],[124.84599598800003,1.4793005570000446,0],[124.84599901200011,1.479297344000031,0],[124.84602749300007,1.4792606020000676,0],[124.84606032600004,1.4792131950000567,0],[124.84606134100011,1.4792117300000314,0],[124.84606209000003,1.4792110470000353,0],[124.8461395170001,1.4791403650000348,0],[124.84614427200006,1.4791360240000699,0],[124.84614490300009,1.4791354490000685,0],[124.84617833700008,1.4791131520000249,0],[124.84617863100004,1.4791129560000513,0],[124.84617977900007,1.4791121900000235,0],[124.84620040700008,1.4790828940000438,0],[124.84622141600005,1.4790577410000196,0],[124.84630330900006,1.4789447070000392,0],[124.84632867800008,1.4789041780000503,0],[124.84648071800007,1.4785581920000368,0],[124.84649024300006,1.4785297850000347,0],[124.84649951800009,1.478486900000064,0],[124.84651284200004,1.4784631740000691,0],[124.84651346700002,1.4784620600000267,0],[124.84650690900003,1.4784438860000364,0],[124.84650111800011,1.4784121320000736,0],[124.84649835200003,1.4783969580000758,0],[124.84649588100001,1.4783834050000451,0],[124.84649895100006,1.4783723260000556,0],[124.84650014300007,1.47836802300003,0],[124.84650375700005,1.4783549800000628,0],[124.8465020540001,1.4783176620000518,0],[124.84648271200001,1.4781861220000678,0],[124.84641097800011,1.4776982750000229,0],[124.84640543900002,1.4776502760000199,0],[124.84640023700001,1.4773937760000422,0],[124.84640022400004,1.4773931230000699,0],[124.84649446800006,1.4773644540000532,0],[124.84656732600001,1.4773422910000704,0],[124.84652742900005,1.4769946330000607,0],[124.8465579970001,1.4767044950000354,0],[124.84671642500007,1.4766932900000711,0],[124.84714241500001,1.4766778780000323,0],[124.84803229000011,1.476645683000072,0],[124.84796492200007,1.4760706310000273,0],[124.84821493800007,1.4760551370000599,0],[124.84834095600002,1.4760473270000602,0],[124.84851867100008,1.4760363130000655,0],[124.84864154500008,1.4757751700000199,0],[124.84882130500011,1.4756386120000684,0],[124.8488776800001,1.4755957850000527,0],[124.84904109800004,1.4754869010000675,0],[124.8490583790001,1.4754753880000635,0],[124.84915492500011,1.4754990930000531,0],[124.84915612400005,1.4754993880000598,0],[124.84916175900003,1.4754503950000526,0],[124.84916360800003,1.4754343220000692,0],[124.84919478300003,1.4753140760000747,0],[124.84919818800006,1.4753006220000202,0],[124.84921767000003,1.4752236560000256,0],[124.84923125800003,1.475169979000043,0],[124.84923685300009,1.475147871000047,0],[124.84932532900007,1.4751620100000196,0],[124.84934793200011,1.4751656230000663,0],[124.84957160500005,1.4752068370000302,0],[124.84957376900002,1.4751984350000384,0],[124.84961307800006,1.4750458010000216,0],[124.84965382600001,1.4748787560000665,0],[124.84968779300004,1.4746404270000539,0],[124.8496969360001,1.4745762710000463,0],[124.84970751800006,1.474502019000056,0],[124.84970866200001,1.4744939950000457,0],[124.84974050300002,1.4741376140000284,0],[124.8497406350001,1.4741361420000203,0],[124.84976853800003,1.4741195800000355,0],[124.84986995800011,1.474059382000064,0],[124.84993558200006,1.4740145270000653,0],[124.84998210200001,1.4739827280000668,0],[124.85008725800003,1.473926352000035,0],[124.85028245800004,1.4738217010000199,0],[124.85058664700011,1.4736970360000328,0],[124.85059799900012,1.4735693970000625,0],[124.8503568320001,1.4733506290000378,0],[124.85032108000007,1.4730939030000627,0],[124.85026520200006,1.4730225800000198,0],[124.8502219930001,1.4729674270000714,0],[124.85006400700001,1.4727657730000487,0],[124.85005361000003,1.4727507360000232,0],[124.84995911100009,1.4726140560000545,0],[124.84985106200008,1.4724886100000276,0],[124.84979721600007,1.4723189980000484,0],[124.84970763500007,1.472136517000024,0],[124.84966098300004,1.4719080980000285,0],[124.85057433400004,1.4719070960000522,0],[124.85106705700002,1.4718428310000604,0],[124.85142554100003,1.4717960740000535,0],[124.85168202700004,1.471762621000039,0],[124.85218590500006,1.4716353970000569,0],[124.85232615300004,1.4716337760000329,0],[124.85232751400008,1.471633761000021,0],[124.8523374240001,1.4716200680000497,0],[124.85242910600005,1.4716202700000736,0],[124.85285240300004,1.4716212020000512,0],[124.85286905600003,1.4712822670000492,0],[124.85291382000003,1.4712854950000747,0],[124.85305269800006,1.4712434030000736,0],[124.8531049930001,1.4711642540000298,0],[124.85314419600002,1.4710886950000486,0],[124.85329174600008,1.4708043160000557,0],[124.85328070900005,1.470696781000072,0],[124.85326602000009,1.4705536660000575,0],[124.85333582100009,1.4703446750000353,0],[124.85340932000008,1.4701625420000255,0],[124.85343321300002,1.4701033340000436,0],[124.85343876700006,1.4700843000000532,0],[124.85350769700005,1.4698480500000528,0],[124.85360474400011,1.4696698680000395,0],[124.85366102600005,1.46951264300003,0],[124.85371510200002,1.4693859480000242,0],[124.85374222900009,1.4692974240000467,0],[124.85379852000005,1.4691137240000671,0],[124.85382642800005,1.4688919170000645,0],[124.85384764700007,1.468617871000049,0],[124.8538576090001,1.4683938770000395,0],[124.85395154600008,1.4681722600000739,0],[124.85399762900011,1.4679753840000558,0],[124.85400318800009,1.4679516340000305,0],[124.85401268400005,1.4679379370000447,0],[124.85406435800007,1.4678634040000702,0],[124.8541418850001,1.467751584000041,0],[124.85443484900009,1.4676855420000265,0],[124.85463532900008,1.4674197290000279,0],[124.85463477700011,1.467374426000049,0],[124.85463468000012,1.4673664990000361,0],[124.85463326900003,1.4672506700000554,0],[124.8546328970001,1.4672201740000332,0],[124.85463063400005,1.4670344820000309,0],[124.85459098500007,1.4669299210000304,0],[124.85451736000005,1.4667357570000377,0],[124.85442954000007,1.4665041610000458,0],[124.85433835300012,1.4664041580000458,0],[124.8542645440001,1.4663232100000414,0],[124.85422309700004,1.4662229040000625,0],[124.85421103100009,1.4661857610000197,0],[124.85412529000007,1.465921829000024,0],[124.85409315400011,1.465890426000044,0],[124.85411429300007,1.4657525710000527,0],[124.85419269500005,1.4655784090000452,0],[124.85455364500001,1.4654166280000709,0],[124.85480243000006,1.4653051210000285,0],[124.85484275300007,1.4652870480000502,0],[124.85484424800006,1.4652863770000408,0],[124.85490416800008,1.4654748170000289,0],[124.85566520900011,1.465243360000045,0],[124.85597961500002,1.4650719240000285,0],[124.85598109600005,1.4650711170000363,0],[124.8560408940001,1.4651904300000638,0],[124.85609057200008,1.4652962730000354,0],[124.85609068200006,1.4652965060000724,0],[124.85616795300007,1.4654580110000666,0],[124.85626409300005,1.4656534190000343,0],[124.8562641740001,1.4656535830000621,0],[124.85636258200009,1.4655590750000442,0],[124.85659252300002,1.4653382480000232,0],[124.85670733500001,1.4652406970000698,0],[124.85673807300009,1.4652133980000599,0],[124.85676478000005,1.4651896790000478,0],[124.85676605800006,1.4651885440000569,0],[124.85680943300008,1.4651540640000462,0],[124.85686522700007,1.465106128000059,0],[124.85689525400005,1.4650777800000583,0],[124.85693018100005,1.4650372960000482,0],[124.85695980700007,1.464993871000047,0],[124.85696811100001,1.4649766280000449,0],[124.85699032600007,1.4649305000000368,0],[124.8569982140001,1.4649141210000494,0],[124.85701496400009,1.4648595480000495,0],[124.85701921900011,1.4648374770000601,0],[124.85702343100002,1.4648156310000218,0],[124.85702783300007,1.4647652990000211,0],[124.85701641700007,1.4646610300000589,0],[124.85700850000001,1.4646121220000623,0],[124.85699388800003,1.4645443410000212,0],[124.85695651500009,1.4643709780000336,0],[124.85695633400007,1.4643701410000745,0],[124.8569413350001,1.4642346030000226,0],[124.85695419500007,1.4641474370000651,0],[124.85695489600005,1.4641426870000487,0],[124.85696087300005,1.464102174000061,0],[124.85696083200003,1.4640862810000499,0],[124.85696078700005,1.4640685930000359,0],[124.85696075500005,1.4640561720000278,0],[124.85695854800008,1.4640541150000672,0],[124.8569426570001,1.464039299000035,0],[124.85694067700001,1.4640376650000348,0],[124.85679700000003,1.4639190780000604,0],[124.85669270900007,1.4638199440000221,0],[124.85665484600008,1.4637484290000202,0],[124.85665097000003,1.4637411090000683,0],[124.85665507400006,1.4637326440000606,0],[124.85657543900004,1.4635855850000326,0],[124.85656899900005,1.463573694000047,0],[124.85656705400004,1.4635468620000438,0],[124.85655167800007,1.4633347960000265,0],[124.8566648850001,1.4633082590000299,0],[124.85676493000005,1.4632706390000294,0],[124.85690218100001,1.4632149180000624,0],[124.85694965900007,1.4631956430000628,0],[124.85696499400001,1.4631894170000237,0],[124.85706999100012,1.4631157350000308,0],[124.85708589500007,1.4631045740000559,0],[124.85708860800003,1.4631034920000729,0],[124.8571151000001,1.4630929320000519,0],[124.85717096700012,1.4630706630000532,0],[124.85727732800001,1.4630282680000732,0],[124.85734621600011,1.4630085550000445,0],[124.8573809510001,1.4629986160000499,0],[124.85743549800009,1.4629836400000613,0],[124.85748605800006,1.4629697600000213,0],[124.85761995700011,1.4629268200000638,0],[124.85764824500006,1.4629113910000342,0],[124.85764978700001,1.4629105500000605,0],[124.85765121600002,1.4629097700000671,0],[124.85772022800006,1.4628869820000432,0],[124.85776805400008,1.4628711910000334,0],[124.85784428200009,1.4628460220000647,0],[124.85786113200004,1.4628404590000628,0],[124.85786268200002,1.4628399470000204,0],[124.85787240700006,1.4628362770000649,0],[124.8578964510001,1.4628272050000533,0],[124.85789929900011,1.4628261300000531,0],[124.85798249400011,1.4627947400000494,0],[124.85808578800004,1.4627662800000394,0],[124.85808736700005,1.4627658450000354,0],[124.85809396900004,1.4627636490000668,0],[124.85819344800007,1.4627305700000761,0],[124.85830388300008,1.4626938470000255,0],[124.85830540400002,1.4626933410000333,0],[124.85837044000004,1.4626719220000268,0],[124.85852210900009,1.4626219710000328,0],[124.85853458600002,1.4626178620000587,0],[124.85853615300005,1.4626173460000587,0],[124.85856839000007,1.462604663000036,0],[124.85862839200001,1.4625810690000662,0],[124.85877746900007,1.4625384020000638,0],[124.85877904900008,1.4625379490000228,0],[124.85888799300005,1.4625005850000434,0],[124.85894026000005,1.4624826580000558,0],[124.85896671600005,1.4624693790000265,0],[124.8590188180001,1.4624432300000763,0],[124.85899813000003,1.4623742970000535,0],[124.85899321700003,1.4623579260000383,0],[124.8589703880001,1.462298927000063,0],[124.85888050800008,1.4620693770000344,0],[124.85879280000006,1.4618387860000439,0],[124.85872897900003,1.4616490320000253,0],[124.85872719500003,1.4616315530000747,0],[124.85872616500001,1.4616276270000412,0],[124.85870620700007,1.4615515600000322,0],[124.85868830300001,1.4614761760000761,0],[124.85858262900001,1.4610312290000707,0],[124.85837957400008,1.460176256000068,0],[124.85864960600009,1.4596485470000289,0],[124.85878156800004,1.4593906620000325,0],[124.85899147700002,1.4589804470000445,0],[124.85902736000003,1.4589103230000546,0],[124.85932315100001,1.4583322760000215,0],[124.85941719900006,1.4581484830000591,0],[124.85955125100008,1.4572158960000365,0],[124.85970200400004,1.4560977320000461,0],[124.85967841500008,1.455000301000041,0],[124.8596908510001,1.4545892590000449,0],[124.85988827000006,1.4537045720000492,0],[124.85989608900002,1.4536695250000662,0],[124.85989614100004,1.4536692940000648,0],[124.85998374400003,1.4532767210000657,0],[124.86001621600008,1.4530951880000202,0],[124.86007292500005,1.4527781620000724,0],[124.86017349100007,1.450996038000028,0],[124.86017791800009,1.4509175840000239,0],[124.86024475600004,1.4494715470000301,0],[124.86032430700004,1.4492751440000688,0],[124.86049099200011,1.4488636140000608,0],[124.86057400400011,1.4486586640000496,0],[124.86067436500002,1.448410883000065,0],[124.8607593700001,1.4482395500000393,0],[124.8609124190001,1.4479825280000682,0],[124.86107708200007,1.4477993730000662,0],[124.86122637800008,1.4476333120000504,0],[124.86123297800009,1.4476259700000469,0],[124.86126067300006,1.4475951650000525,0],[124.86143963500001,1.4473961070000314,0],[124.86150693900004,1.4474370580000482,0],[124.86185763700007,1.4476183490000381,0],[124.86228652800003,1.4478400620000684,0],[124.86248742900011,1.4480654640000239,0],[124.86253480200003,1.4482435050000504,0],[124.86249958500002,1.4484928460000219,0],[124.8624979970001,1.44853193900002,0],[124.86249577300009,1.4485867000000212,0],[124.8624880110001,1.4487777840000717,0],[124.86251107400005,1.4488656140000558,0],[124.86254723000002,1.4490033040000299,0],[124.86271347500008,1.4491646290000517,0],[124.86280006300001,1.44924865400003,0],[124.86288834400011,1.4493343210000376,0],[124.8629017180001,1.4493472990000669,0],[124.86314617200003,1.4495595300000446,0],[124.86333888400009,1.4497268400000394,0],[124.86355146700009,1.4497978970000531,0],[124.8636042490001,1.4497785480000402,0],[124.86368130300002,1.449750300000062,0],[124.86373536300005,1.4496867780000571,0],[124.86375207800006,1.4496671380000521,0],[124.86382287200001,1.4496077200000741,0],[124.86398816700012,1.449607583000045,0],[124.86420067200004,1.4495836630000554,0],[124.86433045000001,1.449464836000061,0],[124.8643320110001,1.4494614660000593,0],[124.86441295300006,1.4492866880000292,0],[124.86448369600009,1.4491679080000495,0],[124.8645781140001,1.4491203420000716,0],[124.86458154000002,1.4491191900000331,0],[124.86471975600011,1.4490727360000619,0],[124.86487319000003,1.4490013780000481,0],[124.86487854500001,1.4489973330000225,0],[124.86501478500008,1.4488944120000724,0],[124.86517690400001,1.4488616690000526,0],[124.86519185800012,1.4488586490000444,0],[124.86536896100006,1.4488585020000642,0],[124.86567591200003,1.4488226330000202,0],[124.86585291800009,1.4487037650000616,0],[124.86593184500009,1.4486319590000676,0],[124.86604168300005,1.4485255290000509,0],[124.86604359600005,1.448519238000074,0],[124.86606961300004,1.4484336790000611,0],[124.86617235300002,1.4480958090000513,0],[124.86623179900005,1.4480718420000471,0],[124.86645211500002,1.448047043000031,0],[124.86653915600004,1.4480469710000534,0],[124.8668560640001,1.4480467080000494,0],[124.8669640710001,1.4480554240000743,0],[124.86730900700002,1.4480832590000432,0],[124.86737769100012,1.4480832020000207,0],[124.86739403200011,1.4480831880000551,0],[124.86772519800002,1.4480829130000643,0],[124.86801449500001,1.4479276980000577,0],[124.86838150700009,1.4481401970000434,0],[124.86867506600004,1.4484938190000207,0],[124.8687780140001,1.4488623440000197,0],[124.86897818600005,1.4492354050000245,0],[124.86908641900004,1.4494371180000485,0],[124.86913901100002,1.4495054370000275,0],[124.86933596600011,1.4497612880000474,0],[124.86997754100003,1.4504190040000253,0],[124.86999748300002,1.4504490290000263,0],[124.87011034200009,1.4506189470000663,0],[124.87013662700008,1.4507679950000352,0],[124.87016284300012,1.4509166520000463,0],[124.87016419500003,1.450924318000034,0],[124.87019420600006,1.4510944970000423,0],[124.87020829900007,1.4511744100000215,0],[124.87021028700008,1.4511856840000519,0],[124.87021035300006,1.4512664630000245,0],[124.87021050400006,1.4514497060000622,0],[124.87021054700006,1.4515024350000658,0],[124.87002849800001,1.451902695000058,0],[124.87002228600011,1.4520039700000211,0],[124.87001213700012,1.4521694470000739,0],[124.87010764400009,1.4523228160000485,0],[124.87017815600007,1.4524360480000382,0],[124.8704270290001,1.4526525650000508,0],[124.87050985600001,1.4527653970000642,0],[124.87065940500008,1.4529691230000594,0],[124.87069115000008,1.4532382790000611,0],[124.87071566900011,1.453446169000074,0],[124.87071643200011,1.4534686130000409,0],[124.8707327840001,1.4539499140000203,0],[124.87094538300005,1.4544374280000625,0],[124.87096702800011,1.4544870620000552,0],[124.87122267300003,1.4548292090000245,0],[124.87130308400003,1.4549368280000294,0],[124.87176950900005,1.4555610760000377,0],[124.87260518300002,1.4563831830000709,0],[124.87280561000011,1.4564166000000682,0],[124.87305605200004,1.4563492230000747,0],[124.87330640000005,1.4561643020000474,0],[124.87369037400003,1.4560128520000717,0],[124.87378954700011,1.456037694000031,0],[124.87409125500005,1.4561132690000704,0],[124.8743484790001,1.4562798310000744,0],[124.87452290200008,1.4563927760000297,0],[124.87460922700006,1.4564486740000575,0],[124.87465672300004,1.4565226880000637,0],[124.87478464900005,1.4567220400000451,0],[124.87495298500005,1.4569843640000499,0],[124.87500306100003,1.4570623980000619,0],[124.87524464500007,1.4574388650000287,0],[124.87531111200008,1.4575151170000709,0],[124.87534187000006,1.4575504040000737,0],[124.87547866500006,1.4577073390000237,0],[124.87579593500004,1.4578280420000738,0],[124.87596311300001,1.4578916440000285,0],[124.87619202500002,1.4579368100000352,0],[124.8762487570001,1.457948004000059,0],[124.87630562200002,1.4579592240000352,0],[124.87644454300005,1.4581823070000723,0],[124.87644164500011,1.4582265690000327,0],[124.87644152000007,1.4582284780000236,0],[124.87641438800006,1.4586429030000545,0],[124.8764069880001,1.4587559280000733,0],[124.87598939000009,1.459635783000067,0],[124.87540600400007,1.4604690650000407,0],[124.87508633100003,1.4609256720000303,0],[124.87227659700011,1.4631669250000527,0],[124.87186217100009,1.4640210900000739,0],[124.87183718000006,1.4642065200000616,0],[124.87180590700007,1.4644385590000297,0],[124.87189444400008,1.4646122220000279,0],[124.87201821600001,1.464665736000029,0],[124.87218699000005,1.4647373650000759,0],[124.8724835480001,1.4650305010000579,0],[124.87251641100011,1.465062984000042,0],[124.87252243700004,1.4650689410000268,0],[124.87270199600005,1.4652464280000572,0],[124.87287320600001,1.4654156620000549,0],[124.87287734300003,1.4654197520000594,0],[124.87287743200011,1.4654198400000382,0],[124.87290442900007,1.4654465250000612,0],[124.87293606800006,1.4654777990000412,0],[124.87286623900002,1.4655200520000449,0],[124.87278671200011,1.4655714710000325,0],[124.87273242100002,1.4656101010000384,0],[124.87271418000012,1.4656268570000748,0],[124.87269395500005,1.4656790100000308,0],[124.8726924560001,1.4657293210000262,0],[124.8727061620001,1.4657830030000696,0],[124.87273014700008,1.465837825000051,0],[124.87276669500011,1.4658937900000524,0],[124.87287177300004,1.4660125730000573,0],[124.87295172200004,1.4661359240000706,0],[124.87300083400009,1.4662432850000755,0],[124.87303858700011,1.4663088180000727,0],[124.87306136800009,1.4663483620000761,0],[124.87310248500012,1.4664237440000534,0],[124.87313349400006,1.4664807330000258,0],[124.87314474400011,1.4665014090000454,0],[124.87316547900002,1.4665453620000335,0],[124.87316720300009,1.466546840000035,0],[124.87321442300004,1.4665743460000726,0],[124.87321563400008,1.4665750510000635,0],[124.87329627800011,1.4666075290000435,0],[124.87363778800011,1.4666677830000481,0],[124.87395203600011,1.4667558620000705,0],[124.87406495900007,1.4667819800000643,0],[124.87422822700012,1.4668442910000294,0],[124.87428013800002,1.4668690650000258,0],[124.87434091800003,1.4669093670000279,0],[124.87437713200006,1.4669333790000678,0],[124.87442837900005,1.4669503060000579,0],[124.87458566600003,1.4670022580000364,0],[124.87467778200005,1.4670473750000497,0],[124.87474963900002,1.4670929160000696,0],[124.87476595800001,1.4671066110000197,0],[124.87478206600008,1.4671201300000689,0],[124.8747988450001,1.4671399510000356,0],[124.87481399500007,1.4671578480000562,0],[124.87484127500011,1.4672073790000582,0],[124.87485736000008,1.4672502890000487,0],[124.8748651730001,1.4672884100000374,0],[124.87486499600004,1.4673358000000576,0],[124.87486475600008,1.4674002320000454,0],[124.8748384380001,1.4674984790000281,0],[124.87482732700005,1.4675164790000395,0],[124.87480402000006,1.4675364610000656,0],[124.87480371700008,1.4675366180000537,0],[124.87458238900001,1.467651237000041,0],[124.87448123200011,1.4677209400000493,0],[124.87441976100001,1.4677468440000325,0],[124.87435065200009,1.4677610300000197,0],[124.87411543100006,1.4677645000000439,0],[124.87401218700006,1.4677787000000535,0],[124.87396928200008,1.4677915390000749,0],[124.87393273900011,1.4678098270000532,0],[124.87389223100001,1.467838089000054,0],[124.87389171700011,1.4678385610000646,0],[124.87385704300004,1.467870400000038,0],[124.87383217900003,1.467911096000023,0],[124.87381022400007,1.467972307000025,0],[124.87378960900003,1.4681190450000372,0],[124.87372859900006,1.4683074020000504,0],[124.87370913000007,1.4684659840000336,0],[124.8737111690001,1.4686209580000309,0],[124.87373275400012,1.4687990650000415,0],[124.87378231100001,1.4689707430000567,0],[124.87380338500009,1.4690012740000498,0],[124.87384424700008,1.469036395000046,0],[124.87385494700004,1.4690429760000256,0],[124.87390098700007,1.4690712940000594,0],[124.87397917500004,1.4690910800000552,0],[124.87407359100007,1.4691009080000299,0],[124.87436175900007,1.4691119000000299,0],[124.87446650900006,1.469128716000057,0],[124.8746120190001,1.4691614430000755,0],[124.87467457300011,1.4691846440000518,0],[124.8747132630001,1.4692081000000599,0],[124.87474033300009,1.4692245120000393,0],[124.87480783500007,1.4692837880000411,0],[124.87483451300011,1.4693135230000394,0],[124.87484809500006,1.4693286600000306,0],[124.87487107600009,1.4693863460000216,0],[124.87487643800011,1.4694354930000486,0],[124.87486712500004,1.4694804670000394,0],[124.8748313000001,1.4695671460000312,0],[124.87482075500009,1.4696111040000233,0],[124.87480689000006,1.4698301330000731,0],[124.87480512500008,1.4699763850000522,0],[124.87478529900011,1.4701173360000439,0],[124.87478485700001,1.4701188520000414,0],[124.87475986400011,1.4702045120000662,0],[124.87473616200009,1.4703431870000259,0],[124.87472396100009,1.4704986240000721,0],[124.87472611300007,1.4709721490000334,0],[124.87473707300012,1.4710653250000405,0],[124.87474163400009,1.4711040950000438,0],[124.87474449500007,1.4711746720000747,0],[124.87473209300003,1.4713615950000758,0],[124.8747090920001,1.4714265680000267,0],[124.87470171300004,1.471447410000053,0],[124.87468731600006,1.4714712130000294,0],[124.87466643700009,1.4714939800000479,0],[124.87466534600003,1.4714947510000229,0],[124.87463633200002,1.4715152640000611,0],[124.87453797300009,1.4715496600000506,0],[124.87446104300011,1.4715664240000592,0],[124.87436663800008,1.4715765790000432,0],[124.87428770200006,1.4715769040000737,0],[124.87423402500008,1.4715707410000505,0],[124.87409358700006,1.4715248000000543,0],[124.87406197200005,1.4715058180000256,0],[124.87403731600011,1.471491014000037,0],[124.87400075000005,1.4714608370000519,0],[124.87396873700004,1.471413468000037,0],[124.87391964500011,1.4713246560000357,0],[124.87386203200003,1.4712407100000746,0],[124.87372880800001,1.4710805340000661,0],[124.87358149700003,1.4709171530000731,0],[124.87349409900003,1.4707839930000546,0],[124.87341044200002,1.4706236690000196,0],[124.87338842600002,1.4705600510000636,0],[124.87335215100006,1.470414169000037,0],[124.87327822600002,1.4702085920000627,0],[124.87325778100001,1.4701656830000616,0],[124.87321156400003,1.4700880730000563,0],[124.87321067000005,1.4700865720000706,0],[124.87319909700011,1.4700728490000756,0],[124.8731891000001,1.4700609940000504,0],[124.87314634100005,1.4700302150000653,0],[124.87311159100011,1.4700157870000226,0],[124.87307195700009,1.4700077210000586,0],[124.87304103500003,1.4700126380000711,0],[124.87298694200001,1.4700342250000631,0],[124.87295113300002,1.4700527890000217,0],[124.87294992900001,1.4700537680000707,0],[124.87292423100007,1.4700747020000335,0],[124.87283181700002,1.4701705350000225,0],[124.8725409110001,1.4704535970000734,0],[124.87244909200001,1.4705546840000352,0],[124.87242207300005,1.470590636000054,0],[124.87238649700009,1.4706379760000345,0],[124.87230687600004,1.4707333020000419,0],[124.87216845000012,1.4708663080000406,0],[124.8721595400001,1.4708759460000351,0],[124.87209980700004,1.4709405570000627,0],[124.87203652000005,1.4710256560000516,0],[124.87189732600007,1.4712564520000342,0],[124.87184044300011,1.4713780860000725,0],[124.87170731600008,1.4716311990000577,0],[124.87163428700001,1.4717311440000458,0],[124.8715592640001,1.4718501990000732,0],[124.87155058900009,1.4718639660000576,0],[124.8714603520001,1.4719723890000296,0],[124.87143801900004,1.4719915160000596,0],[124.87143767200007,1.4719917120000332,0],[124.87141847000009,1.4720025470000451,0],[124.87141160300007,1.4720064220000495,0],[124.87136804000011,1.4720183400000337,0],[124.87129633600011,1.4720167000000401,0],[124.87125192100007,1.4720031650000465,0],[124.87118711000005,1.4719730710000363,0],[124.8707376860001,1.4716772850000552,0],[124.87068358200008,1.4716397520000442,0],[124.87059174000001,1.4715760380000233,0],[124.87054554300005,1.4715439890000539,0],[124.8705147390001,1.4715226200000302,0],[124.87051414000007,1.4715222730000619,0],[124.87047198900007,1.4714977930000259,0],[124.87041429700002,1.4714734820000217,0],[124.87034819000007,1.4714509570000587,0],[124.87027225400004,1.4714343950000739,0],[124.87009248400011,1.4714242550000449,0],[124.87003509400006,1.4714289930000746,0],[124.87000935000003,1.4714427550000551,0],[124.87000820800006,1.4714437000000657,0],[124.8699857690001,1.47146226600006,0],[124.86991760900003,1.471542530000022,0],[124.86989460100006,1.471585292000043,0],[124.86987188100011,1.4716426140000749,0],[124.86979823800004,1.4719005180000408,0],[124.86979121200011,1.4719251240000517,0],[124.86970490700003,1.4723417250000352,0],[124.86968715400008,1.4723881250000659,0],[124.86962284700007,1.4725038730000506,0],[124.8695949690001,1.4725700980000624,0],[124.86956464200011,1.4727414310000313,0],[124.86955932700005,1.472847368000032,0],[124.86956101200008,1.4729672400000595,0],[124.86957392800002,1.473032169000021,0],[124.86959715000012,1.4731019430000742,0],[124.86962194500006,1.4731460650000372,0],[124.86964609500001,1.4731890410000688,0],[124.86968205700009,1.4732530360000737,0],[124.86975132900011,1.4733494650000694,0],[124.86976668700004,1.4733708450000336,0],[124.86983796700008,1.4734541770000646,0],[124.86995805700008,1.4735822570000323,0],[124.87014269500003,1.4738568960000293,0],[124.87025747500002,1.4741029160000494,0],[124.87029507900002,1.4741732880000313,0],[124.87030903000004,1.4742115510000531,0],[124.87031708400002,1.4742558690000465,0],[124.87031652200005,1.474331300000074,0],[124.87030985000001,1.4743652510000516,0],[124.87029429200004,1.4743991590000292,0],[124.87027621300001,1.474422033000053,0],[124.87024163100011,1.4744520010000315,0],[124.87024115700001,1.4744522950000487,0],[124.87016689400002,1.4744984810000688,0],[124.87011282200001,1.474523075000036,0],[124.86996119000003,1.4745752530000686,0],[124.86984287700011,1.4746436650000305,0],[124.86975331500003,1.474712529000044,0],[124.8697532430001,1.4747126020000678,0],[124.86964316400008,1.4748235080000427,0],[124.8696424530001,1.4748239180000269,0],[124.86935535700002,1.4749896430000717,0],[124.8692605870001,1.4750293410000381,0],[124.8692591030001,1.4750299620000646,0],[124.86913398600007,1.4750823730000207,0],[124.86894850800002,1.4751095060000239,0],[124.86888674400006,1.475114081000072,0],[124.86881705600001,1.4751192440000409,0],[124.86881161600002,1.4751196460000529,0],[124.86877081500006,1.4751145660000589,0],[124.86872373500012,1.4750962430000527,0],[124.86867438600007,1.4750696340000218,0],[124.8685487460001,1.4749563300000545,0],[124.86848222700007,1.4748831200000723,0],[124.86846291000006,1.4748618610000221,0],[124.86836550900011,1.4747847280000315,0],[124.86828709800011,1.4747385930000405,0],[124.86825083700012,1.4747222260000399,0],[124.86822761700012,1.474711745000036,0],[124.86821921000001,1.4747079510000276,0],[124.86815682200006,1.474697423000066,0],[124.86811224000007,1.4747048490000338,0],[124.86802694900007,1.474736981000035,0],[124.86802573700004,1.474737985000047,0],[124.86797641700002,1.4747788380000202,0],[124.86793705500008,1.4748359410000376,0],[124.86791542100002,1.474897080000062,0],[124.86788530100011,1.4750221830000214,0],[124.86785784400001,1.4751089630000251,0],[124.86780346700004,1.4752249880000363,0],[124.86775962600007,1.4753420390000542,0],[124.86770516900003,1.475434506000056,0],[124.86759943000004,1.4755868380000265,0],[124.86751307400004,1.4757839110000646,0],[124.86746948600012,1.4758605130000433,0],[124.86729134900008,1.4763757230000465,0],[124.86717466400012,1.476637940000046,0],[124.86714507700003,1.4766831560000355,0],[124.86711959000002,1.4767105770000626,0],[124.86711862800007,1.4767112140000336,0],[124.86705828100003,1.476751150000041,0],[124.86694986300006,1.4768045260000235,0],[124.86680879400001,1.4768613590000541,0],[124.86665528900005,1.4769511240000384,0],[124.86659040500001,1.4769765210000401,0],[124.86647374100005,1.4770126710000682,0],[124.86631803000012,1.4770251660000326,0],[124.86629594100009,1.4770269380000514,0],[124.86620560900008,1.4770268770000712,0],[124.86602055600008,1.477003087000071,0],[124.86593796500006,1.4769924700000274,0],[124.86587837100001,1.4769796240000233,0],[124.86581893400012,1.476966811000068,0],[124.8657799660001,1.4769584120000445,0],[124.86574901300003,1.4769560330000218,0],[124.86564979100001,1.4769725770000264,0],[124.86560764000001,1.4769796060000431,0],[124.86551906800003,1.4769997570000442,0],[124.86549061200003,1.4770062310000753,0],[124.86538464800003,1.4770480730000486,0],[124.86534551400007,1.4770747060000531,0],[124.86534521400006,1.4770750460000386,0],[124.86530626800004,1.4771193300000505,0],[124.86528871900009,1.4771507710000265,0],[124.8652489320001,1.4772618480000688,0],[124.86523027400006,1.4773422370000731,0],[124.86523755600001,1.4773876140000652,0],[124.86528945300006,1.4775593250000725,0],[124.86532064400001,1.4776475360000632,0],[124.86534740600007,1.4776697590000367,0],[124.86545952500012,1.4777177130000609,0],[124.86553584300009,1.4777578620000327,0],[124.86563032300012,1.4777987530000587,0],[124.86581883400004,1.4779216620000284,0],[124.8658710950001,1.4779649350000454,0],[124.86593141500009,1.4780518020000386,0],[124.8659453030001,1.4780883430000245,0],[124.86593532000006,1.4781778110000232,0],[124.86592134900002,1.4782348980000393,0],[124.86589937800011,1.4782775080000761,0],[124.86584388100005,1.4783851350000532,0],[124.86582312200005,1.4784384420000265,0],[124.86574989700011,1.4786264760000449,0],[124.86568445400007,1.4788362980000329,0],[124.86565928800007,1.4788971480000441,0],[124.86562632000005,1.4789447940000287,0],[124.86557020300006,1.4789938000000689,0],[124.86556951600005,1.4789942750000478,0],[124.86549833600009,1.4790435540000431,0],[124.86542694600007,1.4790808340000581,0],[124.86535465600002,1.4791025290000448,0],[124.86525161700001,1.4791214010000431,0],[124.86521455800005,1.4791158220000398,0],[124.86521125000002,1.4791153250000662,0],[124.86516166600006,1.4790906920000566,0],[124.86508882300006,1.4790388700000676,0],[124.86501970100005,1.4789896940000631,0],[124.86495428500007,1.4789278080000372,0],[124.86482843400006,1.4787629800000559,0],[124.86476892200005,1.4786653420000562,0],[124.8647267450001,1.4785814930000356,0],[124.86465003800004,1.4784053090000384,0],[124.86455472400007,1.4781219880000549,0],[124.8645371450001,1.4780506000000742,0],[124.86449683000001,1.4777651870000454,0],[124.8644468650001,1.4773780190000707,0],[124.86437238300005,1.4772303300000544,0],[124.86435555800006,1.4772059550000449,0],[124.8642821410001,1.4771441560000653,0],[124.86412020300008,1.4770633200000702,0],[124.86401303100001,1.4769963370000596,0],[124.86393333400008,1.4769465260000629,0],[124.86379428000009,1.4768702380000605,0],[124.86371128300004,1.4768106510000507,0],[124.86360617200012,1.4767434950000506,0],[124.86349788400003,1.4766647520000333,0],[124.86346685000001,1.4766421850000597,0],[124.86341296500007,1.4765933980000341,0],[124.86340388200006,1.476583407000021,0],[124.86328637300005,1.4764541510000413,0],[124.86324047400001,1.4764036630000419,0],[124.86312801100007,1.4762661770000705,0],[124.86299867000002,1.4761459130000389,0],[124.86290306800004,1.4760920580000629,0],[124.86290136700006,1.4760912660000258,0],[124.8628950960001,1.47608834600004,0],[124.86285934300008,1.4760716950000301,0],[124.86282982700004,1.4760655020000399,0],[124.8627916910001,1.4760564660000455,0],[124.86274929100011,1.4760564880000402,0],[124.86267110600011,1.4760756970000557,0],[124.86259917200005,1.4761096830000611,0],[124.86253624900007,1.4761503860000289,0],[124.86236491000011,1.4762751780000372,0],[124.86236454800007,1.4762755120000293,0],[124.86233195000011,1.4763056680000659,0],[124.86230224500002,1.476348099000063,0],[124.86227646500004,1.4764004960000534,0],[124.86227121400009,1.4764323740000691,0],[124.8622757920001,1.4764465930000483,0],[124.8622836190001,1.4764708990000486,0],[124.86232061100009,1.4765237100000377,0],[124.86234134900008,1.476539333000062,0],[124.86241947700012,1.476580848000026,0],[124.86245639400011,1.476607361000049,0],[124.86254778700004,1.4767209840000532,0],[124.86269942900003,1.4768658230000256,0],[124.8628306710001,1.4770282950000251,0],[124.86291908500004,1.4771567330000721,0],[124.86293445800004,1.4771932050000487,0],[124.86294036700008,1.4772169300000542,0],[124.8629434290001,1.4772292210000728,0],[124.86294418400007,1.4772387210000488,0],[124.86295246600002,1.47734239600004,0],[124.86294491500007,1.4774392250000687,0],[124.86290687500002,1.4776765880000653,0],[124.86288227600005,1.4777691180000261,0],[124.86279210400005,1.4780253250000328,0],[124.86277615100005,1.478070654000021,0],[124.86275429200009,1.4781242250000446,0],[124.86272234300009,1.4781838050000715,0],[124.86265535600012,1.4782625700000267,0],[124.86254864800003,1.4783517430000757,0],[124.86244242900011,1.4784612370000332,0],[124.86239123600001,1.4785140080000474,0],[124.86238997700002,1.4785151630000541,0],[124.86227917100007,1.4786168330000464,0],[124.86227822800004,1.4786175130000743,0],[124.86219827400009,1.4786752580000666,0],[124.86213582200003,1.4787078530000599,0],[124.86209506800003,1.4787188100000321,0],[124.86202991400012,1.478720054000064,0],[124.86191302900011,1.4787058120000438,0],[124.86184886500007,1.4787027810000382,0],[124.86181521200001,1.47869606200004,0],[124.86177849100011,1.4786821260000238,0],[124.86168098100006,1.4786328680000338,0],[124.86141669500012,1.4785379500000317,0],[124.86134194600004,1.4785164380000424,0],[124.86125759200002,1.4785022710000248,0],[124.86121336600002,1.4784948440000676,0],[124.8611727230001,1.4784928000000264,0],[124.86110280300011,1.4785043620000238,0],[124.86101271700011,1.4785316360000706,0],[124.86097533200007,1.4785429550000231,0],[124.86091450900005,1.4785613700000226,0],[124.86089199300011,1.4785681870000644,0],[124.86087280700008,1.4785810280000646,0],[124.8608725250001,1.4785813680000501,0],[124.86084988900006,1.4786087380000481,0],[124.86083571800009,1.478635162000046,0],[124.8608065410001,1.4786895630000458,0],[124.86077074900004,1.478738647000057,0],[124.86075009600006,1.4787669700000379,0],[124.86073857700001,1.4787827670000411,0],[124.86073425500001,1.478789857000038,0],[124.86071112700006,1.4788277990000438,0],[124.86068421800007,1.4788719450000372,0],[124.86065478400008,1.4789004380000392,0],[124.86063674900004,1.4789178960000413,0],[124.86058862800007,1.4789644780000231,0],[124.86053137900001,1.4790358480000236,0],[124.86044985400008,1.4791825550000226,0],[124.8604144630001,1.4792979710000509,0],[124.86041010600002,1.4793121800000222,0],[124.86040500200011,1.4793259090000674,0],[124.86038349100011,1.4793741730000534,0],[124.86032266200004,1.4794695800000568,0],[124.86028489700004,1.4795124290000672,0],[124.8602835910001,1.4795134330000224,0],[124.86025445700011,1.4795358260000739,0],[124.86022433200003,1.4795502490000558,0],[124.86016091500005,1.479580611000074,0],[124.86003612600007,1.4796204830000761,0],[124.85976888900007,1.4796749720000548,0],[124.8597208860001,1.4796789310000236,0],[124.85964750500011,1.4796773630000644,0],[124.85936583000012,1.4796537110000259,0],[124.85934605700004,1.4796520510000732,0],[124.85929367400001,1.4796519950000402,0],[124.85918321300005,1.4796657230000392,0],[124.85897860600005,1.4797310430000721,0],[124.85875788400006,1.4798601130000293,0],[124.8587516770001,1.479864009000039,0],[124.85874219800007,1.4798699600000305,0],[124.85868006900012,1.4799089620000245,0],[124.85853007000003,1.4800036190000583,0],[124.85838825700012,1.4800931100000412,0],[124.85838781900009,1.4800935910000703,0],[124.85833159200001,1.4801552050000737,0],[124.85824429100012,1.4802259810000464,0],[124.85824389800007,1.4802262600000518,0],[124.85816384000009,1.4802831090000268,0],[124.85816341300006,1.4802835090000599,0],[124.85806272400009,1.4803778270000407,0],[124.8580619490001,1.4803783430000408,0],[124.85796766900012,1.4804410760000337,0],[124.85796697900003,1.4804416920000563,0],[124.85793676300011,1.4804686370000582,0],[124.85784441800001,1.4805509880000614,0],[124.85784384500005,1.4805513490000521,0],[124.85769481500006,1.4806454180000514,0],[124.8575281520001,1.4807506170000693,0],[124.8574934720001,1.4807677320000607,0],[124.85746573300003,1.480781420000028,0],[124.85739559000001,1.480805288000056,0],[124.85729104800009,1.4808150090000254,0],[124.85723491900001,1.4808082590000708,0],[124.85720109800002,1.4807914910000477,0],[124.8570045350001,1.4806667930000685,0],[124.85686525200003,1.4805943310000202,0],[124.85680109200007,1.4805687770000304,0],[124.85664473500003,1.4805318850000617,0],[124.85654967000005,1.480515768000032,0],[124.85629255300012,1.480498897000075,0],[124.85594072600009,1.4804638350000232,0],[124.85552734100008,1.4803513650000468,0],[124.85547486500002,1.4803386400000704,0],[124.85545553600002,1.4803339530000699,0],[124.85536209600002,1.4803112970000711,0],[124.85507481800005,1.4802611280000519,0],[124.85502991400006,1.480262888000027,0],[124.85496298100009,1.4802889830000368,0],[124.8549186890001,1.4803183990000548,0],[124.85491849500011,1.4803186860000324,0],[124.85488260500006,1.480371845000036,0],[124.85482836800008,1.4805095950000577,0],[124.85476582900003,1.4806352630000674,0],[124.85471688100006,1.4808055220000256,0],[124.85472742400009,1.4809044580000545,0],[124.85474166900008,1.4809381390000453,0],[124.85478310300005,1.480990208000037,0],[124.85496333800006,1.4811662120000619,0],[124.85496451100005,1.4811676610000291,0],[124.85496640700001,1.4811695010000676,0],[124.85498997500008,1.4811948960000336,0],[124.85500492900007,1.4812110090000488,0],[124.85502361100009,1.4812311410000234,0],[124.8550455190001,1.481246269000053,0],[124.85512380600005,1.4813003280000316,0],[124.85518080700001,1.4813505290000535,0],[124.85526919400002,1.4814720090000719,0],[124.85527152100008,1.4814761330000579,0],[124.85529630800011,1.4815206630000262,0],[124.85530915600009,1.4815655970000421,0],[124.85530897600006,1.4815868780000301,0],[124.85530885100002,1.4816014980000318,0],[124.85529506000012,1.4817248240000254,0],[124.85526321400005,1.4818539130000659,0],[124.8552458800001,1.4818901620000702,0],[124.85522430300011,1.4819160590000706,0],[124.85511715700011,1.482012677000057,0],[124.85506161900003,1.4820627580000405,0],[124.85506089900002,1.4820632440000736,0],[124.85498966500006,1.4821113660000265,0],[124.85498876100007,1.4821121200000675,0],[124.85494129800009,1.4821517160000326,0],[124.85481360200004,1.4822833280000509,0],[124.85481249500003,1.4822841320000748,0],[124.85470133000001,1.4823648460000527,0],[124.85464971600004,1.4823938450000469,0],[124.85462313100004,1.48240878200005,0],[124.85452099500003,1.4824381000000244,0],[124.85447969500001,1.4824425190000738,0],[124.85443566800006,1.4824402110000392,0],[124.85440133400004,1.4824344890000702,0],[124.85435158700011,1.4824171180000576,0],[124.85426136400008,1.4823728140000298,0],[124.85417046100008,1.4823122340000623,0],[124.85415827800011,1.4823041150000336,0],[124.85407579000002,1.4822397100000444,0],[124.85405893000006,1.4822227010000688,0],[124.8540164310001,1.4821798260000492,0],[124.85393618000012,1.4820988680000369,0],[124.85391014800007,1.4820723640000324,0],[124.85383275800007,1.4819934120000653,0],[124.85381293300009,1.4819720170000323,0],[124.8537163960001,1.481867836000049,0],[124.85365379200005,1.4818138830000294,0],[124.85356625200006,1.4817576390000227,0],[124.85352448100002,1.4817377340000348,0],[124.85350086800008,1.481726482000056,0],[124.85349316400004,1.4817230130000212,0],[124.85348474900002,1.481719225000063,0],[124.85342902600007,1.4816941370000336,0],[124.85335683500011,1.4816634740000723,0],[124.85329468600003,1.4816370750000374,0],[124.85307486000011,1.4815437030000567,0],[124.85298987800002,1.4814933320000705,0],[124.85293310300005,1.4814596800000572,0],[124.85291688500001,1.4814500670000257,0],[124.85281906600005,1.4813920880000637,0],[124.85278301800008,1.4813707220000651,0],[124.85269987400011,1.4813214410000342,0],[124.8526550900001,1.4812921400000505,0],[124.85254742100005,1.4812216930000659,0],[124.85251356500009,1.4811995410000236,0],[124.8523718350001,1.481106809000039,0],[124.85224225800005,1.4810220270000514,0],[124.85222442800011,1.4810103620000632,0],[124.85211668300008,1.4809812780000584,0],[124.85203092400002,1.4809680400000502,0],[124.85196435400007,1.4809577640000384,0],[124.85186938400011,1.4809592300000531,0],[124.8517896190001,1.4809604620000414,0],[124.85178543800009,1.4809623410000654,0],[124.85174086200004,1.4809823760000427,0],[124.85173866600007,1.4809833630000639,0],[124.85173731200007,1.4809844210000733,0],[124.8516601340001,1.4810440100000619,0],[124.85163758700003,1.4810867790000657,0],[124.85161630300001,1.4811397030000535,0],[124.85160393800004,1.4811704480000571,0],[124.85157214700007,1.4813239790000239,0],[124.85155233400008,1.4815386150000336,0],[124.85155139100004,1.4815488350000692,0],[124.8515497300001,1.4815668230000369,0],[124.85154604900004,1.4816758240000354,0],[124.85155129200007,1.4817262900000401,0],[124.85155758400003,1.4817868400000407,0],[124.85159070300006,1.4819171280000205,0],[124.85160952900003,1.481991186000073,0],[124.85162763900007,1.4820624320000206,0],[124.8516567260001,1.4821348500000227,0]]]},"properties":{"OBJECTID":5524,"NAMOBJ":"Tikala","FCODE":"BA03070040","REMARK":null,"METADATA":"TASWIL1000020260612KECAMATAN_AR","SRS_ID":"4326","KDBBPS":null,"KDCBPS":null,"KDCPUM":"71.71.05","KDEBPS":null,"KDEPUM":null,"KDPBPS":null,"KDPKAB":"71.71","KDPPUM":"71","LUASWH":6.6826889085630352,"TIPADM":3,"WADMKC":"Tikala","WADMKD":null,"WADMKK":"Kota Manado","WADMPR":"Sulawesi Utara","WIADKC":null,"WIADKK":null,"WIADPR":null,"WIADKD":null,"UUPP":null,"SHAPE_Length":0.15665357361597054,"SHAPE_Area":0.00054308089081397254}}]}