{"type":"FeatureCollection","features":[{"type":"Feature","id":3762,"geometry":{"type":"Polygon","coordinates":[[[112.63612901800002,-7.4005790399999682,0],[112.63600534500006,-7.4005950939999252,0],[112.63586733600005,-7.4006248369999525,0],[112.63579952200007,-7.4006307859999652,0],[112.63556395500007,-7.4006248369999525,0],[112.63531286300008,-7.400615921999929,0],[112.63531530100011,-7.4006569599999352,0],[112.6353065720001,-7.4006965199999399,0],[112.63528317900011,-7.4007366719999368,0],[112.63523915900009,-7.4008282809999741,0],[112.63522469200007,-7.4009145309999553,0],[112.63524652300009,-7.4009837369999332,0],[112.63526771200009,-7.4010388629999397,0],[112.63495600300007,-7.401191148999942,0],[112.63444916900005,-7.4014808089999633,0],[112.6339613880001,-7.4014350439999248,0],[112.63308217700001,-7.4013612799999464,0],[112.63258146400005,-7.4013348659999565,0],[112.63231361100009,-7.4013232089999406,0],[112.63154861500004,-7.4013386749999768,0],[112.63087403800012,-7.4013541419999456,0],[112.62913609600002,-7.4014144229999488,0],[112.62820785100007,-7.4014041109999766,0],[112.62819238500003,-7.4014433719999602,0],[112.62810554300006,-7.4017911109999659,0],[112.62798813800009,-7.4025130559999752,0],[112.62694435800006,-7.4023594639999715,0],[112.62647203500001,-7.4022916499999383,0],[112.62617341200007,-7.4022607169999333,0],[112.62532040500002,-7.4021184219999441,0],[112.62527404900004,-7.40214076999996,0],[112.62523751000003,-7.4021595339999635,0],[112.62519865400009,-7.4021564329999592,0],[112.62515614400002,-7.4021426799999404,0],[112.62510620500007,-7.4021277039999518,0],[112.62504059700007,-7.4021248939999396,0],[112.62498961200004,-7.4021481669999503,0],[112.62495011300007,-7.4021933769999464,0],[112.62493515400001,-7.402262139999948,0],[112.62489919200004,-7.4023927759999424,0],[112.62484541600008,-7.4024665389999313,0],[112.62478021900006,-7.4025793259999659,0],[112.62477593600011,-7.402655943999946,0],[112.62478640600011,-7.4027192379999747,0],[112.62480163400005,-7.4027887179999539,0],[112.62481210400006,-7.4028348799999435,0],[112.62480020700002,-7.4028777099999274,0],[112.62477403300011,-7.4029324379999366,0],[112.62473405800006,-7.4030176219999362,0],[112.62472025700004,-7.4030899579999527,0],[112.62471882900002,-7.4031503959999441,0],[112.62471502200003,-7.4031860879999272,0],[112.62469455900009,-7.4032522369999469,0],[112.62460794600008,-7.4033888179999394,0],[112.62457124500008,-7.4034341419999805,0],[112.62455875600006,-7.4034853499999258,0],[112.62455702600005,-7.4035282549999692,0],[112.62458367000011,-7.4035994059999553,0],[112.62450937100004,-7.4035991829999261,0],[112.62415578300011,-7.4035777669999447,0],[112.62392830700003,-7.4035587319999649,0],[112.62373033600011,-7.4035515929999747,0],[112.62356996000005,-7.4035320819999697,0],[112.6233991150001,-7.4035235159999502,0],[112.62323302800007,-7.403504479999981,0],[112.62311643500004,-7.4034882999999354,0],[112.62297729600004,-7.403476292999926,0],[112.62290989700011,-7.403476401999967,0],[112.62269431800007,-7.4034478489999742,0],[112.62250336900001,-7.4034234349999792,0],[112.62226696700009,-7.4033916939999358,0],[112.62211706100004,-7.4033645679999722,0],[112.62187721100008,-7.4033398209999746,0],[112.62159548300008,-7.4033046049999598,0],[112.62118336000003,-7.4032698649999702,0],[112.62090829500005,-7.4032484499999782,0],[112.62073221500009,-7.4032346489999554,0],[112.62041574600005,-7.4032108549999407,0],[112.62011307900002,-7.4031937219999691,0],[112.61941724200005,-7.4031413589999602,0],[112.61939167700007,-7.4033278499999255,0],[112.61938004900003,-7.4034284909999428,0],[112.61938215000009,-7.4035405469999773,0],[112.61936572700006,-7.403768844999945,0],[112.61933531500006,-7.4039859989999286,0],[112.61929962200009,-7.4042727239999522,0],[112.61925022700007,-7.4045485739999322,0],[112.61862048900002,-7.4044873579999262,0],[112.6184807090001,-7.4044736209999655,0],[112.61825870500002,-7.4044993189999673,0],[112.61815163000006,-7.4044886109999766,0],[112.6181030890001,-7.4044600579999269,0],[112.61798102200009,-7.4043965259999709,0],[112.61785824200001,-7.4043701139999598,0],[112.61775973200008,-7.4043308529999763,0],[112.61759483600008,-7.4041766639999764,0],[112.61728217500001,-7.4038268829999652,0],[112.61704732200008,-7.4035270709999281,0],[112.61679034000008,-7.4032286869999666,0],[112.61658761000001,-7.4029938339999717,0],[112.61641818200007,-7.4028192749999562,0],[112.61628421900002,-7.4028038079999305,0],[112.61603865800009,-7.4027704959999596,0],[112.61561416300003,-7.4027267139999253,0],[112.61526771300009,-7.4026876899999365,0],[112.61486969900011,-7.4026461569999356,0],[112.61445397300008,-7.4025922409999794,0],[112.61397760200009,-7.4025305239999284,0],[112.61375335900004,-7.4025117449999698,0],[112.61364968000009,-7.4025277909999545,0],[112.61347774400008,-7.4025552339999763,0],[112.61346862200003,-7.4026350829999501,0],[112.61345720100007,-7.4027917719999436,0],[112.61344506600005,-7.4029452469999342,0],[112.61342293700011,-7.4030794489999607,0],[112.61340294900003,-7.4032036569999491,0],[112.61337082700004,-7.4033671259999778,0],[112.61334013200008,-7.403532021999979,0],[112.61330658100007,-7.403726899999981,0],[112.61329516000001,-7.4038246959999583,0],[112.61326674400004,-7.4040033299999664,0],[112.61324900600005,-7.404134499999941,0],[112.6132209320001,-7.404323126999941,0],[112.61320258700005,-7.404419369999971,0],[112.61316446600006,-7.404613296999969,0],[112.61315329100012,-7.404703771999948,0],[112.61313950800002,-7.4048679439999319,0],[112.61312810200002,-7.4050268439999627,0],[112.61311544900002,-7.4051063189999695,0],[112.61307131600006,-7.4052335069999344,0],[112.6130698390001,-7.4053169779999735,0],[112.61305727400008,-7.4054146339999534,0],[112.61303320700006,-7.4055578329999321,0],[112.61302160000002,-7.4056877509999595,0],[112.61301109500005,-7.4058043359999601,0],[112.61300900100002,-7.4058876009999608,0],[112.61298897800009,-7.4060494029999404,0],[112.61295652800004,-7.4062212979999344,0],[112.61293068500004,-7.4063644609999528,0],[112.61290637100001,-7.4065324989999795,0],[112.61289029500006,-7.4067516579999619,0],[112.61279190500011,-7.4071054549999644,0],[112.61276772200006,-7.4073732259999474,0],[112.61276204100011,-7.4074421189999384,0],[112.61276489700003,-7.4075725139999804,0],[112.61275347500009,-7.4077324129999624,0],[112.61274395800001,-7.407852337999941,0],[112.61273444000005,-7.407920866999973,0],[112.61270303100002,-7.4079760699999611,0],[112.61264116500001,-7.4080617309999752,0],[112.61258405800004,-7.4081721379999408,0],[112.61255482500007,-7.4083270539999262,0],[112.61257859800003,-7.408434156999931,0],[112.61262522200002,-7.4087562949999324,0],[112.61262412200006,-7.4088680029999523,0],[112.61262998100005,-7.4089389189999793,0],[112.61264485300001,-7.4090025699999273,0],[112.61267043200007,-7.409083470999974,0],[112.61270196000009,-7.4091334399999482,0],[112.61272575500004,-7.4091608039999528,0],[112.61275787700004,-7.4091851929999279,0],[112.61279165400003,-7.4092138709999631,0],[112.61281111900007,-7.409269740999946,0],[112.61282809200009,-7.4094663409999271,0],[112.61284996300003,-7.4097165269999437,0],[112.61287517400001,-7.4101384489999305,0],[112.61290135900003,-7.4102952119999372,0],[112.61293251400002,-7.410477129999947,0],[112.6129472670001,-7.410569928999962,0],[112.61296123200009,-7.4105877879999298,0],[112.61297010900012,-7.4105970539999362,0],[112.61300294600005,-7.4106099039999549,0],[112.61315416100001,-7.4106479749999608,0],[112.61333024100009,-7.4107056769999531,0],[112.61361934500007,-7.4108097779999298,0],[112.61372463700002,-7.410843090999947,0],[112.61383111700002,-7.4108900849999486,0],[112.61389298300003,-7.4109251819999713,0],[112.61391429500009,-7.4109502219999399,0],[112.61387811200007,-7.4112104699999577,0],[112.61384610800008,-7.41145202499996,0],[112.61382707200005,-7.4115769459999683,0],[112.61379673400006,-7.4117316109999365,0],[112.61377559700009,-7.4118622219999679,0],[112.61376497000003,-7.4119007909999368,0],[112.61374707300001,-7.4119355609999502,0],[112.61374387100011,-7.4119776789999605,0],[112.61373161400002,-7.412179167999966,0],[112.61368763600001,-7.4125417839999272,0],[112.61366005500008,-7.4128655819999381,0],[112.6136528720001,-7.413065137999979,0],[112.61361436400011,-7.4133502189999376,0],[112.61357343500003,-7.4135628169999563,0],[112.61355075000006,-7.4136845549999748,0],[112.61352290200011,-7.4138366959999757,0],[112.61350661100005,-7.4139043419999666,0],[112.61346499600006,-7.4141259139999534,0],[112.61342938600001,-7.4146144619999745,0],[112.61336621900011,-7.4149401839999314,0],[112.61334049300001,-7.4151811969999812,0],[112.61322661800011,-7.4158311599999251,0],[112.61319499500007,-7.4160892979999744,0],[112.61256000900005,-7.4159668339999598,0],[112.61190185000009,-7.4158554749999439,0],[112.61118601300007,-7.4157658879999531,0],[112.6109410250001,-7.4157000449999373,0],[112.6108690320001,-7.4157547149999345,0],[112.61077270600003,-7.4158948999999552,0],[112.61073839900007,-7.4159845709999672,0],[112.61072840500003,-7.4160923599999364,0],[112.61073126100007,-7.4162187099999528,0],[112.61073625800009,-7.4164307199999371,0],[112.61072483600003,-7.4166555789999506,0],[112.61069528100006,-7.4167595309999683,0],[112.61066059100006,-7.4168504559999633,0],[112.61058920700009,-7.4169975069999623,0],[112.61054510800011,-7.4170997839999586,0],[112.61053365800001,-7.4171993989999692,0],[112.61051354000006,-7.4173965429999384,0],[112.61050854300004,-7.4176171189999422,0],[112.61049854900011,-7.4177634559999319,0],[112.61047713400001,-7.4179133619999789,0],[112.61043073500002,-7.4181039569999712,0],[112.61039290100007,-7.4182874129999732,0],[112.61039355500009,-7.4184475969999539,0],[112.61039557100003,-7.4186000219999642,0],[112.61037791100011,-7.4188670499999603,0],[112.61035697200009,-7.4191049469999371,0],[112.61031890200002,-7.4190507539999544,0],[112.61028844500004,-7.4190293389999624,0],[112.61022324800001,-7.4190150619999713,0],[112.61011902700011,-7.4189884119999761,0],[112.61002908400008,-7.418957478999971,0],[112.60986442500007,-7.4189393949999385,0],[112.60971261500003,-7.4189389189999702,0],[112.60965722200001,-7.4189655689999654,0],[112.60955252500003,-7.4189446299999418,0],[112.60946277200003,-7.4189013239999326,0],[112.60936997300007,-7.4188922819999448,0],[112.60927146300003,-7.4188989439999773,0],[112.60911013600003,-7.4189255939999725,0],[112.60896927200008,-7.4189298769999255,0],[112.6088679070001,-7.4189194079999652,0],[112.60871276600005,-7.4189070349999611,0],[112.60860616600007,-7.4188965649999545,0],[112.60846625400006,-7.4188946609999675,0],[112.60837726200009,-7.4189032269999302,0],[112.60831825100001,-7.4189260699999409,0],[112.6082425840001,-7.4189474849999328,0],[112.60817976700002,-7.4189422509999758,0],[112.60812889400006,-7.4189269699999727,0],[112.60807126300006,-7.4189079859999651,0],[112.60799274100009,-7.4189008479999643,0],[112.60787805100006,-7.4188913299999513,0],[112.60779191500001,-7.4188908539999261,0],[112.6076948330001,-7.4188998959999708,0],[112.60762154500003,-7.4189122689999749,0],[112.60754445100008,-7.4189098899999522,0],[112.60746878400005,-7.4189003719999391,0],[112.60735599700001,-7.4188946609999675,0],[112.60726224700011,-7.4188984679999521,0],[112.60718991600004,-7.4189140609999527,0],[112.60709473400004,-7.4189141599999289,0],[112.60699812600001,-7.4189089379999587,0],[112.60693150100008,-7.4188979929999732,0],[112.60680681800011,-7.418895612999961,0],[112.60665310500008,-7.4188908539999261,0],[112.60650922700006,-7.4188779689999365,0],[112.60628048100011,-7.4188651559999812,0],[112.60613247800006,-7.4188437409999324,0],[112.60600208400001,-7.4188342229999762,0],[112.60590262300002,-7.4188437409999324,0],[112.60580078200007,-7.4188608729999714,0],[112.60565040000006,-7.4188694389999341,0],[112.60546432600006,-7.4188741979999691,0],[112.60532488900003,-7.4188751499999626,0],[112.60526207200007,-7.4188689629999658,0],[112.60513024900001,-7.4188527829999771,0],[112.60500984900011,-7.4188308919999599,0],[112.60493418200008,-7.4188370779999673,0],[112.60488659300006,-7.4188470719999486,0],[112.6048399550001,-7.4188308919999599,0],[112.60480521500006,-7.4188213739999469,0],[112.60474668000006,-7.4188189939999347,0],[112.6046538810001,-7.418840409999973,0],[112.60460391300001,-7.4188465959999803,0],[112.60456584100007,-7.4188351749999697,0],[112.60450349900009,-7.4188247049999632,0],[112.60446257300009,-7.4188380299999608,0],[112.60442259800004,-7.4188461199999551,0],[112.60439927900006,-7.4188437409999324,0],[112.60434455100005,-7.4188204219999534,0],[112.60427697500006,-7.4188013859999273,0],[112.60422272300002,-7.4187971029999744,0],[112.60416799500001,-7.4188128079999274,0],[112.60408138300011,-7.4188342229999762,0],[112.60400666800001,-7.4188418369999454,0],[112.60394242300003,-7.4188394579999795,0],[112.60390387500001,-7.4188327949999575,0],[112.60369067600004,-7.4188137599999777,0],[112.60358502700001,-7.4188070969999558,0],[112.60352458900002,-7.4188075729999809,0],[112.60346177100007,-7.4188247049999632,0],[112.60340038100003,-7.4188532589999454,0],[112.60334803300009,-7.4188637279999625,0],[112.60327760100006,-7.4188556379999682,0],[112.60321525900008,-7.4188380299999608,0],[112.6031405440001,-7.4188099519999469,0],[112.60309200300003,-7.4188085249999745,0],[112.60302061900006,-7.4188128079999274,0],[112.60285831600004,-7.4188138299999764,0],[112.60270864400002,-7.4188133239999274,0],[112.60258248700006,-7.4188036929999726,0],[112.60261291400002,-7.4189750239999626,0],[112.60266216800005,-7.4193405089999374,0],[112.60271427900011,-7.4196703019999291,0],[112.60274854300008,-7.4199908159999381,0],[112.60278780400006,-7.4203691499999422,0],[112.60280350800008,-7.4207203579999259,0],[112.60284276800007,-7.4210436229999459,0],[112.60272284500002,-7.4210494379999545,0],[112.60250441000005,-7.4210351609999634,0],[112.60233237500006,-7.4210237399999528,0],[112.6021403530001,-7.4210151739999333,0],[112.60194761600007,-7.4209994689999803,0],[112.60187266300011,-7.4209916169999701,0],[112.60184339500006,-7.4209808049999424,0],[112.60183054700008,-7.4211193939999589,0],[112.60178343300004,-7.4214870209999617,0],[112.60177201200008,-7.421621221999942,0],[112.60172632600006,-7.421882486999948,0],[112.60170848000007,-7.4219688609999253,0],[112.60168635100001,-7.4221209089999434,0],[112.60166422200007,-7.4222601079999322,0],[112.60164851800005,-7.422402874999932,0],[112.60161282600006,-7.4226491489999376,0],[112.60157142300011,-7.4228661559999409,0],[112.6015307350001,-7.4231267069999376,0],[112.60149789800005,-7.4233786919999716,0],[112.60147648300006,-7.423527169999943,0],[112.60146791700004,-7.4235849909999274,0],[112.6014425620001,-7.4237290659999644,0],[112.60133038400011,-7.4243207209999582,0],[112.60129136100011,-7.4245662809999544,0],[112.6011657250001,-7.42529011299996,0],[112.60088529200004,-7.4253689899999813,0],[112.60059261800006,-7.4254360909999377,0],[112.60019572400006,-7.425503191999951,0],[112.59962322600006,-7.425595990999966,0],[112.59929343300007,-7.4256516699999793,0],[112.59888940000008,-7.425714487999926,0],[112.59878375200003,-7.4257244819999642,0],[112.59865240600004,-7.4257630289999383,0],[112.59859958200002,-7.4257787329999587,0],[112.59838685800003,-7.4257773059999295,0],[112.59824980100007,-7.425764456999957,0],[112.59812844800001,-7.4257505369999421,0],[112.59809280600007,-7.4257561619999706,0],[112.59801582700004,-7.4257480579999537,0],[112.59796902900007,-7.4257352419999734,0],[112.59792357800006,-7.4257263049999551,0],[112.59783035800001,-7.4257079759999556,0],[112.59773974700011,-7.425690159999931,0],[112.59760511700006,-7.4256637409999371,0],[112.5974935800001,-7.425628048999954,0],[112.59726011600003,-7.4255538979999756,0],[112.59704701200008,-7.4254960299999766,0],[112.59693033100007,-7.4254567879999627,0],[112.59685916700005,-7.42543612999998,0],[112.59681052600001,-7.4254280669999275,0],[112.59668344200009,-7.4253840409999725,0],[112.59661091600003,-7.4253591989999563,0],[112.59656583500009,-7.4253538459999504,0],[112.59648687200001,-7.4253298939999581,0],[112.59642163600006,-7.4252947189999645,0],[112.59617302000004,-7.4251873589999491,0],[112.59586250100006,-7.4251088359999358,0],[112.59572211200009,-7.4250761189999253,0],[112.59565965200011,-7.4250677909999467,0],[112.59560670900009,-7.4250731439999527,0],[112.59550941500004,-7.4250541829999293,0],[112.59535182600007,-7.42501111699994,0],[112.59520517500005,-7.4249590489999377,0],[112.59504813000001,-7.4249086049999278,0],[112.59483138000007,-7.4248866749999252,0],[112.5946803600001,-7.4248853179999514,0],[112.59466882700008,-7.4249830079999697,0],[112.59466121300011,-7.4250819929999352,0],[112.5946364670001,-7.4252514109999765,0],[112.59460220200003,-7.4255045859999314,0],[112.59458887800008,-7.4257311099999583,0],[112.59454509500006,-7.4259709599999724,0],[112.59450321700001,-7.426205098999958,0],[112.59445943500009,-7.4263649989999294,0],[112.59445093300008,-7.4265096559999506,0],[112.59434068200005,-7.4265121039999258,0],[112.59362268600012,-7.4264377689999606,0],[112.59332966700003,-7.426397485999928,0],[112.59298036200005,-7.4263479929999789,0],[112.59278334300006,-7.4263137289999577,0],[112.59267659900001,-7.4262945149999382,0],[112.59248771300008,-7.4262802209999563,0],[112.59222191400011,-7.4262870969999426,0],[112.59216944200011,-7.4263137289999577,0],[112.59209425100005,-7.4263660769999547,0],[112.59199716900002,-7.426411762999976,0],[112.59193815800006,-7.4264574489999404,0],[112.59187839800006,-7.4265076559999557,0],[112.59181917800004,-7.4265329149999388,0],[112.59173622100002,-7.4265487009999447,0],[112.59138785700009,-7.4265549799999349,0],[112.59126402000004,-7.4265612359999409,0],[112.59121826800003,-7.4265635469999438,0],[112.5911374640001,-7.4265798569999788,0],[112.59108572000002,-7.426595845999941,0],[112.59105718600006,-7.4266076289999319,0],[112.59103633700011,-7.4266348819999735,0],[112.59102217500003,-7.4266436269999758,0],[112.59102159100007,-7.4267057799999634,0],[112.59105137500001,-7.4267425169999797,0],[112.59106981600007,-7.4267865369999413,0],[112.59108052400006,-7.4268133059999286,0],[112.5910870670001,-7.4268626799999424,0],[112.5910888520001,-7.4269370379999486,0],[112.59107292800002,-7.4270112089999429,0],[112.59106813000005,-7.4270703909999725,0],[112.59105375500008,-7.427097056999969,0],[112.59104483200008,-7.42713334299998,0],[112.5910463780001,-7.4271861649999664,0],[112.59103742100001,-7.4272604469999806,0],[112.59103442200001,-7.4273279639999714,0],[112.5910189550001,-7.4273642499999255,0],[112.59098028900007,-7.427417787999957,0],[112.59076224800003,-7.4277609399999278,0],[112.59048813400011,-7.4282087229999547,0],[112.59038900600001,-7.4283461369999486,0],[112.59037610400003,-7.4283615909999412,0],[112.5902847860001,-7.4282847469999638,0],[112.59023274200001,-7.4283312529999534,0],[112.59018396300007,-7.4284062059999769,0],[112.59012968200011,-7.428523618999975,0],[112.58996987100011,-7.4288331409999273,0],[112.58984375900002,-7.4291591269999344,0],[112.58975877600005,-7.4293188009999653,0],[112.58970315100009,-7.4294771239999591,0],[112.58967754100001,-7.4295910769999409,0],[112.58963526700006,-7.4297791789999792,0],[112.58955208000009,-7.430149326999981,0],[112.58953164400009,-7.4302402559999337,0],[112.58951540100009,-7.4302878389999591,0],[112.58949758500012,-7.4303400259999535,0],[112.58946542500007,-7.4304339729999356,0],[112.58941010300009,-7.4306641859999445,0],[112.58935894400008,-7.4308676299999661,0],[112.58934169300005,-7.4310407359999431,0],[112.58929945800003,-7.4312465589999306,0],[112.58926614500001,-7.4314256129999308,0],[112.58913986000005,-7.4320591699999454,0],[112.58903575900001,-7.4326748549999593,0],[112.58893490700007,-7.4333280169999512,0],[112.58881562900001,-7.4335446379999439,0],[112.58869819000006,-7.4338479289999668,0],[112.58845042200005,-7.434475779999957,0],[112.5884076640001,-7.4345841289999726,0],[112.58825653800011,-7.4352811939999697,0],[112.58815282400008,-7.4355559999999628,0],[112.58808085100009,-7.4357955049999305,0],[112.58800016000009,-7.436204221999958,0],[112.58793749300003,-7.4364576919999763,0],[112.58785956200006,-7.4369257489999541,0],[112.58785599200007,-7.4369804759999738,0],[112.58780246000003,-7.4371653369999535,0],[112.58781316200009,-7.437289805999967,0],[112.58779769600005,-7.4373445339999762,0],[112.58779650600002,-7.4373802259999593,0],[112.5877988850001,-7.4375229929999591,0],[112.58777271100007,-7.4376610019999703,0],[112.5877385440001,-7.4379477609999753,0],[112.58789239100008,-7.4379473539999594,0],[112.58798011100009,-7.437939971999981,0],[112.58817428000009,-7.4379391519999558,0],[112.58830814300006,-7.4379322999999431,0],[112.58846161800011,-7.4379465769999342,0],[112.58854133000011,-7.4379775099999392,0],[112.58863650800004,-7.4380429449999497,0],[112.58870637300004,-7.4381035579999661,0],[112.58876499900009,-7.4382095079999431,0],[112.58880188100011,-7.4383261009999728,0],[112.58881496800007,-7.4384212799999432,0],[112.58880307100003,-7.4385212169999591,0],[112.5887844240001,-7.4386046459999307,0],[112.58859843700009,-7.4388817049999716,0],[112.58850563800002,-7.4389899709999554,0],[112.5884830330001,-7.43907920099997,0],[112.58850206900001,-7.4391910349999648,0],[112.58852824300004,-7.4392862139999352,0],[112.5886493160001,-7.4395263069999373,0],[112.58871205300011,-7.4396783069999515,0],[112.58876856800009,-7.4399262889999704,0],[112.58878284500008,-7.440036933999977,0],[112.58878522500004,-7.440210633999925,0],[112.58880783000006,-7.4406448859999728,0],[112.58882924500006,-7.4407745669999485,0],[112.5888888070001,-7.4408642749999672,0],[112.58894469900008,-7.4409638509999354,0],[112.58906481100007,-7.4411124499999346,0],[112.58918063200008,-7.4412308809999672,0],[112.58945861200004,-7.4414134519999493,0],[112.58961565700008,-7.4415157689999774,0],[112.58979173700004,-7.4416502079999418,0],[112.58990595100011,-7.441757283999948,0],[112.59000945700006,-7.4418786369999452,0],[112.59014508700011,-7.4420868389999555,0],[112.59026347100007,-7.4423049279999418,0],[112.59035912700006,-7.4424578059999362,0],[112.59038967400011,-7.4425557259999664,0],[112.59045441700005,-7.4427292939999461,0],[112.59046988300008,-7.4428327999999624,0],[112.59047107300012,-7.4428970459999277,0],[112.59044140700007,-7.4429582239999377,0],[112.59032830500007,-7.4432337399999255,0],[112.59025454200003,-7.4433788869999375,0],[112.59023253400005,-7.4434977609999464,0],[112.59022488700009,-7.4435958529999766,0],[112.59025907900002,-7.4436691059999589,0],[112.59032830500007,-7.4437976719999597,0],[112.59037589400009,-7.4438297949999424,0],[112.5905031960001,-7.4438416919999781,0],[112.59067927600006,-7.4438476409999339,0],[112.59083988900011,-7.4438619169999356,0],[112.59095291400001,-7.4438952299999528,0],[112.59102310800006,-7.4439618549999409,0],[112.5910933020001,-7.444080827999926,0],[112.59112304500002,-7.4442224059999376,0],[112.5911147170001,-7.444380639999963,0],[112.5910933020001,-7.4444889049999574,0],[112.59105761000001,-7.4445674269999813,0],[112.59105523000005,-7.4446852109999782,0],[112.59113747400011,-7.4448245229999657,0],[112.59119982700008,-7.4448802329999353,0],[112.59129436600006,-7.4449540899999533,0],[112.59136931900002,-7.4449719359999449,0],[112.59146634400008,-7.4449580749999313,0],[112.59166794200007,-7.4448815159999526,0],[112.59183569400011,-7.4448267889999329,0],[112.59202367100011,-7.444797044999973,0],[112.59210576300006,-7.4448125119999418,0],[112.59219335500006,-7.4448716529999501,0],[112.59225366600003,-7.4449790959999405,0],[112.59228607800003,-7.4451327969999284,0],[112.59232371600001,-7.4453174179999451,0],[112.59235426200007,-7.4454398379999702,0],[112.59241832100008,-7.4455314869999256,0],[112.59248528700004,-7.4455334889999563,0],[112.59261021300006,-7.445536863999962,0],[112.59277052400012,-7.4454632949999677,0],[112.59294660500007,-7.4453609779999397,0],[112.59325593400001,-7.4451277909999476,0],[112.59358216300006,-7.4449019619999603,0],[112.59358386400004,-7.4449990259999481,0],[112.5935724420001,-7.4451617809999675,0],[112.59355150300007,-7.4453892579999774,0],[112.59352104600009,-7.4456747929999665,0],[112.59348011900011,-7.4460393259999478,0],[112.59345822800003,-7.4462601399999357,0],[112.59342206100007,-7.4465599519999728,0],[112.59339763700007,-7.4466699909999647,0],[112.59338425500005,-7.4468869729999483,0],[112.59333544800006,-7.4473282329999506,0],[112.59328189000007,-7.4481222539999408,0],[112.59327475200007,-7.4484815529999651,0],[112.59325312300007,-7.4486185159999536,0],[112.59416418600006,-7.4483746609999457,0],[112.59433074800006,-7.4483687129999794,0],[112.59446161800008,-7.4483746609999457,0],[112.59473228200011,-7.4484490189999519,0],[112.59499402300003,-7.4485412239999391,0],[112.5953420190001,-7.4486453249999727,0],[112.59600231900004,-7.4487821439999493,0],[112.59641277600008,-7.448886244999926,0],[112.59699776700006,-7.4491127129999768,0],[112.59722164100003,-7.4492182379999576,0],[112.59733579400006,-7.4492884689999528,0],[112.59740131100011,-7.4493168949999813,0],[112.59752279500003,-7.4492959889999497,0],[112.59767296900009,-7.4492630929999564,0],[112.59779289300002,-7.449091770999928,0],[112.5980113280001,-7.4488333619999594,0],[112.59825974400007,-7.4486406259999285,0],[112.59858953700007,-7.4484164799999348,0],[112.59887792800009,-7.4481909069999688,0],[112.59900213500009,-7.4480738379999707,0],[112.59918916100003,-7.4477968689999443,0],[112.59934049500009,-7.4476098429999524,0],[112.59951467100007,-7.4474128239999686,0],[112.59962460200006,-7.4473328739999261,0],[112.59971454600009,-7.4473128859999633,0],[112.59980220000011,-7.4473143729999265,0],[112.59994725700005,-7.4473157419999438,0],[112.60016140900007,-7.4473699929999384,0],[112.60036842200009,-7.447447087999933,0],[112.60084098300001,-7.4476141259999622,0],[112.60160810200011,-7.447892981999928,0],[112.60211410700003,-7.4479947609999613,0],[112.60257132700008,-7.448048139999969,0],[112.60303960500005,-7.4480238689999396,0],[112.60321949200011,-7.4480095919999485,0],[112.60334512800011,-7.448026724999977,0],[112.60342936100005,-7.4480552779999698,0],[112.6034693360001,-7.4480838319999521,0],[112.60351502100002,-7.4481337999999369,0],[112.60354988900008,-7.4482564099999422,0],[112.60386118100007,-7.4489355269999464,0],[112.60410874900003,-7.4492487289999758,0],[112.60423885300008,-7.4493687409999438,0],[112.604350909,-7.4494542389999765,0],[112.60446827600003,-7.4495171879999589,0],[112.60470509700008,-7.4495857059999366,0],[112.60484983600008,-7.4495710319999375,0],[112.60511403200007,-7.4495487419999336,0],[112.60537753200003,-7.4495328819999713,0],[112.60552030000008,-7.4495285989999616,0],[112.60566164000011,-7.4495571519999544,0],[112.60583296100003,-7.4496028379999757,0],[112.60605710700008,-7.4496371019999401,0],[112.60617953000008,-7.4496257469999705,0],[112.6063811890001,-7.449520032999942,0],[112.60656405700001,-7.4493500129999575,0],[112.60688658700008,-7.4490588929999717,0],[112.60714785100004,-7.4488932829999612,0],[112.60734915400008,-7.4488090499999657,0],[112.6075190470001,-7.4487733579999258,0],[112.60767279200002,-7.4487718149999296,0],[112.60806156400008,-7.4488261819999479,0],[112.60831426300001,-7.4488604459999692,0],[112.60849986100004,-7.4488961379999523,0],[112.60861730200008,-7.4489408619999722,0],[112.60916658600001,-7.449147408999977,0],[112.6094878130001,-7.4492559119999555,0],[112.60981189600011,-7.4493672709999714,0],[112.61003461400003,-7.4494372269999758,0],[112.61015596600009,-7.4494672089999767,0],[112.61025019300007,-7.4494729189999589,0],[112.6104058090001,-7.4494400829999563,0],[112.61067992300002,-7.4493301519999591,0],[112.61099686800003,-7.4492302139999538,0],[112.61113249700009,-7.4492230759999529,0],[112.61138947900008,-7.4492744719999564,0],[112.61165490000008,-7.4493330739999806,0],[112.61177272100008,-7.4493197099999406,0],[112.61182863800002,-7.4492852079999352,0],[112.61192024700006,-7.4491341119999674,0],[112.61206063500003,-7.4489247189999332,0],[112.61220102400011,-7.4487652949999301,0],[112.61233308400006,-7.4486951009999416,0],[112.61246157500011,-7.4486617889999707,0],[112.61254626700008,-7.4486460789999569,0],[112.61262821100001,-7.4486331709999263,0],[112.61276217500006,-7.4486191319999762,0],[112.6133790880001,-7.4485896089999528,0],[112.61366843000008,-7.4485572489999754,0],[112.61393683400001,-7.4485363089999623,0],[112.61410815500005,-7.448551537999947,0],[112.61435752200009,-7.4486086449999789,0],[112.61465257500004,-7.44868478799998,0],[112.61489052200011,-7.4487323769999421,0],[112.6150980110001,-7.4487780629999634,0],[112.61529027100005,-7.4487837729999455,0],[112.61556628800008,-7.448781869999948,0],[112.61576045200002,-7.4487628339999787,0],[112.61589326000001,-7.4487409029999299,0],[112.61611832300002,-7.4486371989999611,0],[112.61634104100006,-7.4483611809999388,0],[112.61663228700002,-7.4479328779999605,0],[112.61691829800009,-7.4475716759999386,0],[112.6171467260001,-7.4474289079999494,0],[112.61739419000003,-7.4473194529999773,0],[112.61767020800005,-7.4471909619999792,0],[112.61803426500001,-7.4469458779999513,0],[112.61848208000004,-7.446527567999965,0],[112.61870479700008,-7.4462877189999404,0],[112.6190146030001,-7.4460478689999263,0],[112.61923303800006,-7.4459493589999397,0],[112.61950144100001,-7.4459065289999558,0],[112.61999541700004,-7.4458893969999735,0],[112.62018375000002,-7.4458610209999279,0],[112.62032325300004,-7.445798669999931,0],[112.62071639400006,-7.4454425339999375,0],[112.62089913600005,-7.445282633999966,0],[112.6209762310001,-7.4452183889999333,0],[112.62125462800009,-7.4450727659999529,0],[112.62151018200007,-7.4449928159999672,0],[112.62164866700004,-7.4449528409999743,0],[112.62180189300011,-7.4449579389999485,0],[112.6219111690001,-7.4449870869999586,0],[112.62199981300012,-7.4450376459999461,0],[112.62211779500001,-7.4451859779999268,0],[112.62226711300002,-7.4453465519999327,0],[112.62244102700004,-7.4454853649999677,0],[112.6225923610001,-7.4455567479999445,0],[112.62269800900003,-7.4455867299999454,0],[112.62281507800003,-7.4455681699999445,0],[112.62297069500005,-7.4454967859999783,0],[112.62311198300006,-7.4454421379999758,0],[112.62322624900003,-7.4453939929999251,0],[112.62333475300011,-7.4454025589999446,0],[112.62339899800008,-7.4454525279999757,0],[112.62364870700003,-7.4458398029999557,0],[112.62381302400001,-7.4460136049999619,0],[112.6240828550001,-7.4462720139999306,0],[112.62444432500001,-7.4465397449999386,0],[112.62450830300008,-7.4464804549999712,0],[112.62460110200004,-7.4463890839999749,0],[112.62472167900012,-7.4462662239999418,0],[112.62492916600002,-7.446082022999974,0],[112.62498371900006,-7.4460335919999352,0],[112.62519501500003,-7.4458237239999789,0],[112.62549482700001,-7.4454939309999304,0],[112.6257361050001,-7.4453040499999474,0],[112.62600879100012,-7.4451884079999786,0],[112.62649562900003,-7.4450399289999609,0],[112.62681257300005,-7.4449399919999451,0],[112.62708097600012,-7.444861469999978,0],[112.62726229100008,-7.4448457649999682,0],[112.62747929800003,-7.4448129289999656,0],[112.62768345600011,-7.4447986519999745,0],[112.62796756300008,-7.444768670999963,0],[112.62807963600005,-7.4447431149999375,0],[112.6281196110001,-7.4447117069999535,0],[112.62818813900003,-7.4446303289999491,0],[112.6283837310001,-7.4443283749999409,0],[112.62843941000006,-7.444216302999962,0],[112.62845011800005,-7.4441527709999491,0],[112.62846796400004,-7.4440978059999452,0],[112.62848723800005,-7.4440021509999497,0],[112.6284936620001,-7.4438957889999529,0],[112.62850151400005,-7.4437908549999747,0],[112.62854220300005,-7.4437059079999699,0],[112.62859716900005,-7.4436173919999646,0],[112.62869282300005,-7.4434817629999657,0],[112.6289241070001,-7.44321550199993,0],[112.62913754400006,-7.4429720829999724,0],[112.62916038700007,-7.4428578689999654,0],[112.6292289160001,-7.4427472239999588,0],[112.62927231100002,-7.4426819459999365,0],[112.62933778900003,-7.4425199619999489,0],[112.62940666100008,-7.4423931599999378,0],[112.62944375100005,-7.4423375759999431,0],[112.62952016200006,-7.4421640179999713,0],[112.62976605600011,-7.4421642149999343,0],[112.62977641800001,-7.4421458749999374,0],[112.62987708100002,-7.4419677119999506,0],[112.62990634800008,-7.4419255959999759,0],[112.62996571600002,-7.4418808379999746,0],[112.6302878890001,-7.4421395759999314,0],[112.63029353400009,-7.4421439729999292,0],[112.63053441300008,-7.4423315979999529,0],[112.63138158400011,-7.442902978999939,0],[112.63199453300001,-7.4433236679999482,0],[112.63221002800003,-7.4435361779999312,0],[112.63239156000009,-7.4437732279999409,0],[112.63210086900006,-7.4447285799999463,0],[112.63195318600003,-7.4452175959999636,0],[112.63187594600004,-7.4457372129999726,0],[112.63203070100008,-7.4457678499999815,0],[112.63216775800004,-7.4457983069999614,0],[112.63223438300008,-7.4458173429999306,0],[112.63225603600006,-7.4458344749999696,0],[112.63241783900003,-7.446448375999978,0],[112.63269341200009,-7.4472418549999588,0],[112.63287015000003,-7.447186285999976,0],[112.63293997900007,-7.4473153009999464,0],[112.63302944700001,-7.447423803999925,0],[112.63309416800007,-7.4474580679999463,0],[112.63323148200004,-7.4476137279999648,0],[112.63333322700009,-7.4477045389999716,0],[112.63345513200011,-7.4477673979999395,0],[112.63356458800001,-7.4478090389999352,0],[112.63375256500001,-7.4478530589999536,0],[112.63397504500006,-7.4479137349999291,0],[112.63441524500001,-7.4481052819999718,0],[112.63476491500001,-7.4482403869999416,0],[112.63497798700007,-7.4483551249999778,0],[112.6353486700001,-7.4485993529999632,0],[112.63574893300006,-7.4488119819999383,0],[112.63613237600009,-7.4490431329999751,0],[112.63629319100005,-7.4491329629999541,0],[112.63644908900005,-7.4491873419999592,0],[112.63665431800007,-7.4492503969999575,0],[112.6367774150001,-7.4492726929999549,0],[112.63701064200006,-7.4492640789999314,0],[112.63720873200009,-7.449232550999966,0],[112.63750557000003,-7.4491915059999769,0],[112.63782025400008,-7.4491284499999324,0],[112.63816825000004,-7.4490677739999569,0],[112.63865841900008,-7.448992225999973,0],[112.63906471200005,-7.4489273849999336,0],[112.63958997800012,-7.4488441039999316,0],[112.64000340900009,-7.4487988949999249,0],[112.64032642100005,-7.4487620129999641,0],[112.64055128000007,-7.4487649869999473,0],[112.64067560700005,-7.4487941359999468,0],[112.64093377800009,-7.4488863399999445,0],[112.6412329960001,-7.4490297019999616,0],[112.64132401000006,-7.4490874039999539,0],[112.64147017000005,-7.4491887189999488,0],[112.64158094000004,-7.4493148429999678,0],[112.64176225500012,-7.44950615099998,0],[112.6418793250001,-7.4496089439999764,0],[112.64210347000005,-7.4497017429999346,0],[112.6428035240001,-7.4498898319999398,0],[112.64312388200005,-7.4499662849999595,0],[112.64339551700004,-7.4500072659999432,0],[112.64361537900004,-7.4500572349999743,0],[112.64458191600011,-7.4503013669999518,0],[112.6455141890001,-7.4505312229999276,0],[112.64647216000003,-7.4507824939999523,0],[112.64698612400002,-7.4509352559999797,0],[112.64714602400011,-7.4510037839999654,0],[112.6472116970001,-7.4510423309999396,0],[112.64723924500004,-7.4510702309999601,0],[112.64726737600006,-7.4511251369999627,0],[112.64726594900003,-7.4511936649999484,0],[112.64725309900007,-7.4513350049999758,0],[112.64722154200001,-7.4516917449999482,0],[112.64732317900007,-7.4517957239999646,0],[112.64747237100005,-7.4518899509999414,0],[112.64762201700012,-7.4519344829999454,0],[112.64789567700007,-7.4519813219999378,0],[112.64813838200007,-7.45203343299994,0],[112.64834182600009,-7.4520784039999626,0],[112.64879725500009,-7.4522247409999522,0],[112.64918415500006,-7.4523387169999751,0],[112.64961342600009,-7.4524699999999484,0],[112.64990233600008,-7.4525877989999572,0],[112.65000512800009,-7.4526648939999518,0],[112.6501093490001,-7.4528005229999508,0],[112.65021356900002,-7.4529490019999685,0],[112.65035776500008,-7.4532159769999566,0],[112.65043846700007,-7.4532923249999499,0],[112.65051623700003,-7.4533473229999458,0],[112.6506747090001,-7.4533801599999379,0],[112.65096309900002,-7.4534158519999778,0],[112.65142852200006,-7.4535671849999403,0],[112.65219731800005,-7.4538008709999417,0],[112.65268841700004,-7.4538447059999271,0],[112.65336563800008,-7.4539078239999412,0],[112.65332946300009,-7.4541412179999611,0],[112.65357434100008,-7.4541922239999394,0],[112.6537240560001,-7.4542223919999628,0],[112.65426433500011,-7.4542956229999504,0],[112.6542952210001,-7.4540196779999519,0],[112.65459303700004,-7.4540515789999517,0],[112.65483905800011,-7.4540779319999615,0],[112.65503621000005,-7.4541116449999549,0],[112.65536729700011,-7.4541950969999675,0],[112.65583650800011,-7.4542952569999557,0],[112.65641798400009,-7.4544193979999704,0],[112.65678066600003,-7.4544912469999645,0],[112.65726863800001,-7.4546085599999401,0],[112.65757377900002,-7.4546763179999402,0],[112.65806021100002,-7.4547663629999761,0],[112.65844879500003,-7.4548424199999772,0],[112.65892809000002,-7.4549468439999487,0],[112.65920295600006,-7.4549946179999438,0],[112.65940300600005,-7.4550340599999458,0],[112.65976143400007,-7.4551217119999365,0],[112.66003345500008,-7.4551781079999273,0],[112.66024789800008,-7.4552203669999813,0],[112.66051971800005,-7.4552802189999738,0],[112.66061075200003,-7.4550304649999362,0],[112.66093055200008,-7.4541186559999346,0],[112.66127509800003,-7.4530907279999496,0],[112.66160822200004,-7.4521313299999292,0],[112.66192992500009,-7.4511795449999454,0],[112.66201939300004,-7.4509187559999646,0],[112.66225031200008,-7.4502806739999414,0],[112.6622574480001,-7.4502662929999701,0],[112.66237911700011,-7.4503068609999445,0],[112.6625549260001,-7.4503885539999715,0],[112.66266237400009,-7.4504461729999321,0],[112.66287196000007,-7.4499774319999688,0],[112.662945132,-7.4499950999999669,0],[112.66304765100006,-7.4500218679999648,0],[112.6631007090001,-7.4500265559999548,0],[112.66317148000007,-7.4500269819999403,0],[112.66332709700009,-7.4500055669999483,0],[112.66343702800009,-7.4499841519999563,0],[112.6635769400001,-7.4499841519999563,0],[112.66373684000007,-7.4499962869999763,0],[112.66390602000001,-7.4500312649999501,0],[112.66410803600002,-7.4500790919999531,0],[112.664299615,-7.4501709099999402,0],[112.66442498000004,-7.4499927179999759,0],[112.66451270900006,-7.4498482039999772,0],[112.66464009200001,-7.4496383679999667,0],[112.66482238000003,-7.4492383769999719,0],[112.66484775100002,-7.4491826899999296,0],[112.66492262400004,-7.4489661169999408,0],[112.66499008300002,-7.4487652729999354,0],[112.66501760800008,-7.448708144999955,0],[112.66504308800006,-7.4486389429999349,0],[112.66515426500007,-7.4487091179999538,0],[112.66518762900012,-7.4485909479999464,0],[112.66528965700002,-7.4481354299999794,0],[112.66534864800008,-7.4479249959999265,0],[112.66539911200005,-7.4477318729999524,0],[112.66546002600001,-7.4474872639999603,0],[112.66552474700006,-7.4472007769999777,0],[112.66559517900009,-7.4469228559999578,0],[112.66568655100002,-7.4465659369999457,0],[112.66578839200008,-7.4461652359999562,0],[112.66585882400011,-7.4458816039999647,0],[112.66594638800007,-7.4455075529999704,0],[112.66602838500012,-7.4451784259999272,0],[112.66600706500003,-7.4451718219999634,0],[112.66586524800005,-7.4451246289999631,0],[112.66597855500004,-7.4446634289999452,0],[112.66603370400003,-7.4444236319999391,0],[112.66610314800005,-7.444401351999943,0],[112.66615011200008,-7.4444183289999728,0],[112.66617961800011,-7.4444192809999663,0],[112.66621911700008,-7.4443954859999621,0],[112.66623529700007,-7.4443754979999426,0],[112.66628859700006,-7.4443107769999415,0],[112.66633285500006,-7.4442546219999599,0],[112.66641185300011,-7.4442222609999362,0],[112.66650988700007,-7.4441946589999475,0],[112.66657984300002,-7.4442108399999256,0],[112.66667311800006,-7.4442346339999403,0],[112.66674830900001,-7.4442484349999631,0],[112.66681921700001,-7.4442398689999436,0],[112.66691058800006,-7.4442222609999362,0],[112.66701956700001,-7.4441689609999457,0],[112.66712236000001,-7.4441394559999594,0],[112.66721040000004,-7.4441304139999716,0],[112.66725608600007,-7.4441323179999586,0],[112.66733127700002,-7.4441708649999327,0],[112.66738886000007,-7.4442398689999436,0],[112.66742835900004,-7.4443274329999554,0],[112.66748023100001,-7.4444611589999568,0],[112.66748748400005,-7.4445225219999429,0],[112.66748737000012,-7.444582511999954,0],[112.66751068800011,-7.4446272449999356,0],[112.66755018700007,-7.4446686479999471,0],[112.66763822700011,-7.4447143339999684,0],[112.66770818300006,-7.4447609709999369,0],[112.66783286700002,-7.4448099879999745,0],[112.66790520300003,-7.4448337829999787,0],[112.66813125200008,-7.4448333069999535,0],[112.66830923500004,-7.4448180779999689,0],[112.66843534700001,-7.4448080839999307,0],[112.66847912900005,-7.4448104639999428,0],[112.66860571600012,-7.4448499629999674,0],[112.66868471400005,-7.4448956489999318,0],[112.66875352800002,-7.4449729019999609,0],[112.66879540700006,-7.4450557069999377,0],[112.66886298400004,-7.445153740999956,0],[112.66891723500009,-7.4452327389999482,0],[112.6689791010001,-7.4453050749999647,0],[112.66901907600004,-7.445329820999973,0],[112.66907618300002,-7.4453526639999268,0],[112.6691332900001,-7.4453736029999504,0],[112.66920848100006,-7.4454135779999433,0],[112.66926844400007,-7.4454573599999776,0],[112.66931127400005,-7.4455116119999616,0],[112.66944452400003,-7.4456429579999508,0],[112.66950353400011,-7.4456924509999567,0],[112.66960727900005,-7.4457105349999324,0],[112.66968247000011,-7.4456895949999762,0],[112.66976527500003,-7.445669607999946,0],[112.66987473000006,-7.4456524759999638,0],[112.66994516200009,-7.4456534279999573,0],[112.67000893200009,-7.4456734149999306,0],[112.67004795500009,-7.4457000649999259,0],[112.67007555700002,-7.4457524129999797,0],[112.6700812680001,-7.4458694829999672,0],[112.67007746000002,-7.4459351559999618,0],[112.67005662800011,-7.4460023709999632,0],[112.67004005500007,-7.4460488939999436,0],[112.67004131500005,-7.446105035999949,0],[112.67005899600008,-7.4461842819999333,0],[112.67008526500001,-7.4462363959999607,0],[112.67011310600003,-7.446266947999959,0],[112.67025539200006,-7.4461397719999809,0],[112.67031368900007,-7.446082664999949,0],[112.67032677600002,-7.4460053329999596,0],[112.67032130300004,-7.445922229999951,0],[112.67027633100008,-7.4457366319999778,0],[112.67024991900007,-7.4456338399999709,0],[112.67024349500002,-7.4456117109999695,0],[112.670249205,-7.4455610279999291,0],[112.67028346900008,-7.4453761439999653,0],[112.67030988200008,-7.4452890559999787,0],[112.67034414600005,-7.4452176719999557,0],[112.67037965300005,-7.4451807799999301,0],[112.67041588800009,-7.4451577749999274,0],[112.67044765200001,-7.4451141649999499,0],[112.6704833440001,-7.4450570579999749,0],[112.67050190400005,-7.4449928129999421,0],[112.67056043900004,-7.4447708089999765,0],[112.67058167300002,-7.4447004769999694,0],[112.67059654900004,-7.4446128699999576,0],[112.67063882700006,-7.444362822999949,0],[112.67076959300005,-7.443652937999957,0],[112.67081813400011,-7.4433524119999674,0],[112.67090595200011,-7.4428145789999576,0],[112.6707002500001,-7.4427662799999439,0],[112.67036617400004,-7.4426544449999597,0],[112.67013108300011,-7.4425725919999763,0],[112.6698779080001,-7.4424902619999784,0],[112.66957048200004,-7.442386517999978,0],[112.66923593000001,-7.4422737309999434,0],[112.66900702500004,-7.4421904499999414,0],[112.6688642580001,-7.4421423849999542,0],[112.66873053200004,-7.4421005069999637,0],[112.66852875400002,-7.4420305499999699,0],[112.66840136200005,-7.4419900989999519,0],[112.66832792700006,-7.4419667809999623,0],[112.66808569800003,-7.4418863549999514,0],[112.66786964300002,-7.441811639999969,0],[112.66759790900005,-7.4417197929999475,0],[112.66736424600003,-7.4416379389999747,0],[112.66716437100001,-7.4415722659999801,0],[112.66698258000008,-7.4415142069999547,0],[112.66685549200008,-7.4414736339999763,0],[112.66666516000009,-7.4414114149999477,0],[112.66643435200001,-7.4413300369999433,0],[112.6661564310001,-7.4412258169999745,0],[112.66586804100007,-7.44112445199994,0],[112.66558393300011,-7.4410273699999721,0],[112.66515229900006,-7.4408798429999479,0],[112.66476444700004,-7.4407551589999343,0],[112.66440276800006,-7.4406299999999419,0],[112.66397684500009,-7.4404810449999559,0],[112.66365588100007,-7.4403715499999521,0],[112.66361136,-7.4403563619999318,0],[112.66330631300002,-7.4402564239999265,0],[112.66293416500002,-7.4401326919999633,0],[112.66260817900002,-7.4400256169999466,0],[112.66199356400011,-7.4398176519999311,0],[112.66166662600006,-7.4397084339999537,0],[112.66126045200008,-7.4395770879999645,0],[112.66096849200005,-7.4394750089999775,0],[112.66093733100001,-7.4394568639999648,0],[112.66091209900003,-7.4394421729999749,0],[112.66086712700007,-7.4394139759999689,0],[112.66081644500002,-7.4393875639999578,0],[112.66080145400008,-7.4393697179999663,0],[112.66081608800005,-7.4392944079999666,0],[112.66080038300004,-7.4391412899999523,0],[112.66079824200006,-7.4390863239999589,0],[112.66079895600001,-7.4390591979999385,0],[112.66081965700005,-7.4390356419999648,0],[112.66086248700003,-7.4390192239999351,0],[112.66089889300008,-7.4389821039999333,0],[112.66093244400008,-7.4389392739999494,0],[112.66096813500008,-7.4388914459999569,0],[112.66098669500002,-7.438857895999945,0],[112.66099613400002,-7.4388315869999815,0],[112.66099369000005,-7.4388023549999502,0],[112.66096171100003,-7.4387536759999762,0],[112.66090674500003,-7.4386951409999256,0],[112.66085463500008,-7.4386301819999403,0],[112.66080410300003,-7.4385480509999411,0],[112.66076968800007,-7.4384759929999404,0],[112.6607497010001,-7.4384288789999573,0],[112.66073471000004,-7.4384074639999653,0],[112.66067974500004,-7.4383746279999627,0],[112.66061193000007,-7.4383524989999614,0],[112.66052957300008,-7.4383091919999629,0],[112.66050699600009,-7.4382846839999388,0],[112.66050199900008,-7.438238283999965,0],[112.66050271300003,-7.4381990229999815,0],[112.66050128500001,-7.4381483409999305,0],[112.66049343300006,-7.4380776709999736,0],[112.66047558700006,-7.4380326989999617,0],[112.66043812300006,-7.4380039219999503,0],[112.66042633200004,-7.43799486599994,0],[112.66041848000009,-7.4379791609999302,0],[112.6604042030001,-7.4379134879999356,0],[112.6603970650001,-7.4378528119999601,0],[112.66035209300003,-7.4377885659999379,0],[112.66031568700009,-7.4377664369999366,0],[112.66029998300007,-7.4377093299999615,0],[112.6602823930001,-7.4376362529999369,0],[112.66020861100003,-7.4375944019999451,0],[112.66017506100002,-7.4375658489999523,0],[112.66014579400007,-7.4375351539999315,0],[112.66012009600001,-7.4374880399999483,0],[112.66011852400004,-7.4374603389999265,0],[112.66011581300006,-7.4374237949999724,0],[112.66013223100003,-7.4373788229999604,0],[112.66016078400003,-7.4373238579999565,0],[112.66017606600008,-7.4372856489999322,0],[112.66018148600006,-7.4372539009999628,0],[112.66017292000004,-7.4372260619999793,0],[112.66004871200005,-7.4371282659999451,0],[112.65996662000009,-7.4370740139999612,0],[112.65990380300002,-7.4370440329999496,0],[112.65988320700001,-7.4370328999999629,0],[112.65985097800001,-7.4370154789999674,0],[112.65983241900005,-7.4369633689999546,0],[112.65982028300004,-7.4368213149999747,0],[112.65981385900011,-7.4364879529999257,0],[112.65982956300002,-7.4362580969999499,0],[112.65986097200005,-7.4361146149999513,0],[112.6598794140001,-7.4360235579999312,0],[112.65988381500006,-7.436001828999963,0],[112.65988260200004,-7.4359578759999749,0],[112.65987914300001,-7.4359513289999768,0],[112.65986811100004,-7.4359304449999399,0],[112.65980101000002,-7.4358890429999747,0],[112.65972034600009,-7.4358504949999542,0],[112.65964253800007,-7.4358205139999427,0],[112.65959206800005,-7.4357917409999459,0],[112.6597503910001,-7.4354616759999317,0],[112.65987031600002,-7.4351368789999697,0],[112.65992742300011,-7.4349548499999401,0],[112.65997096700005,-7.4347863839999491,0],[112.66002593200005,-7.4345886509999559,0],[112.66023522300009,-7.4346016909999548,0],[112.66042532900008,-7.4346001389999401,0],[112.66052670700003,-7.4345993109999426,0],[112.6608110520001,-7.4346088289999557,0],[112.66091918600011,-7.4346313209999266,0],[112.66110848500011,-7.4346706949999657,0],[112.66154749600003,-7.4348206009999558,0],[112.66199245500002,-7.4349550409999665,0],[112.66215187900002,-7.4349871629999598,0],[112.66271343100004,-7.4350002499999732,0],[112.66294899800005,-7.4349705069999459,0],[112.66332733200011,-7.4349574199999324,0],[112.66358193500002,-7.4349800249999589,0],[112.66373778900004,-7.4350109579999639,0],[112.66386233100002,-7.435031462999973,0],[112.66390668500003,-7.4348130759999549,0],[112.66469090200007,-7.4318190879999406,0],[112.6648314680001,-7.4318127029999346,0],[112.66491546400005,-7.4317779369999357,0],[112.66498792000004,-7.4317338849999715,0],[112.66505959000006,-7.4316718919999403,0],[112.66505671000004,-7.4315637529999776,0],[112.6651473820001,-7.4315549499999634,0],[112.66530061900005,-7.431514022999977,0],[112.66541197800007,-7.4314807099999598,0],[112.66546037300009,-7.4314574209999478,0],[112.66550144600001,-7.4310590699999466,0],[112.66551667400006,-7.4309020249999662,0],[112.66552809600012,-7.4308211239999764,0],[112.66551191600001,-7.4307544989999315,0],[112.66546147100007,-7.4306916809999279,0],[112.66544053200005,-7.4306536099999789,0],[112.66543577300001,-7.4305888879999316,0],[112.66543104700008,-7.4304450989999395,0],[112.66544853500011,-7.4303740709999602,0],[112.66552005000005,-7.4301666819999355,0],[112.66555145900008,-7.430061033999948,0],[112.66556930800004,-7.4300028389999397,0],[112.66556478400003,-7.4299049409999611,0],[112.66556039900001,-7.4298534499999391,0],[112.66553049000004,-7.4295022519999634,0],[112.66550482200012,-7.4292815219999397,0],[112.66551529100002,-7.4290987799999471,0],[112.66553303100011,-7.4287023039999553,0],[112.66552707000005,-7.4286058739999703,0],[112.66550922400006,-7.4285594749999291,0],[112.66547234200004,-7.4285053419999372,0],[112.665454866,-7.4284386559999689,0],[112.66544557300006,-7.4283536509999522,0],[112.66544021900006,-7.4283072519999678,0],[112.66541820200007,-7.4282537019999495,0],[112.66540452700008,-7.4281448539999815,0],[112.66540631200007,-7.428069900999958,0],[112.66546104000008,-7.427939624999965,0],[112.66549554200003,-7.4278486109999449,0],[112.66550446500003,-7.4277956679999306,0],[112.66552766500001,-7.4277028689999725,0],[112.66555800300011,-7.4276267259999713,0],[112.66561273000002,-7.4275196499999652,0],[112.66564901700008,-7.4274655179999627,0],[112.66566537400001,-7.4274365069999249,0],[112.66567935500007,-7.4273971079999797,0],[112.6656814370001,-7.4273578469999393,0],[112.66567548900002,-7.4272849759999531,0],[112.66567132500006,-7.4272332229999733,0],[112.66566597100007,-7.4271886079999376,0],[112.66565913000011,-7.4271657059999256,0],[112.66562938700008,-7.4271112749999588,0],[112.66557584900011,-7.4270268049999686,0],[112.6655175520001,-7.4269688049999445,0],[112.66543456800002,-7.4268896879999602,0],[112.66537002500002,-7.4268200139999294,0],[112.66530863500009,-7.4267729009999357,0],[112.66526437700009,-7.4267236459999708,0],[112.66518656900007,-7.4266515489999279,0],[112.66515872900004,-7.426611573999935,0],[112.66514516600012,-7.4265530749999584,0],[112.66514088300005,-7.4264916849999736,0],[112.66513196000005,-7.4263721169999712,0],[112.66513552900005,-7.4263303569999266,0],[112.66516194100006,-7.4262325609999493,0],[112.6651683660001,-7.4261775959999454,0],[112.66517621800006,-7.4260598119999486,0],[112.66518082100004,-7.4259548599999334,0],[112.66510447700011,-7.4259315589999346,0],[112.6650302380001,-7.4259191859999305,0],[112.66497408300006,-7.4259248969999589,0],[112.66492554200011,-7.4259363179999696,0],[112.66488176000007,-7.4259448839999322,0],[112.66484749600011,-7.4259505949999607,0],[112.66481378300011,-7.4259420609999438,0],[112.66476882400002,-7.4258927839999274,0],[112.66473625600008,-7.4258157989999631,0],[112.66472792800005,-7.4257699939999497,0],[112.66471781500002,-7.4256605389999777,0],[112.66470353800003,-7.4255385909999632,0],[112.66467558000011,-7.4254844589999607,0],[112.66464405200009,-7.42543805899993,0],[112.66459824700007,-7.4253851159999726,0],[112.66449771500004,-7.4253048089999538,0],[112.6643638700001,-7.4252352099999257,0],[112.66425414900004,-7.4251817419999497,0],[112.66424668200011,-7.4251781029999506,0],[112.66412770900001,-7.4251257549999536,0],[112.66406405800001,-7.4250876839999478,0],[112.66402479700002,-7.4250561559999255,0],[112.66398196700004,-7.4250180839999302,0],[112.66393616200003,-7.4249835819999248,0],[112.66389987500008,-7.4249687109999627,0],[112.66387429600002,-7.4249657359999333,0],[112.66383741400011,-7.424974658999929,0],[112.66378804100009,-7.4249960739999779,0],[112.66372795900008,-7.4250180839999302,0],[112.66369702600002,-7.4250210589999597,0],[112.66364824700008,-7.4250032129999681,0],[112.6636036320001,-7.4249835819999248,0],[112.66356377600005,-7.4249734689999514,0],[112.66352511000002,-7.4249704949999682,0],[112.66346324400001,-7.4249621669999328,0],[112.6634245780001,-7.424955028999932,0],[112.66339959400011,-7.4249419419999754,0],[112.6633774280001,-7.4249124979999692,0],[112.66337639400001,-7.4248800759999654,0],[112.66338710100001,-7.4248199939999608,0],[112.6634210090001,-7.4247289799999407,0],[112.66346621900004,-7.424661164999975,0],[112.66350548000003,-7.4245921609999641,0],[112.66352273100006,-7.4245338639999545,0],[112.66354057700005,-7.4244535569999357,0],[112.66354497900011,-7.4244303569999488,0],[112.66354854800011,-7.4243778899999597,0],[112.66354783400004,-7.4243275649999418,0],[112.6635690710001,-7.4242607139999564,0],[112.66359762400009,-7.4241879019999715,0],[112.66364830700002,-7.4241179459999671,0],[112.66369756200004,-7.4240479899999627,0],[112.66371398000001,-7.423998734999941,0],[112.66371713800004,-7.4239464539999744,0],[112.66369970300002,-7.4238859489999527,0],[112.66369470600011,-7.4238431179999793,0],[112.66370541400011,-7.4237974329999474,0],[112.66377251500001,-7.4236960679999697,0],[112.66383890200007,-7.4236196869999276,0],[112.6638881560001,-7.4235718599999814,0],[112.6639118920001,-7.4235504449999326,0],[112.66392188500004,-7.4235218909999503,0],[112.66391795900006,-7.4234751349999328,0],[112.66390047000004,-7.423428734999959,0],[112.66387548600005,-7.4234005389999425,0],[112.66384718800009,-7.4233740809999631,0],[112.66369097200004,-7.42334074799993,0],[112.66360106700006,-7.4233229139999253,0],[112.66350156600004,-7.4232779299999265,0],[112.6633835450001,-7.4232360519999361,0],[112.66327419700008,-7.4232120459999464,0],[112.66319319900003,-7.4231861589999539,0],[112.66309697600002,-7.423155405999978,0],[112.66303519200005,-7.423124692999977,0],[112.66300283100009,-7.4231123199999729,0],[112.66293840700007,-7.4231047269999522,0],[112.66283725900007,-7.4230738229999815,0],[112.66237881800009,-7.4229480179999427,0],[112.66201178600011,-7.422812983999961,0],[112.66162750300009,-7.4226999589999423,0],[112.66145915600009,-7.42264225699995,0],[112.66127355800006,-7.4225637349999261,0],[112.66114863600001,-7.4225304229999551,0],[112.66103323300001,-7.4225084129999459,0],[112.66084882400003,-7.4224786689999291,0],[112.66071319500008,-7.4224453569999582,0],[112.66060123300008,-7.4223913489999518,0],[112.66049250000003,-7.4223489889999428,0],[112.66038126000001,-7.4223132969999597,0],[112.66029323400005,-7.4222967479999511,0],[112.66018376500006,-7.4222823639999547,0],[112.66009513000006,-7.4222615439999799,0],[112.660042782,-7.4222389389999535,0],[112.65998091600011,-7.4221895649999396,0],[112.65989347100003,-7.4221526829999789,0],[112.65970787300012,-7.4220985509999764,0],[112.65959841800009,-7.422074160999955,0],[112.6594068710001,-7.4220176489999403,0],[112.65919034000001,-7.421948049999969,0],[112.65885245700008,-7.4218332409999448,0],[112.65863414100011,-7.4217428209999525,0],[112.65852766,-7.4217166469999256,0],[112.65846103500007,-7.421703559999969,0],[112.6583152930001,-7.421651211999972,0],[112.65817133600001,-7.4216054069999586,0],[112.65803268600007,-7.4215734339999813,0],[112.65781620100006,-7.4214947619999521,0],[112.65758777300005,-7.4214186199999403,0],[112.65751579400001,-7.4213942299999758,0],[112.65741169300009,-7.4213870919999749,0],[112.65728320200003,-7.4213460459999396,0],[112.65717255700008,-7.4213014309999608,0],[112.65707618900001,-7.4212639549999722,0],[112.65701313300008,-7.4212443239999288,0],[112.65694788000008,-7.4212337199999752,0],[112.65699543000005,-7.4210322369999631,0],[112.65702541200005,-7.4209094569999365,0],[112.65705420300003,-7.4208016669999779,0],[112.65713629400011,-7.42049471699994,0],[112.65722838000011,-7.4201692059999687,0],[112.65730761600003,-7.4198893819999512,0],[112.65738256900011,-7.4196166959999346,0],[112.65745323900001,-7.4193518619999281,0],[112.65750891800008,-7.4191412789999731,0],[112.65758958200001,-7.418860026999937,0],[112.65766239300001,-7.4186116109999602,0],[112.65769808500011,-7.4184674159999417,0],[112.65774814400004,-7.4183131999999432,0],[112.65775171500002,-7.418160261999958,0],[112.65788708600007,-7.4177976609999519,0],[112.65793365200011,-7.4176322249999771,0],[112.65796779400011,-7.4175536099999704,0],[112.65798582000002,-7.4173452659999271,0],[112.65800105200003,-7.4171139039999616,0],[112.6580301780001,-7.4169215169999347,0],[112.6580686210001,-7.4167556649999256,0],[112.65815609900005,-7.416618830999937,0],[112.65826662500001,-7.4164987209999254,0],[112.65853105400004,-7.4162177639999527,0],[112.6585589120001,-7.41607128499993,0],[112.65857039600007,-7.4159525639999515,0],[112.6586481490001,-7.4156071829999632,0],[112.65870328900007,-7.4153268199999616,0],[112.65875224000001,-7.4150871399999687,0],[112.65877169800001,-7.4149624699999777,0],[112.65888448400005,-7.4144684939999479,0],[112.65897728300001,-7.4140177049999352,0],[112.65908435900008,-7.413516589999972,0],[112.65922427100008,-7.412858430999961,0],[112.65927236100003,-7.4126141709999729,0],[112.65930850400002,-7.4124629649999747,0],[112.65948696400005,-7.4116406229999257,0],[112.65957976300001,-7.4112522949999402,0],[112.65965828500009,-7.4108653949999734,0],[112.6597452740001,-7.4105964449999533,0],[112.65974365300008,-7.4105430879999403,0],[112.65970201300001,-7.4104110279999418,0],[112.65965085400001,-7.4103360749999752,0],[112.65956757300012,-7.4102527939999732,0],[112.65942123600007,-7.4101849789999505,0],[112.65928203800001,-7.4101588049999805,0],[112.65921422300005,-7.410126681999941,0],[112.65918702100009,-7.410085472999981,0],[112.6591344520001,-7.4099918439999328,0],[112.6591035780001,-7.4098720799999569,0],[112.65905468500011,-7.4097132799999486,0],[112.6589531840001,-7.409585811999932,0],[112.65879398300001,-7.4094727669999543,0],[112.65869294300001,-7.4094429189999573,0],[112.65861403500003,-7.40941960899994,0],[112.6584956260001,-7.4094104649999508,0],[112.6583433400001,-7.4093914289999816,0],[112.65815060400007,-7.4093676339999774,0],[112.65807089200007,-7.409333131999972,0],[112.65781466600004,-7.4092163189999383,0],[112.65769090400011,-7.4091831209999555,0],[112.65751940200005,-7.4091389969999568,0],[112.65741732400011,-7.4091327219999812,0],[112.65704377100008,-7.4091097589999322,0],[112.65643384200007,-7.4091394719999357,0],[112.65632317800009,-7.4091296879999504,0],[112.6562291890001,-7.4091070829999808,0],[112.6561352010001,-7.409052355999961,0],[112.65607571400005,-7.4090202329999784,0],[112.65597815600006,-7.4089702639999473,0],[112.65586870100003,-7.408964315999981,0],[112.65574734800009,-7.4089666949999469,0],[112.65561171900004,-7.4090107149999653,0],[112.65543326000011,-7.4090725809999753,0],[112.65527374700002,-7.409087364999948,0],[112.65503351000007,-7.4090559249999615,0],[112.65478699800008,-7.4089902519999669,0],[112.65430444300011,-7.4088317799999572,0],[112.65366056100004,-7.4086304769999742,0],[112.65271309200011,-7.408372351999958,0],[112.65266114000008,-7.4083576799999378,0],[112.6525625700001,-7.4083572629999708,0],[112.6524410400001,-7.4083457829999588,0],[112.65226258000007,-7.4083065219999753,0],[112.65187472800005,-7.40820658399997,0],[112.65177717000006,-7.4081601849999288,0],[112.65168800200001,-7.4081113179999534,0],[112.65149044500004,-7.40802098599994,0],[112.65131912400011,-7.4079484129999287,0],[112.65115018200004,-7.4078996339999321,0],[112.65096339500008,-7.4078770289999625,0],[112.65068261800002,-7.4078401469999449,0],[112.65053866100004,-7.4078282499999659,0],[112.65045300000008,-7.4078104039999744,0],[112.65034772900003,-7.4077363049999576,0],[112.65028995400007,-7.4076491679999776,0],[112.65026581600011,-7.4075738659999502,0],[112.65023916600001,-7.4073901709999745,0],[112.65023631100007,-7.4071779229999493,0],[112.65024202100005,-7.4069732899999394,0],[112.65024868400008,-7.4068724009999301,0],[112.65022584100006,-7.4068200519999436,0],[112.65019393600005,-7.4067711939999299,0],[112.65016207100007,-7.406756282999936,0],[112.65010496400009,-7.4067410539999514,0],[112.65002215900006,-7.4067391509999538,0],[112.64984227200011,-7.4067439099999319,0],[112.64948440100011,-7.4067838849999248,0],[112.64908560300012,-7.4068276669999591,0],[112.64874867200001,-7.4068657379999649,0],[112.64836510200007,-7.4069028579999667,0],[112.6480119900001,-7.406927603999975,0],[112.64775596000004,-7.4069371219999312,0],[112.64756750700008,-7.4069656749999808,0],[112.64750468900002,-7.4070113609999453,0],[112.64744282300001,-7.4071265269999458,0],[112.64740094500007,-7.4072274159999552,0],[112.64738000600005,-7.4073064139999474,0],[112.64734574100009,-7.4074644099999318,0],[112.64722772000005,-7.4075805279999258,0],[112.64709161500002,-7.4076490569999578,0],[112.64692790800007,-7.407671898999979,0],[112.64662809600009,-7.4076576229999773,0],[112.64637396900002,-7.4076252619999536,0],[112.64599420700006,-7.4075643479999371,0],[112.64571628600004,-7.4074805909999668,0],[112.64550308700007,-7.4074196769999503,0],[112.64528798300012,-7.4073863639999331,0],[112.64514426400001,-7.4073501959999248,0],[112.64467884100009,-7.4071617429999606,0],[112.6442105640001,-7.4069942289999631,0],[112.64407439100012,-7.4069643109999674,0],[112.6440068820001,-7.406975192999937,0],[112.64397261700003,-7.4070075539999607,0],[112.64392586500003,-7.4071462039999574,0],[112.64388284100005,-7.407330136999974,0],[112.6438279460001,-7.4075129509999442,0],[112.64380510300009,-7.4075795759999323,0],[112.64376036900001,-7.4076690439999311,0],[112.64368422700011,-7.4077413799999476,0],[112.64360801700002,-7.4077752309999596,0],[112.6435195680001,-7.407770884999934,0],[112.64340725700004,-7.4077499459999672,0],[112.64329875400006,-7.4077242479999654,0],[112.64310268600002,-7.4076519119999489,0],[112.64303130300004,-7.407618599999978,0],[112.64293326900008,-7.4075814799999762,0],[112.64282286200012,-7.4075691069999721,0],[112.64272197300011,-7.4075491189999525,0],[112.64257254300003,-7.4075034339999775,0],[112.64249640000003,-7.4074625069999342,0],[112.64241073900007,-7.4074330019999479,0],[112.64230413900009,-7.4074158689999763,0],[112.6421975400001,-7.4074092069999438,0],[112.64208618100008,-7.407391122999968,0],[112.64190629300003,-7.4073473409999337,0],[112.64173592400005,-7.4073244979999799,0],[112.64159601200004,-7.4073140279999734,0],[112.64148941200006,-7.4072978479999279,0],[112.64131523500009,-7.4072597769999788,0],[112.64110203600001,-7.4071731639999712,0],[112.64099448400009,-7.4071151059999352,0],[112.64084981300005,-7.4070608539999512,0],[112.64071846700006,-7.407038962999934,0],[112.64060577500004,-7.4070464029999812,0],[112.64057618700008,-7.4070362299999601,0],[112.64053407000006,-7.4069998249999571,0],[112.64053264300003,-7.4069712709999749,0],[112.64054691900003,-7.4069327239999438,0],[112.64057975600008,-7.4068756169999688,0],[112.64059260500005,-7.4068606259999683,0],[112.64060117100007,-7.4068277899999657,0],[112.64063686300005,-7.4066771699999663,0],[112.64067112700002,-7.4064544519999345,0],[112.64068754500011,-7.4062745649999329,0],[112.64069057800009,-7.4061700929999574,0],[112.64074036900001,-7.4059676139999624,0],[112.64075568100009,-7.4057990889999701,0],[112.64052479000009,-7.40576845399994,0],[112.64029636200007,-7.4057413279999764,0],[112.64008720700008,-7.4057063499999458,0],[112.6399213740001,-7.405698455999925,0],[112.63980238600004,-7.4056892179999636,0],[112.63977201200009,-7.4056641739999804,0],[112.63976455300008,-7.4055878519999396,0],[112.63976526600004,-7.4054943399999615,0],[112.63978168500012,-7.4054022549999559,0],[112.63979810300009,-7.4053115969999794,0],[112.63981095200006,-7.4052166569999258,0],[112.63981880400002,-7.4051502699999787,0],[112.63981594900008,-7.4051045839999574,0],[112.63981809000006,-7.404984896999963,0],[112.63983322900003,-7.4048754419999341,0],[112.63985497200008,-7.4047338639999793,0],[112.63988795100011,-7.4045888999999647,0],[112.63990137200005,-7.4045423169999367,0],[112.63991207900006,-7.4044447589999436,0],[112.6399061300001,-7.4043983599999592,0],[112.63987757700011,-7.4043483909999281,0],[112.63978120900003,-7.4042948529999535,0],[112.63959085200008,-7.4041401879999285,0],[112.63946474000011,-7.4039795749999371,0],[112.63937313100007,-7.4038118229999554,0],[112.63924702000008,-7.40350011299995,0],[112.63920585000005,-7.4033129609999264,0],[112.63918382600002,-7.40314103999998,0],[112.63920475000009,-7.403042874999926,0],[112.63924918000009,-7.4029337549999354,0],[112.63929551400008,-7.4028199559999734,0],[112.63929579900002,-7.4027446349999764,0],[112.6393114870001,-7.4025708779999491,0],[112.63922237600002,-7.4025700469999265,0],[112.63907485000004,-7.4025545799999577,0],[112.63859419900007,-7.4025093699999616,0],[112.63710275300002,-7.4023687039999686,0],[112.63708562000011,-7.4023166339999307,0],[112.63707372300007,-7.4022452499999645,0],[112.63705349800011,-7.4021893329999671,0],[112.63700233900011,-7.4021322259999351,0],[112.63692005100006,-7.4021083339999336,0],[112.63664304100007,-7.4020977239999297,0],[112.63647172000003,-7.4020941539999399,0],[112.63635274600006,-7.4020751189999601,0],[112.63628011300011,-7.4020305119999534,0],[112.6362528090001,-7.4020180119999281,0],[112.63623972200003,-7.4018978489999654,0],[112.63616714900002,-7.4015480679999541,0],[112.63614097400011,-7.4011685439999724,0],[112.63611718000004,-7.4009210799999323,0],[112.63610885200001,-7.4007687949999763,0],[112.63611837000008,-7.4006664779999483,0],[112.63612901800002,-7.4005790399999682,0]]]},"properties":{"OBJECTID":3762,"NAMOBJ":"Wonoayu","FCODE":"BA03070040","REMARK":null,"METADATA":"TASWIL1000020260612KECAMATAN_AR","SRS_ID":"4326","KDBBPS":null,"KDCBPS":null,"KDCPUM":"35.15.10","KDEBPS":null,"KDEPUM":null,"KDPBPS":null,"KDPKAB":"35.15","KDPPUM":"35","LUASWH":34.196006547773962,"TIPADM":3,"WADMKC":"Wonoayu","WADMKD":null,"WADMKK":"Sidoarjo","WADMPR":"Jawa Timur","WIADKC":null,"WIADKK":null,"WIADPR":null,"WIADKD":null,"UUPP":null,"SHAPE_Length":0.29373031004893851,"SHAPE_Area":0.0028010065540639718}}]}