{"type":"FeatureCollection","features":[{"type":"Feature","id":3770,"geometry":{"type":"Polygon","coordinates":[[[112.76302952600008,-7.3384994289999668,0],[112.7627624590001,-7.3384792159999392,0],[112.76261449700007,-7.338472602999957,0],[112.76248815000008,-7.3384669559999338,0],[112.76245092700003,-7.3384506889999557,0],[112.76239110900008,-7.3384245469999314,0],[112.76234124300004,-7.3384027539999579,0],[112.7621399410001,-7.338314779999962,0],[112.76210790100004,-7.3383007779999616,0],[112.76175938000006,-7.3381484659999501,0],[112.76171342700002,-7.3381283829999688,0],[112.76117247400009,-7.3379762919999507,0],[112.76110252900003,-7.3379566269999259,0],[112.76093779400003,-7.3379103109999733,0],[112.76089112000011,-7.3378966329999571,0],[112.76067823200003,-7.3378342479999787,0],[112.76062432000003,-7.3378299829999492,0],[112.76053322100006,-7.3378177639999649,0],[112.76048244200001,-7.3378109559999416,0],[112.76018860200008,-7.3377715549999607,0],[112.76015437300009,-7.3377626459999306,0],[112.75985908600001,-7.3376857929999346,0],[112.75964589700004,-7.337630120999961,0],[112.75932379900007,-7.3375460079999471,0],[112.75930754000001,-7.3375422659999572,0],[112.75897603100009,-7.3374659749999296,0],[112.75895218200003,-7.3374604869999303,0],[112.75805142600007,-7.3372531929999809,0],[112.7578972770001,-7.3372177179999767,0],[112.75779833900003,-7.3371949489999793,0],[112.75763324600007,-7.3371569559999443,0],[112.75760510800001,-7.3371504799999343,0],[112.75747644600006,-7.3371169519999739,0],[112.75743792700007,-7.3371069149999357,0],[112.75741115800008,-7.337099938999927,0],[112.75728977600011,-7.3370683089999602,0],[112.75728246000006,-7.3370664029999375,0],[112.75715155000012,-7.3370322889999784,0],[112.75695006600006,-7.3369830949999368,0],[112.75691497300011,-7.3369745269999385,0],[112.75683561700009,-7.3369551509999269,0],[112.75658257800001,-7.3369235009999443,0],[112.75653552300003,-7.336917615999937,0],[112.75643568700002,-7.3369051289999447,0],[112.75638931100002,-7.3368993279999586,0],[112.75638631800007,-7.3368991789999427,0],[112.7562115290001,-7.3368905069999641,0],[112.7561361490001,-7.3368867669999531,0],[112.75611255800004,-7.3368855959999451,0],[112.75594708000006,-7.3368773859999692,0],[112.7559469790001,-7.3368773589999705,0],[112.75582225900007,-7.3368443219999335,0],[112.75581720700006,-7.3368429839999294,0],[112.7557197210001,-7.3368171609999422,0],[112.7556954150001,-7.3368113249999283,0],[112.75556478700003,-7.3367799589999549,0],[112.75548106300005,-7.3367598559999578,0],[112.75541185200007,-7.3367432369999506,0],[112.75541072300007,-7.336743318999936,0],[112.75540992300012,-7.3367433769999479,0],[112.75540666000006,-7.3367436139999427,0],[112.75535577900007,-7.3367473119999431,0],[112.75535009300006,-7.3367477249999524,0],[112.75531937000005,-7.3367499569999381,0],[112.75529658500011,-7.3367516129999331,0],[112.75529079500006,-7.3367520339999714,0],[112.75528918800001,-7.3367521509999278,0],[112.75528184100006,-7.3367526849999649,0],[112.75523460700003,-7.3367561179999257,0],[112.75519931500003,-7.336772089999954,0],[112.75512957900003,-7.3368036499999789,0],[112.75509148200001,-7.3368208909999453,0],[112.75502214400001,-7.3368807599999286,0],[112.75501016500004,-7.3368911029999708,0],[112.75500579400011,-7.3368948769999633,0],[112.75499446000003,-7.3369046639999738,0],[112.75499442300008,-7.3369046959999764,0],[112.7549944000001,-7.3369047159999354,0],[112.75491561100011,-7.3369727459999581,0],[112.75489380300007,-7.3369915759999458,0],[112.75487146100011,-7.3370108669999468,0],[112.75483558100007,-7.337077011999952,0],[112.7548315890001,-7.3370843719999357,0],[112.75479205900001,-7.337157245999947,0],[112.75478270200006,-7.3371766099999718,0],[112.75478254400002,-7.3371769379999705,0],[112.7547822570001,-7.3371775319999415,0],[112.75477729900001,-7.337187791999952,0],[112.75477201500007,-7.3371987299999546,0],[112.75477037200005,-7.337202131999959,0],[112.7547655300001,-7.3372121549999747,0],[112.75476248600012,-7.3372184559999596,0],[112.75473126400004,-7.3372830879999356,0],[112.75471559000005,-7.3373155349999593,0],[112.75468051000007,-7.3373881539999388,0],[112.75467252300007,-7.3374046879999355,0],[112.75465014700001,-7.3374510109999278,0],[112.75460885000007,-7.3375365009999314,0],[112.75459102000002,-7.3375734089999582,0],[112.7545821110001,-7.3375918489999776,0],[112.75458209300007,-7.3375918859999274,0],[112.75457362700001,-7.3376094109999599,0],[112.75450616900002,-7.3377490479999778,0],[112.75443795800004,-7.3378961149999782,0],[112.7543501020001,-7.3380855369999267,0],[112.75433519100011,-7.3381176869999649,0],[112.75431891800008,-7.3381527729999334,0],[112.75426041800006,-7.3382789029999458,0],[112.7542601240001,-7.3382795369999485,0],[112.75424563800004,-7.3383107699999641,0],[112.75424557700001,-7.3383109019999324,0],[112.75424553500011,-7.338310991999947,0],[112.75424551700007,-7.338311029999943,0],[112.75419445800003,-7.3384211169999389,0],[112.75415869800008,-7.3384982169999375,0],[112.75415577900003,-7.3385116449999259,0],[112.7541554280001,-7.3385132619999354,0],[112.75415141000008,-7.3385317499999587,0],[112.75414793500011,-7.3385477409999567,0],[112.7541412700001,-7.3385784049999643,0],[112.75412893000009,-7.3386351839999406,0],[112.75411870800008,-7.3386822159999383,0],[112.75410098900011,-7.338763743999948,0],[112.75408750400004,-7.3388257809999686,0],[112.75408722700001,-7.3388270529999318,0],[112.7540841980001,-7.3390960119999704,0],[112.75408356200001,-7.3391524359999494,0],[112.75408218300004,-7.3392748559999745,0],[112.7540813710001,-7.3393469709999408,0],[112.75408065100009,-7.3394109009999511,0],[112.75407895700005,-7.3395612629999505,0],[112.75407338900004,-7.3400556619999406,0],[112.75407290200008,-7.3400989149999418,0],[112.75401426500002,-7.3403147069999477,0],[112.75399411600006,-7.3403888559999473,0],[112.75398131400004,-7.3404060809999692,0],[112.7539531760001,-7.3404439339999499,0],[112.75391105500012,-7.3405006009999738,0],[112.75379083200005,-7.3406534469999656,0],[112.75375336200011,-7.3407010839999316,0],[112.7537170060001,-7.3408047549999651,0],[112.75370185100007,-7.3408479719999491,0],[112.75369335500011,-7.3408721979999427,0],[112.75369171200009,-7.3408897899999488,0],[112.75368673700007,-7.3409430499999644,0],[112.75368179400004,-7.3409959639999443,0],[112.75368089300002,-7.3410056109999573,0],[112.75366582400011,-7.3411669299999289,0],[112.75366482000004,-7.3411776759999725,0],[112.75366413500001,-7.3416423789999499,0],[112.75366409300011,-7.3416714989999718,0],[112.75366397100004,-7.3417536539999446,0],[112.75363894400004,-7.3420186809999564,0],[112.75363851900011,-7.3420194559999459,0],[112.75362147900012,-7.3420504509999773,0],[112.75359169100011,-7.3421046329999626,0],[112.75357383200003,-7.3421371199999612,0],[112.75346055700004,-7.342230266999934,0],[112.75332919400012,-7.3422674349999397,0],[112.7532163300001,-7.3422816389999639,0],[112.75316629300005,-7.3422879359999342,0],[112.75314920200003,-7.3422900869999808,0],[112.75282655400008,-7.3423306919999618,0],[112.75269486700006,-7.3423472649999439,0],[112.75269336700001,-7.3423474529999453,0],[112.75268567300009,-7.3423484209999401,0],[112.75268137100011,-7.3423486729999468,0],[112.75241030100005,-7.3423642789999803,0],[112.75234867000006,-7.3423624189999259,0],[112.75228491200005,-7.3423604939999336,0],[112.75214192900012,-7.3423561769999424,0],[112.75207534700007,-7.3423541669999395,0],[112.75183136500004,-7.3423468009999624,0],[112.75171980400012,-7.342343428999925,0],[112.75171308900008,-7.3423433839999461,0],[112.75160184300012,-7.3423426339999764,0],[112.75155252100001,-7.3423423009999738,0],[112.75132656300002,-7.3423407769999471,0],[112.75051568300012,-7.3423230679999278,0],[112.75049545600007,-7.342322625999941,0],[112.75022049400002,-7.342282938999972,0],[112.75014046100011,-7.3422713869999257,0],[112.74999922100005,-7.3422669019999489,0],[112.74990646700007,-7.342263953999975,0],[112.74971201900007,-7.3422495009999693,0],[112.74948886100003,-7.3422329129999753,0],[112.74945119500001,-7.342230112999971,0],[112.74921593200008,-7.3422107259999621,0],[112.74910985700001,-7.3422019849999742,0],[112.74892434700007,-7.342194486999972,0],[112.74891438700001,-7.3421940849999601,0],[112.74879595100003,-7.342230069999971,0],[112.74873398200009,-7.3422488979999798,0],[112.74857675800001,-7.342296666999971,0],[112.74855957900002,-7.3422999319999462,0],[112.74813251800003,-7.342381100999944,0],[112.74805884200009,-7.34239510499998,0],[112.74782208100009,-7.3423699869999268,0],[112.74748926700011,-7.3422429349999447,0],[112.74701408400006,-7.3420874139999341,0],[112.74646619000009,-7.3419301479999604,0],[112.74645994200012,-7.3419283549999363,0],[112.74640939300002,-7.3419156669999666,0],[112.74632710500009,-7.3418950119999522,0],[112.74531491900007,-7.3416409499999418,0],[112.74529594500007,-7.3416361859999597,0],[112.74521988900005,-7.3416130999999609,0],[112.74492177700006,-7.3415226089999805,0],[112.74477517200012,-7.3414781079999329,0],[112.74432134300002,-7.3413403479999602,0],[112.74410060700006,-7.341281348999928,0],[112.74407416200006,-7.3412742809999258,0],[112.74380473300005,-7.3412022709999292,0],[112.7434273340001,-7.3410654069999737,0],[112.74312519800003,-7.3408760249999432,0],[112.74302818400008,-7.3408152069999346,0],[112.7429579730001,-7.3408535179999603,0],[112.74294193700007,-7.3408751069999312,0],[112.74288808800009,-7.3409476019999715,0],[112.74288352600001,-7.3409537429999432,0],[112.74288328700004,-7.3409540629999697,0],[112.74288325200007,-7.3409541659999604,0],[112.74282502200003,-7.3411271679999572,0],[112.74281855800007,-7.3411568059999581,0],[112.7427733290001,-7.3413641759999564,0],[112.7427332530001,-7.3415479199999254,0],[112.74269863400002,-7.3417191689999299,0],[112.74265345000003,-7.3419426829999566,0],[112.74264087200004,-7.3420049009999389,0],[112.74263987800009,-7.3420098169999619,0],[112.74258871900008,-7.3422628809999537,0],[112.74255830900006,-7.3424133079999478,0],[112.74249937200011,-7.3427364959999295,0],[112.74244015200009,-7.3430612409999299,0],[112.74242829600007,-7.3431262529999799,0],[112.7423924420001,-7.3433228649999478,0],[112.74233189100005,-7.3436592669999641,0],[112.74232207400007,-7.3437138059999256,0],[112.74229429900004,-7.3438607969999339,0],[112.74228879900011,-7.3438844799999288,0],[112.74225003400011,-7.3440513989999658,0],[112.74221782300003,-7.3441900989999453,0],[112.74220039300008,-7.344265150999945,0],[112.7421409210001,-7.3445212329999663,0],[112.7421065640001,-7.3446691709999641,0],[112.74204003200009,-7.3449756289999755,0],[112.74203921000003,-7.3449787629999719,0],[112.74203732700005,-7.344985946999941,0],[112.74202236500003,-7.3450430209999809,0],[112.74198587500007,-7.3451822119999406,0],[112.74198073200012,-7.3452018309999403,0],[112.74197056300011,-7.3452040059999604,0],[112.74195965500007,-7.345206338999958,0],[112.74195958900009,-7.3452063529999805,0],[112.74189338100007,-7.3452205139999478,0],[112.74186948300007,-7.3452256259999444,0],[112.74161179400005,-7.3452197459999411,0],[112.74112567700001,-7.3451782139999295,0],[112.74084675800009,-7.3451608289999513,0],[112.7408314920001,-7.3451598769999578,0],[112.7406108240001,-7.3451461229999495,0],[112.74017075800009,-7.3451204789999451,0],[112.74013777100004,-7.3451183169999581,0],[112.73995248600011,-7.3451061729999765,0],[112.73987535700007,-7.3451011179999455,0],[112.73979393800005,-7.3450957819999303,0],[112.73971487100005,-7.345090599999935,0],[112.73965236000004,-7.3450867449999464,0],[112.73913006900011,-7.3450545319999492,0],[112.73908094300009,-7.345051501999933,0],[112.73894253700007,-7.3450429659999372,0],[112.73893540500001,-7.3450425259999292,0],[112.73859463000008,-7.3450152699999762,0],[112.73847579200003,-7.3450057649999394,0],[112.73845457700008,-7.3450040679999802,0],[112.73840416000007,-7.3450000359999308,0],[112.73834709200003,-7.3449954709999474,0],[112.73831857300002,-7.3449931899999683,0],[112.73781348000011,-7.3449527909999688,0],[112.73777435800002,-7.3449496619999763,0],[112.73776981500009,-7.3449492989999499,0],[112.73776321500009,-7.344948770999963,0],[112.73756222400004,-7.3449326979999796,0],[112.73753036200003,-7.3449215379999373,0],[112.7375187130001,-7.3449174589999302,0],[112.73751596400007,-7.3449164959999393,0],[112.73748912000008,-7.3449070939999501,0],[112.73741775200006,-7.3448820969999815,0],[112.73740117400007,-7.3448762899999451,0],[112.73736752500008,-7.3448645049999755,0],[112.73735602600004,-7.3448604769999406,0],[112.73735044000011,-7.3448585209999351,0],[112.73733165400006,-7.3448519409999449,0],[112.73733158000005,-7.3448519149999356,0],[112.73731734400008,-7.3448469289999707,0],[112.73723415600011,-7.3448177929999474,0],[112.7371849220001,-7.3448005489999559,0],[112.73718296100003,-7.3448003859999744,0],[112.73718267700008,-7.344800361999944,0],[112.73716586500007,-7.3447989669999743,0],[112.73707666000007,-7.3447915639999337,0],[112.73697005800011,-7.3447827179999763,0],[112.73696981700004,-7.344782734999967,0],[112.73692452300008,-7.3447858539999515,0],[112.73680543900002,-7.3447940569999446,0],[112.73680294300004,-7.3447942289999446,0],[112.73678300100005,-7.3447956029999659,0],[112.73676991600007,-7.3447965029999409,0],[112.73673320300009,-7.3448161569999684,0],[112.73665701700008,-7.3448569419999785,0],[112.73665252300009,-7.3448611369999526,0],[112.73654996200003,-7.3449568779999481,0],[112.73652756100012,-7.3449777889999268,0],[112.73644626800001,-7.3451665969999453,0],[112.7364364550001,-7.3452148089999696,0],[112.73641557800011,-7.3453173799999263,0],[112.73638119800012,-7.3454862949999438,0],[112.73636797200004,-7.3456719839999778,0],[112.73636673500005,-7.3456893469999613,0],[112.73636260900003,-7.3457472749999511,0],[112.73634987600008,-7.3459260469999776,0],[112.73633567700006,-7.3461253779999538,0],[112.73633536000011,-7.3461298319999742,0],[112.73632856400002,-7.3461582949999524,0],[112.73632216300007,-7.3461851099999649,0],[112.73631203100001,-7.3462275819999263,0],[112.73623933300007,-7.3462554049999653,0],[112.73610940000003,-7.3462585859999763,0],[112.73607569600006,-7.3462594109999486,0],[112.7359791240001,-7.3462629459999675,0],[112.73591852300001,-7.3462651639999308,0],[112.73578575400006,-7.3462700229999314,0],[112.73527049800009,-7.3462888819999534,0],[112.73482218600009,-7.3463603629999739,0],[112.73426520300006,-7.3464491719999501,0],[112.73411634800004,-7.346472905999974,0],[112.73387092600001,-7.3465120379999576,0],[112.73374132100002,-7.3465349169999286,0],[112.73342618000004,-7.3465905479999378,0],[112.73341090500003,-7.3466841389999331,0],[112.7333955580001,-7.3467781679999575,0],[112.7333885380001,-7.3468211779999706,0],[112.73338708900008,-7.3468292809999411,0],[112.73338560000002,-7.3468376069999408,0],[112.73336808100009,-7.3469355819999578,0],[112.73336111600008,-7.3469745369999373,0],[112.73330012500003,-7.3473156419999555,0],[112.73329994700009,-7.3473166399999741,0],[112.73327874800009,-7.347455120999939,0],[112.73327469300011,-7.3474816099999316,0],[112.73325365400001,-7.3476190429999519,0],[112.73324730200011,-7.3476605369999675,0],[112.73321422000004,-7.3478766449999284,0],[112.73320983000008,-7.3479053229999636,0],[112.73319583300008,-7.3479967589999546,0],[112.73317891700003,-7.3480494569999451,0],[112.73316676100001,-7.3480873289999522,0],[112.73315399000001,-7.3481271139999649,0],[112.73307378100003,-7.3481401909999704,0],[112.7330684960001,-7.348140227999977,0],[112.73299018800003,-7.3481407799999374,0],[112.73292555700004,-7.3481412349999573,0],[112.73275789200011,-7.348142414999927,0],[112.7327512600001,-7.3481424619999416,0],[112.73245806700004,-7.3481445259999418,0],[112.73225797500004,-7.3481459339999446,0],[112.73130356200011,-7.348152650999964,0],[112.73130313400009,-7.3481526539999322,0],[112.73126213600005,-7.3481529429999455,0],[112.7312585090001,-7.3481529689999547,0],[112.73065581700007,-7.3481814839999515,0],[112.73057199600009,-7.3481854499999599,0],[112.73054946600007,-7.3481865159999415,0],[112.72997537300012,-7.3482136789999686,0],[112.72985664700002,-7.3482192959999679,0],[112.72964272500008,-7.3482294169999705,0],[112.72959739700002,-7.3482315609999773,0],[112.72959733900007,-7.3482315639999456,0],[112.72959728100011,-7.3482315669999707,0],[112.72955640700002,-7.348233496999967,0],[112.72950439100009,-7.3482336279999458,0],[112.72942870800011,-7.348233817999926,0],[112.72942834200001,-7.3482338189999723,0],[112.72940843900005,-7.3482338699999445,0],[112.72935603000008,-7.348234004999938,0],[112.72934387700002,-7.3482340359999512,0],[112.72932924000008,-7.3482360909999329,0],[112.72930184000006,-7.3482399469999677,0],[112.72919489500009,-7.3482549969999695,0],[112.72916659900011,-7.3482589789999793,0],[112.72907266900006,-7.348272197999961,0],[112.72903475400005,-7.3482775329999299,0],[112.72900107700002,-7.3482822709999596,0],[112.72896061600011,-7.3482879629999616,0],[112.72888826400003,-7.348298141999976,0],[112.72884139600001,-7.3483047359999318,0],[112.72878839900011,-7.3483121919999803,0],[112.72845308400008,-7.3483464989999447,0],[112.72838872600005,-7.3483530839999389,0],[112.72829498800002,-7.3483626749999758,0],[112.72792955800003,-7.3484032659999343,0],[112.72789103800005,-7.3484075449999295,0],[112.72775443500007,-7.3484227189999274,0],[112.72771744900001,-7.3484268269999689,0],[112.72765510300007,-7.348433752999938,0],[112.72751213900005,-7.3484496359999412,0],[112.72745194900006,-7.3484563229999367,0],[112.72731136300001,-7.3484497619999729,0],[112.72728729200003,-7.3484486389999688,0],[112.72688677400004,-7.3484299449999639,0],[112.72665805300005,-7.3484100739999576,0],[112.72665161400005,-7.3484095149999575,0],[112.72658619700007,-7.3484038349999423,0],[112.72645700400005,-7.3483926179999344,0],[112.72639818400012,-7.3483875109999417,0],[112.72603502600009,-7.3483559649999393,0],[112.72597064000001,-7.3483503719999703,0],[112.72591854200004,-7.3483458469999619,0],[112.72582775600006,-7.3483379609999702,0],[112.72580292500004,-7.3483358039999302,0],[112.72579587300004,-7.3483309969999482,0],[112.72569770900009,-7.3482640859999719,0],[112.72559998200006,-7.3481978839999442,0],[112.72555816500005,-7.3481695559999594,0],[112.7254258910001,-7.348064094999927,0],[112.72522505800009,-7.347903970999937,0],[112.7251630290001,-7.3478477119999752,0],[112.72503149600004,-7.3477284149999491,0],[112.72500147400001,-7.3477062249999676,0],[112.724892307,-7.3476255359999527,0],[112.72482442900002,-7.3475753649999547,0],[112.72471492700004,-7.3474818879999475,0],[112.72466571500001,-7.3474398789999782,0],[112.72463987000003,-7.3474178149999716,0],[112.72455669200008,-7.347331019999956,0],[112.72453633700002,-7.3473097799999323,0],[112.72451833100001,-7.347179237999967,0],[112.72451699100009,-7.3471269559999541,0],[112.72451528800002,-7.347060598999974,0],[112.7245151840001,-7.3470565339999325,0],[112.72451383000009,-7.3470036819999791,0],[112.72447155200007,-7.3469090769999639,0],[112.72447099800002,-7.3469078359999571,0],[112.72441123700003,-7.3467741079999769,0],[112.72436797100011,-7.3466772929999706,0],[112.72434500800011,-7.3466259089999539,0],[112.72431680400007,-7.3465627979999795,0],[112.7243052980001,-7.3465370499999381,0],[112.72428440900001,-7.3462069339999516,0],[112.72428114400009,-7.3461553449999428,0],[112.72427156300012,-7.3460039339999526,0],[112.72427132700011,-7.3460002019999706,0],[112.72426885700008,-7.3459611589999554,0],[112.72426758500001,-7.3459410649999768,0],[112.72426594600006,-7.3459151699999552,0],[112.72426251800005,-7.3458609859999342,0],[112.72405702200001,-7.3457766009999546,0],[112.72392726400005,-7.3457233169999654,0],[112.72362514500003,-7.3456072189999304,0],[112.72352696500002,-7.3455694899999457,0],[112.72350428800007,-7.3455607759999566,0],[112.72345747000008,-7.3455431279999743,0],[112.7233672110001,-7.3455091039999729,0],[112.72335031900002,-7.3455027359999576,0],[112.7232737810001,-7.345473884999933,0],[112.72304689300006,-7.3453883579999797,0],[112.72248508900009,-7.345176581999965,0],[112.72236278500009,-7.3451422329999332,0],[112.72208297600002,-7.3450636489999397,0],[112.72182188300008,-7.3449903209999547,0],[112.72171367900012,-7.3449599319999379,0],[112.72164699700011,-7.344941204999941,0],[112.72154128700004,-7.3449115169999573,0],[112.72154124600002,-7.3449115049999705,0],[112.72145632900003,-7.344887655999969,0],[112.72127953900008,-7.3448380049999287,0],[112.72115509800005,-7.3448030559999324,0],[112.72114046400009,-7.344798945999969,0],[112.72098686300001,-7.3447558069999559,0],[112.72067741700005,-7.344668899999931,0],[112.72064348800006,-7.3446593709999775,0],[112.71986304500001,-7.3444401809999249,0],[112.71978053100008,-7.3444170069999473,0],[112.71975541100005,-7.3444099519999781,0],[112.71976229000006,-7.3443809769999575,0],[112.71978701900002,-7.3442768089999504,0],[112.71991080000009,-7.3437553979999279,0],[112.71991756800003,-7.3437268869999457,0],[112.71994956000003,-7.3435921269999653,0],[112.71995161700011,-7.3435834619999696,0],[112.71995941800003,-7.3435506019999366,0],[112.71999758200002,-7.3433898399999293,0],[112.72003475500003,-7.3432332559999622,0],[112.72001905400009,-7.3432002739999689,0],[112.72000350400003,-7.3431676099999663,0],[112.71999689500001,-7.3431537279999475,0],[112.71999687100003,-7.3431536779999647,0],[112.71997677800005,-7.3431114689999504,0],[112.71994104200007,-7.3430888779999464,0],[112.71987560900004,-7.3430475149999666,0],[112.71984753300001,-7.3430391959999497,0],[112.71969294400003,-7.3429933899999469,0],[112.71956674300009,-7.3429559959999438,0],[112.71953372400003,-7.3429468309999493,0],[112.71944074400005,-7.342921022999974,0],[112.71939872600001,-7.3429093599999646,0],[112.71918309400007,-7.3428495069999258,0],[112.71913540000003,-7.3428362679999282,0],[112.71902953500012,-7.3428068829999802,0],[112.71897149300003,-7.3427907719999439,0],[112.71896052800003,-7.3427877289999515,0],[112.71884410900009,-7.3427554159999318,0],[112.71841587200004,-7.3426579609999294,0],[112.71828834400003,-7.342620907999958,0],[112.71827736900002,-7.3426177189999748,0],[112.71826816200007,-7.342615043999956,0],[112.71813644600002,-7.3425767749999409,0],[112.71800961000008,-7.3425399229999471,0],[112.71780757200008,-7.3424812219999467,0],[112.71758746900002,-7.3424172719999774,0],[112.71736841100005,-7.3423566069999424,0],[112.71717113900002,-7.3423019749999412,0],[112.71714981500008,-7.3422960699999749,0],[112.71695914700001,-7.3422432659999686,0],[112.71668489400008,-7.3421673149999265,0],[112.71665272200005,-7.3421584049999638,0],[112.71663961100001,-7.3421547739999369,0],[112.71642740200002,-7.3420960049999735,0],[112.71639713900004,-7.3420876239999302,0],[112.71639441500008,-7.3420868689999566,0],[112.71634357300002,-7.3420727889999284,0],[112.71621743800006,-7.3420378569999798,0],[112.71616473100005,-7.3420232609999516,0],[112.71615524600008,-7.3420206339999368,0],[112.71610556000007,-7.3420068739999351,0],[112.71606992500006,-7.3419970049999392,0],[112.71603384800005,-7.3419870139999261,0],[112.71585292900011,-7.3419369099999585,0],[112.7158085420001,-7.341924616999961,0],[112.71567426600006,-7.3418874309999751,0],[112.71559866400003,-7.3418694419999611,0],[112.71552014100007,-7.342047900999944,0],[112.71548509500008,-7.3421735129999774,0],[112.71548142800009,-7.3423651409999593,0],[112.71544101900008,-7.3425398229999814,0],[112.71539450600005,-7.342696066999963,0],[112.71529028600003,-7.342820273999962,0],[112.71514466300005,-7.342978746999961,0],[112.71505329100012,-7.3431043819999786,0],[112.71499332900009,-7.3432200239999474,0],[112.71497048600008,-7.3433056839999722,0],[112.71498333500006,-7.3433542249999277,0],[112.71496267300006,-7.3434037429999535,0],[112.71485417000008,-7.3435964789999275,0],[112.71466317400007,-7.3437716469999259,0],[112.71463440700006,-7.3438650129999701,0],[112.71463207800002,-7.3440560379999624,0],[112.71464227700005,-7.344203350999976,0],[112.71466190100011,-7.3442769519999729,0],[112.71467834900011,-7.3443794029999481,0],[112.71467859600011,-7.3444434049999359,0],[112.71466279500009,-7.344510813999932,0],[112.71464091200005,-7.3445355849999601,0],[112.71454241300012,-7.3451444809999771,0],[112.7144353330001,-7.3456539659999294,0],[112.71443996400001,-7.3457608189999632,0],[112.71444011700009,-7.345800684999972,0],[112.71443187700004,-7.3458719519999249,0],[112.71441488700009,-7.345920471999932,0],[112.71438808900007,-7.3459769419999361,0],[112.71438377100003,-7.345986039999957,0],[112.71436389000007,-7.346020287999977,0],[112.71426171100006,-7.3461916249999604,0],[112.71424211200008,-7.3462265439999328,0],[112.71422484700008,-7.3462573059999272,0],[112.71421366100003,-7.3463199969999664,0],[112.71421659900011,-7.3463455699999258,0],[112.7142689420001,-7.346577697999976,0],[112.71427234800001,-7.3466288519999807,0],[112.71426286200006,-7.3466673989999549,0],[112.71424700300008,-7.3467186259999266,0],[112.71418765900012,-7.3467800919999604,0],[112.71415239200007,-7.346816821999937,0],[112.71410266000009,-7.3468974639999374,0],[112.71407227500004,-7.3469779969999536,0],[112.7140236680001,-7.3470974439999281,0],[112.71390664700004,-7.3475694759999328,0],[112.7138714890001,-7.3477259469999581,0],[112.71385299600001,-7.347801575999938,0],[112.71378943500008,-7.3478930059999357,0],[112.71377944000005,-7.3478973639999481,0],[112.71373722700002,-7.3479157699999291,0],[112.7137340920001,-7.3479175159999386,0],[112.71370074700008,-7.347936089999962,0],[112.71361893500011,-7.3479816599999594,0],[112.71354136500008,-7.3480456899999353,0],[112.71353923900006,-7.3480491439999582,0],[112.71343697400005,-7.3482152859999701,0],[112.7133745110001,-7.3484255309999753,0],[112.7133342090001,-7.3485611849999373,0],[112.71330840600001,-7.3486480359999291,0],[112.71329375400001,-7.3486981509999509,0],[112.71328932000006,-7.3487440219999485,0],[112.71328678700002,-7.3487702269999318,0],[112.71327812000004,-7.3488440129999617,0],[112.71327282800007,-7.3488890659999697,0],[112.71326694600009,-7.3489158299999531,0],[112.71326597200004,-7.3489237989999765,0],[112.71326597700011,-7.3489238729999329,0],[112.71326572300006,-7.348925162999933,0],[112.71327302100008,-7.3490366869999662,0],[112.71327651100012,-7.3490900129999659,0],[112.71326105800006,-7.3491234269999381,0],[112.71324836600002,-7.3491508709999493,0],[112.71324029700008,-7.3491689159999396,0],[112.71323037400009,-7.3491900089999262,0],[112.71321106100004,-7.3492310619999444,0],[112.71320987000001,-7.349235488999966,0],[112.7131925860001,-7.3492997449999393,0],[112.7131748270001,-7.3493657639999697,0],[112.71316401200011,-7.3493940979999479,0],[112.71313632900001,-7.3494188899999813,0],[112.71312761900003,-7.349426689999973,0],[112.7130384730001,-7.3494715089999545,0],[112.71300197200003,-7.3494959659999495,0],[112.71298173900004,-7.3495162919999757,0],[112.71292518700011,-7.3495893709999791,0],[112.71290391600007,-7.3496179509999706,0],[112.71290142900011,-7.3496212929999274,0],[112.71288499600007,-7.3496251589999702,0],[112.71284014800005,-7.3496342629999276,0],[112.71282167600009,-7.3496160089999307,0],[112.71280984700002,-7.3496132049999687,0],[112.7127793200001,-7.3496050999999625,0],[112.71276410500002,-7.3496412799999575,0],[112.71275615000002,-7.3496601959999452,0],[112.71274890200004,-7.3496774309999751,0],[112.71274459300002,-7.3496946269999626,0],[112.71273926200001,-7.3497159019999572,0],[112.71273715200005,-7.3497243239999648,0],[112.71273465700006,-7.3497342799999501,0],[112.71271107900009,-7.3498131209999542,0],[112.71269321600005,-7.3498465369999622,0],[112.71265405500003,-7.3499384759999771,0],[112.71262697300006,-7.3500020509999331,0],[112.71260485000005,-7.3500277449999771,0],[112.71257636100006,-7.3500586139999768,0],[112.71254415800001,-7.3500935059999506,0],[112.71254043800002,-7.3500975359999643,0],[112.71254218200011,-7.3501191099999801,0],[112.7125450310001,-7.3501543469999433,0],[112.71254635700006,-7.3501692039999398,0],[112.71254646400007,-7.3501720749999322,0],[112.7125496110001,-7.3502110039999593,0],[112.71255000100007,-7.3502158329999361,0],[112.7125464070001,-7.3502482309999664,0],[112.71254016000012,-7.3503208389999486,0],[112.71253603800005,-7.3503687369999398,0],[112.71253378500001,-7.350384541999972,0],[112.71251352500008,-7.3505266629999255,0],[112.7125027730001,-7.3506020849999345,0],[112.71249414800002,-7.3506625899999563,0],[112.71247493900012,-7.3507973379999498,0],[112.71166370900005,-7.3506442659999607,0],[112.71087712100007,-7.3504746709999722,0],[112.71048619100009,-7.3504000009999686,0],[112.71012491100009,-7.3503051779999282,0],[112.70984832300007,-7.3502259569999637,0],[112.7098001710001,-7.3505829729999732,0],[112.70974306400001,-7.3509184769999365,0],[112.70963027700009,-7.3515023969999334,0],[112.70949750400007,-7.3521605559999443,0],[112.70917832600003,-7.3535580619999337,0],[112.70921146500007,-7.3537481379999576,0],[112.70927308600005,-7.3539259939999511,0],[112.70953890600003,-7.3541578759999311,0],[112.70964123300007,-7.3542368899999815,0],[112.70971094100003,-7.3542785139999296,0],[112.70986156100003,-7.3543484709999802,0],[112.70993580000004,-7.354381306999926,0],[112.71003384400001,-7.3544367639999564,0],[112.71006643300007,-7.3544855269999516,0],[112.71008005100009,-7.354521148999936,0],[112.7100744820001,-7.3546539829999347,0],[112.7100500140001,-7.3547332289999758,0],[112.7100393070001,-7.3548253149999709,0],[112.71004430400001,-7.354951663999941,0],[112.71002003300009,-7.3551044249999791,0],[112.70998829700011,-7.355286519999936,0],[112.70998298600011,-7.3553328839999494,0],[112.70998362700004,-7.3554199419999691,0],[112.70996013900003,-7.3555323269999349,0],[112.70993794200001,-7.3556255269999724,0],[112.70993179700008,-7.3556939299999726,0],[112.70991224400007,-7.3558782259999589,0],[112.70990082200001,-7.3559521079999399,0],[112.70986864200006,-7.3559755459999678,0],[112.70985479800004,-7.3560484479999673,0],[112.70983971800001,-7.3561719699999344,0],[112.70983020000006,-7.3564080129999638,0],[112.70983376700008,-7.3565892129999497,0],[112.70983640800011,-7.3566661609999642,0],[112.70984019400009,-7.3567007819999617,0],[112.70987160200002,-7.3567474189999302,0],[112.70988254800011,-7.3567645509999693,0],[112.70991300500009,-7.3568007189999776,0],[112.70995773900006,-7.3568563989999802,0],[112.70999295500008,-7.3569382519999635,0],[112.71001151500002,-7.3570162979999623,0],[112.71002388800002,-7.3571771499999272,0],[112.71002579100002,-7.3573023099999659,0],[112.71002347100011,-7.3574902599999632,0],[112.71002341200006,-7.3577249019999726,0],[112.71003245400004,-7.3578219839999406,0],[112.71003435800003,-7.357941908999976,0],[112.71004011700006,-7.3580477699999278,0],[112.70994631700012,-7.3580608819999611,0],[112.70981830200003,-7.3580703999999741,0],[112.7096293730001,-7.3580618339999546,0],[112.70945657700008,-7.3580524349999337,0],[112.70944297700009,-7.3581202759999655,0],[112.70938292900007,-7.3582540109999286,0],[112.70931671200003,-7.3583759219999365,0],[112.70926436400009,-7.3585086959999444,0],[112.70923438300008,-7.3585938809999334,0],[112.70919821500001,-7.358721419999938,0],[112.7091720410001,-7.3588337309999474,0],[112.7091791790001,-7.3588927409999769,0],[112.7091834150001,-7.358933072999946,0],[112.7091772760001,-7.3590317019999816,0],[112.70914491500002,-7.3591516269999602,0],[112.7091082710001,-7.3593315139999618,0],[112.70907020000004,-7.3595394789999773,0],[112.70904259800011,-7.3597098479999659,0],[112.70901118900008,-7.3598887839999634,0],[112.70898834600007,-7.3600653399999487,0],[112.7089612210001,-7.3602504619999536,0],[112.70894361300009,-7.3604508119999537,0],[112.70892829000002,-7.3606397669999524,0],[112.70890977900001,-7.360818649999942,0],[112.70894904000011,-7.360826986999939,0],[112.70903541500002,-7.3608362669999678,0],[112.70911679200003,-7.3608355529999585,0],[112.70924385600006,-7.3608155659999284,0],[112.70935592800004,-7.3607777319999741,0],[112.70944230300006,-7.3607420399999341,0],[112.70952796300003,-7.3607284769999524,0],[112.70975496400001,-7.3607042069999693,0],[112.70990487000006,-7.3606992099999502,0],[112.71030461900011,-7.360697067999979,0],[112.71071579000011,-7.3606670869999675,0],[112.71114016700005,-7.3606558549999477,0],[112.71121579400005,-7.3611418159999289,0],[112.71127290100003,-7.3614930239999694,0],[112.71134856800006,-7.3619413149999673,0],[112.71142994500008,-7.3624752659999331,0],[112.71153844900005,-7.3631348519999733,0],[112.71165823600006,-7.3638007279999442,0],[112.71169242000008,-7.3640250469999273,0],[112.71240721100003,-7.3635692349999431,0],[112.71264442200004,-7.3637187719999702,0],[112.71299195100005,-7.3639370219999591,0],[112.71353719600006,-7.3643298179999306,0],[112.71356384600006,-7.3643659859999389,0],[112.7136678600001,-7.3648028609999301,0],[112.71380533200011,-7.3651584879999632,0],[112.7139264760001,-7.3655243069999301,0],[112.71399119700004,-7.3656996729999378,0],[112.7140611530001,-7.3657503559999782,0],[112.71428387100002,-7.365865997999947,0],[112.71438309400003,-7.3658888409999577,0],[112.71442021400003,-7.3659209629999509,0],[112.71444091500007,-7.3659466609999527,0],[112.71445804700011,-7.3659552279999616,0],[112.71452729000009,-7.3659445199999709,0],[112.71457940000005,-7.365910969999959,0],[112.71476428400001,-7.3659102559999496,0],[112.7148656490001,-7.3659195359999785,0],[112.71495559300001,-7.3659338119999802,0],[112.71503911200011,-7.365947374999962,0],[112.71511620600006,-7.365932384999951,0],[112.71521543000006,-7.3658995479999589,0],[112.71534749000011,-7.3658538619999376,0],[112.71545527900003,-7.3658046079999622,0],[112.71560589900002,-7.3657589219999409,0],[112.71575080800005,-7.3657510699999307,0],[112.71587430200009,-7.3657524969999599,0],[112.71594068900004,-7.3657678449999366,0],[112.71597650000001,-7.3657777199999259,0],[112.71600790900004,-7.3657922339999686,0],[112.71601760500005,-7.3658071769999651,0],[112.71605520900005,-7.3658646819999376,0],[112.71606850700005,-7.365886904999968,0],[112.71610891700004,-7.3659964809999678,0],[112.71612497900003,-7.3660725049999769,0],[112.71611879500006,-7.3661802289999514,0],[112.71611749900001,-7.3662462439999672,0],[112.71610474100009,-7.3663497239999742,0],[112.71610902400005,-7.366391483999962,0],[112.71612594800001,-7.3664401019999559,0],[112.71613948100003,-7.366513073999954,0],[112.71613912500004,-7.366545910999946,0],[112.71611556800008,-7.3665969499999733,0],[112.7160870030001,-7.3666601879999689,0],[112.71605861300009,-7.3668261369999755,0],[112.71604097200009,-7.3669613649999519,0],[112.71602919300005,-7.3670820029999504,0],[112.7160302640001,-7.3671333999999433,0],[112.71603811600005,-7.3671705189999557,0],[112.71606952500008,-7.3673000809999394,0],[112.71610628800011,-7.3674142949999464,0],[112.71613983800012,-7.367496029999927,0],[112.71616554200011,-7.3675469639999278,0],[112.71619123500011,-7.3675691979999556,0],[112.71622954400004,-7.3675898989999382,0],[112.71625994100009,-7.3676063189999468,0],[112.71645464500011,-7.3676822759999254,0],[112.71660217200008,-7.367750803999968,0],[112.71667926600003,-7.3677750749999404,0],[112.71682263100001,-7.3677995319999354,0],[112.71702107600004,-7.3678209979999565,0],[112.71737910700006,-7.3678225179999686,0],[112.71790540300003,-7.3678578799999741,0],[112.71802259100002,-7.3678717599999572,0],[112.7181701180001,-7.3678878219999433,0],[112.71868015000007,-7.3679149549999465,0],[112.71873464500004,-7.3679336259999673,0],[112.7187924430001,-7.3679678929999568,0],[112.71879175200002,-7.3681406389999324,0],[112.71880067500001,-7.3683238579999397,0],[112.71881554600009,-7.3683898879999674,0],[112.71883458200011,-7.368436881999969,0],[112.71888789400009,-7.3685119179999674,0],[112.71908510200001,-7.3685205389999737,0],[112.71922065000001,-7.3685552599999369,0],[112.71938602200009,-7.3686010649999503,0],[112.71947242800002,-7.3686191269999313,0],[112.71960313800002,-7.3686186249999537,0],[112.71972279500005,-7.3685968359999379,0],[112.7200070450001,-7.3685539149999499,0],[112.72023608500001,-7.3685017229999517,0],[112.72034921500006,-7.3685000579999382,0],[112.72048057400002,-7.3685189739999259,0],[112.72064297200006,-7.368551095999976,0],[112.72096657900011,-7.3686664999999607,0],[112.72117299700005,-7.3687313409999433,0],[112.72146002600005,-7.3688122449999582,0],[112.7216488900001,-7.3688949289999641,0],[112.72181009800011,-7.3689716659999362,0],[112.72217713000009,-7.3691525049999314,0],[112.72264290900011,-7.3693987789999369,0],[112.72304920200008,-7.3695373829999653,0],[112.72321873900012,-7.369579617999932,0],[112.72336805000009,-7.3696450539999319,0],[112.72340891300007,-7.3696789949999584,0],[112.72378672800005,-7.3700642479999487,0],[112.72402240200006,-7.3702066059999538,0],[112.72438442600003,-7.3703043559999628,0],[112.72444978100009,-7.3703217639999252,0],[112.72482428000001,-7.370344614999965,0],[112.72501080500001,-7.3703358019999428,0],[112.72520367300001,-7.370326663999947,0],[112.72523834500009,-7.3702430399999344,0],[112.7253521020001,-7.3699778099999662,0],[112.72538737700006,-7.3699258049999798,0],[112.7256399150001,-7.3696081419999473,0],[112.7259763080001,-7.3696381759999667,0],[112.72622260700007,-7.3696759399999792,0],[112.72694602400009,-7.367496573999972,0],[112.72700000000009,-7.3673416659999589,0],[112.72883051600002,-7.3675980719999643,0],[112.72948876200007,-7.3676617849999388,0],[112.72976605200006,-7.3676891989999262,0],[112.73004266500004,-7.3677348849999476,0],[112.73025967100011,-7.3677616539999349,0],[112.73064621500009,-7.3678141209999808,0],[112.7310962900001,-7.3678708709999796,0],[112.73134708500004,-7.3679181039999548,0],[112.73136050100004,-7.3678301739999483,0],[112.73137499600011,-7.3676548579999803,0],[112.73151765600005,-7.367015227999957,0],[112.73401830100011,-7.3674217219999605,0],[112.73461010900007,-7.3674867389999577,0],[112.73526773600008,-7.367568983999945,0],[112.73583790100008,-7.367568336999966,0],[112.73618435100002,-7.3675816619999637,0],[112.73658975100011,-7.367613864999953,0],[112.73717992500008,-7.36761764299996,0],[112.7376603570001,-7.3676254309999649,0],[112.73798036800008,-7.3671571659999699,0],[112.73814267000012,-7.3668453479999698,0],[112.73843733000001,-7.3664201629999297,0],[112.7387527410001,-7.3660716559999742,0],[112.73882698000011,-7.3660002719999511,0],[112.73889455700009,-7.3659836159999372,0],[112.73895214000004,-7.3659788569999591,0],[112.73906232900003,-7.3659855289999427,0],[112.73907967900004,-7.3659817119999502,0],[112.73909329800006,-7.3659641229999693,0],[112.73909398700005,-7.3656415759999732,0],[112.73915966100003,-7.365513084999975,0],[112.73917964800012,-7.3654245689999698,0],[112.73919011800001,-7.3653017889999433,0],[112.73918916600007,-7.3651771049999297,0],[112.73915025000008,-7.3650654799999415,0],[112.73913622400005,-7.3650086869999427,0],[112.73915536900006,-7.3649527189999731,0],[112.73919377000004,-7.3648244649999697,0],[112.73923318600009,-7.3647295289999306,0],[112.73924508300001,-7.3646402989999729,0],[112.73924984200005,-7.3645498789999806,0],[112.73920582200003,-7.364439233999974,0],[112.73914752500002,-7.3642917079999393,0],[112.73910945400007,-7.3641120589999787,0],[112.73907479700006,-7.3640317009999308,0],[112.73907019300009,-7.3638936239999566,0],[112.73912372700011,-7.3636519539999767,0],[112.73934274200008,-7.3636980979999294,0],[112.73961944900009,-7.3637775259999785,0],[112.73970287400005,-7.3637991059999308,0],[112.73976890400002,-7.3638130259999457,0],[112.73984849700003,-7.3638205209999796,0],[112.73992493100002,-7.3638222439999481,0],[112.74010904800002,-7.3638205209999796,0],[112.74022219100004,-7.363830514999961,0],[112.74038351800004,-7.363875486999973,0],[112.74048309900002,-7.3639179599999807,0],[112.7406554910001,-7.3639879159999282,0],[112.74078077000001,-7.3640696509999657,0],[112.7408610760001,-7.3641488869999421,0],[112.74096053700009,-7.3642378979999421,0],[112.7410577390001,-7.3643562569999403,0],[112.74109985500002,-7.3644212159999256,0],[112.74114518400006,-7.3644561939999562,0],[112.74117445100001,-7.3644786799999338,0],[112.74122549100002,-7.3644915289999631,0],[112.74129009300009,-7.3645011659999682,0],[112.74153815200009,-7.3645075899999597,0],[112.7416744950001,-7.3645033069999499,0],[112.74178335400006,-7.3645037789999606,0],[112.74185473900002,-7.364469756999938,0],[112.74191220300008,-7.3644461999999749,0],[112.74196538400008,-7.3644408469999689,0],[112.74201249700002,-7.3644490559999554,0],[112.74208562600006,-7.3644585919999486,0],[112.74215348100006,-7.3644858179999346,0],[112.74226591000001,-7.364538998999933,0],[112.74236394600007,-7.3645875169999613,0],[112.74254073800012,-7.364655354999968,0],[112.74268314900007,-7.3647181729999716,0],[112.7427748770001,-7.3647467259999644,0],[112.74281770700009,-7.3647552919999271,0],[112.74297939100006,-7.3647727809999424,0],[112.74308254100004,-7.3647781349999377,0],[112.74322835200007,-7.364796437999928,0],[112.74340341100003,-7.3647999069999628,0],[112.74346230300011,-7.3647984799999335,0],[112.74353832700001,-7.3647717109999462,0],[112.74360634400011,-7.364754947999927,0],[112.74367217200006,-7.3647531509999453,0],[112.74372606600002,-7.3647567199999457,0],[112.74379637900006,-7.3647767069999759,0],[112.74390845200003,-7.3648323869999786,0],[112.74406804900002,-7.3648847189999742,0],[112.7441859600001,-7.36493029199994,0],[112.7443346230001,-7.36497161799997,0],[112.74447845200007,-7.3649794379999776,0],[112.74478718700004,-7.3649951419999411,0],[112.7449706430001,-7.3649815789999593,0],[112.74507236500006,-7.3649608779999767,0],[112.74514187200009,-7.3649431459999732,0],[112.74524904000009,-7.3649369639999804,0],[112.74532185200007,-7.3649530259999665,0],[112.74539038000012,-7.3649912159999644,0],[112.74545569700001,-7.3650376149999488,0],[112.7455153410001,-7.3650826599999277,0],[112.74555957600001,-7.3651313179999534,0],[112.74560693800004,-7.3650730179999755,0],[112.74570973000004,-7.3650063929999305,0],[112.74580300500008,-7.3649045519999277,0],[112.74591055700012,-7.3647570249999603,0],[112.74605998700008,-7.3645847519999279,0],[112.74611423900001,-7.3645238379999682,0],[112.74613993700007,-7.3644591169999671,0],[112.74615015500001,-7.3643605749999779,0],[112.7463398430001,-7.3644007099999271,0],[112.74633115500001,-7.3642625159999398,0],[112.74673439100002,-7.3643080419999478,0],[112.74734013800003,-7.3643645729999321,0],[112.7474048580001,-7.3641174259999502,0],[112.74755641800004,-7.3636266369999248,0],[112.74760990000004,-7.3634828539999262,0],[112.74818722500004,-7.3635606319999738,0],[112.74869738200005,-7.3636272569999619,0],[112.74926654900003,-7.3637091099999452,0],[112.74927701800004,-7.3637129179999761,0],[112.74927133500012,-7.3637386529999276,0],[112.74935030600011,-7.3637671689999706,0],[112.74957683000002,-7.3638061929999594,0],[112.74987378700007,-7.3638385529999368,0],[112.75045291600009,-7.3639115479999759,0],[112.7510164360001,-7.3639819279999301,0],[112.75107303600009,-7.3635377889999631,0],[112.7511383640001,-7.363519121999957,0],[112.75156716000004,-7.3635772299999758,0],[112.75197975900005,-7.3636528969999517,0],[112.75223031300004,-7.3636933289999433,0],[112.75232395800003,-7.363710737999952,0],[112.75240449300009,-7.3637212739999427,0],[112.75255868200009,-7.3637142869999366,0],[112.75272429200004,-7.3637335599999574,0],[112.7529523390001,-7.3637828529999751,0],[112.7532175770001,-7.3638319459999479,0],[112.75350566100008,-7.3638836209999567,0],[112.75388413700011,-7.3639415089999716,0],[112.75420200400004,-7.3639811479999366,0],[112.75438416700001,-7.3639998309999442,0],[112.75463998500004,-7.3640424749999625,0],[112.7548583680001,-7.364086044999965,0],[112.75524766800004,-7.3641421289999585,0],[112.75560041400001,-7.3641974169999571,0],[112.75605006500007,-7.3642646559999321,0],[112.75640396200004,-7.364298296999948,0],[112.75646623300008,-7.364316052999925,0],[112.75652095000009,-7.3643258119999473,0],[112.75663497500011,-7.363892625999938,0],[112.75666606300001,-7.3637796659999708,0],[112.75679745400009,-7.3637728219999303,0],[112.75692523100008,-7.3637824729999579,0],[112.75731994500006,-7.3637922959999287,0],[112.75764049700001,-7.3638520579999636,0],[112.75819790000003,-7.363946637999959,0],[112.75856991400008,-7.3639726959999621,0],[112.75858685200001,-7.3639395479999621,0],[112.75910957600001,-7.364033372999927,0],[112.75967779100006,-7.3641118949999509,0],[112.76006978200007,-7.3641656439999679,0],[112.76032095900007,-7.3641875619999269,0],[112.76069123900004,-7.364209116999973,0],[112.76098126000011,-7.3642104039999481,0],[112.76119191200007,-7.3642193879999809,0],[112.76147809100007,-7.3643039169999724,0],[112.76176148500008,-7.3643867219999493,0],[112.76188997600002,-7.364457391999963,0],[112.76181032200009,-7.3648243909999564,0],[112.76172761000009,-7.3652620309999293,0],[112.76198348900004,-7.3653468349999685,0],[112.76232470400009,-7.3654603349999661,0],[112.76265164100005,-7.3655995339999549,0],[112.76282510400006,-7.3656794839999407,0],[112.76320843500002,-7.3658293899999308,0],[112.7635774900001,-7.3659478869999475,0],[112.76376737100009,-7.365999282999951,0],[112.76390021400005,-7.3660295619999374,0],[112.76405076500009,-7.3660885129999656,0],[112.76427205400012,-7.3661884499999815,0],[112.76447121500007,-7.3663069479999308,0],[112.76466109600005,-7.3664026019999369,0],[112.76473826000006,-7.3664250279999806,0],[112.76474176000011,-7.3665403729999639,0],[112.7647153480001,-7.3667466719999766,0],[112.76468037000006,-7.3669850939999719,0],[112.76464467800008,-7.3671871099999748,0],[112.7646161240001,-7.3673598589999756,0],[112.76460256200005,-7.3674590829999715,0],[112.76460691400007,-7.3675343329999805,0],[112.76502087100005,-7.3675461709999581,0],[112.76569405400005,-7.3675543049999419,0],[112.76634147200002,-7.3675340359999382,0],[112.76709726800004,-7.3675267159999294,0],[112.76710884800002,-7.3673869849999392,0],[112.76714168400008,-7.3671821129999557,0],[112.76718594200008,-7.3670100779999643,0],[112.76720664400011,-7.3668680239999276,0],[112.76726232300007,-7.3667823639999597,0],[112.76731300600011,-7.366705268999965,0],[112.7673451280001,-7.366657441999962,0],[112.76738228800002,-7.3666660679999723,0],[112.76743930500004,-7.3666793029999553,0],[112.76839690500003,-7.3669110749999618,0],[112.76884173100007,-7.3670091319999642,0],[112.76925377700002,-7.3671025509999595,0],[112.76971463100006,-7.3672070349999785,0],[112.77009011600001,-7.367285704999972,0],[112.77032083300003,-7.3673214239999538,0],[112.77050444200006,-7.3673350489999621,0],[112.77055747300005,-7.3672234599999342,0],[112.77070240500007,-7.366870864999953,0],[112.77080364800008,-7.3664856739999323,0],[112.77089480600011,-7.3661429749999456,0],[112.77098849600009,-7.3657931989999383,0],[112.77103561600006,-7.3655167179999808,0],[112.77110580900001,-7.3653442059999747,0],[112.7711593790001,-7.3652091689999679,0],[112.77147288200001,-7.3651376169999594,0],[112.77203800400002,-7.3650305409999532,0],[112.77240444100005,-7.3649615369999424,0],[112.77276611900004,-7.3648901529999762,0],[112.77337169200007,-7.3647687999999789,0],[112.77385853300007,-7.3646880169999349,0],[112.774321439,-7.3645967459999611,0],[112.77462425700003,-7.3645370399999592,0],[112.7748207840001,-7.3644856449999452,0],[112.77499448500009,-7.3644440039999495,0],[112.77517770300005,-7.3643976049999651,0],[112.77535378300001,-7.3643726199999264,0],[112.77555722700004,-7.3643559639999694,0],[112.77578089700012,-7.3643464459999564,0],[112.77598434100003,-7.3643202719999294,0],[112.77611122700011,-7.3643173949999436,0],[112.7763198450001,-7.3642964769999253,0],[112.7764209720001,-7.3642940979999594,0],[112.77666843600002,-7.364300046999972,0],[112.77684570500003,-7.3643440669999336,0],[112.77698847300007,-7.3643797589999735,0],[112.77715146600008,-7.364440434999949,0],[112.77732754600004,-7.3644999209999469,0],[112.77745603700009,-7.3645808229999261,0],[112.77772848500001,-7.3647533339999427,0],[112.7779450160001,-7.3648842039999636,0],[112.77808064600003,-7.3649686749999432,0],[112.77815084000008,-7.3650341099999537,0],[112.77824813700011,-7.3651774599999271,0],[112.77834237600007,-7.3652851529999452,0],[112.77841393200003,-7.3653088039999375,0],[112.77850078400002,-7.3653208429999495,0],[112.77872072100001,-7.365331542999968,0],[112.77882422700009,-7.3653470099999367,0],[112.77892535400008,-7.3653803219999645,0],[112.77897294400009,-7.3654267209999489,0],[112.77904448900006,-7.3655086769999798,0],[112.77910024500011,-7.3655694889999381,0],[112.77917400800004,-7.3656777549999788,0],[112.77925597100011,-7.3658277439999438,0],[112.7793891980001,-7.3659790759999737,0],[112.7794746190001,-7.3660558289999472,0],[112.7798501310001,-7.3659733909999545,0],[112.78006511600006,-7.3659264079999502,0],[112.7801732800001,-7.3659258419999674,0],[112.78031574900001,-7.3659058669999808,0],[112.78041489700001,-7.3658764399999654,0],[112.78057789000002,-7.3658264709999344,0],[112.78066474000002,-7.3657979169999521,0],[112.78076348800005,-7.3657991069999298,0],[112.78096262000008,-7.3658197279999627,0],[112.78111069900001,-7.3658230169999683,0],[112.78124109300006,-7.3658020769999553,0],[112.78139589500006,-7.3657457719999684,0],[112.7815913500001,-7.3657097539999654,0],[112.78177599600008,-7.3657107059999589,0],[112.78216519700004,-7.3657489359999317,0],[112.78234369500001,-7.365831587999935,0],[112.78250411100009,-7.3659181949999493,0],[112.78276775600011,-7.3659997929999577,0],[112.78292955900008,-7.3660171809999611,0],[112.7831703600001,-7.365996240999948,0],[112.7835529780001,-7.365955314999951,0],[112.78380710400006,-7.3659172429999558,0],[112.78399361700008,-7.365929269999981,0],[112.78417958400007,-7.3660143419999713,0],[112.78427538200003,-7.3660819019999622,0],[112.78433246500003,-7.3661100349999629,0],[112.78442212400012,-7.3661244139999553,0],[112.78448144200001,-7.3661034729999528,0],[112.78467893900006,-7.366061914999932,0],[112.78483191600003,-7.3660851369999705,0],[112.78501016000007,-7.3661152149999793,0],[112.78522632200009,-7.3661055789999637,0],[112.78537201000006,-7.3661201489999257,0],[112.78546796800003,-7.3661399609999307,0],[112.78556314600007,-7.3661846949999585,0],[112.78566496000008,-7.3662483519999569,0],[112.78575854900009,-7.3662657459999537,0],[112.78582492800001,-7.3662409349999507,0],[112.78588158100001,-7.3662197589999323,0],[112.78596464700001,-7.3661741259999758,0],[112.78603332800003,-7.3661694659999739,0],[112.78615706000005,-7.3662151519999384,0],[112.78630484300004,-7.3663279249999505,0],[112.78646163100007,-7.3664435799999524,0],[112.78653954000004,-7.3664790659999539,0],[112.78658726600008,-7.3664768929999696,0],[112.78669291400001,-7.3663626779999731,0],[112.7868014180001,-7.3662912949999395,0],[112.78689754800007,-7.3662598859999662,0],[112.78703936400007,-7.3662741629999573,0],[112.78720592600007,-7.3663179449999348,0],[112.78737344000001,-7.3663788589999513,0],[112.78748575100008,-7.3664426279999589,0],[112.78757331500003,-7.3665292409999665,0],[112.78765041000008,-7.3666168049999783,0],[112.78768980900009,-7.3666700149999542,0],[112.78773171300008,-7.3667053019999571,0],[112.78778655500003,-7.3667157499999689,0],[112.78781499200011,-7.3667171999999255,0],[112.78787312700001,-7.3666767669999444,0],[112.78793689700001,-7.366563504999931,0],[112.78801875000011,-7.3664978319999364,0],[112.78813010900001,-7.36646832699995,0],[112.7882386120001,-7.3664626159999784,0],[112.78843468000002,-7.3664702299999476,0],[112.78858413900002,-7.3664925799999423,0],[112.78881453700001,-7.36655677899995,0],[112.78895149900006,-7.3665939619999676,0],[112.78908935700008,-7.3666494659999557,0],[112.78918183100006,-7.3667186459999812,0],[112.78929133200006,-7.3668001369999274,0],[112.78935886300007,-7.3668747379999786,0],[112.78942548700002,-7.3669832419999466,0],[112.7894574610001,-7.3670704999999543,0],[112.78947307700003,-7.3671574179999766,0],[112.7895092440001,-7.3672021519999475,0],[112.78957015900005,-7.3672221399999671,0],[112.78961743500008,-7.3672049889999585,0],[112.7896986500001,-7.3671317199999748,0],[112.7897785990001,-7.3670527219999258,0],[112.78983235700002,-7.3670148179999728,0],[112.78988900600007,-7.366988952999975,0],[112.79000036500008,-7.3670184579999614,0],[112.79012324500002,-7.3671014799999739,0],[112.79023313300002,-7.3671507389999533,0],[112.79034586300008,-7.3671735989999547,0],[112.79048292000004,-7.3672059589999321,0],[112.79060474800008,-7.367260210999973,0],[112.79073419100007,-7.3673373059999676,0],[112.79088838000007,-7.3674410499999681,0],[112.7910083050001,-7.3675171929999692,0],[112.79105700900004,-7.3675797539999621,0],[112.79213521100007,-7.3678812469999571,0],[112.79316784200012,-7.3681986259999803,0],[112.79346924200001,-7.3682807619999267,0],[112.79381672300008,-7.3682461409999291,0],[112.79416037400006,-7.3681715889999282,0],[112.7944834330001,-7.3680723029999626,0],[112.79477340200003,-7.367914692999932,0],[112.79517851500009,-7.3676437229999578,0],[112.79436206700007,-7.3665901169999302,0],[112.79444026100009,-7.3663707089999662,0],[112.79454019800005,-7.3660673279999287,0],[112.79462743000011,-7.3656299539999281,0],[112.79469308300008,-7.36542383099993,0],[112.79477749500006,-7.3653334559999735,0],[112.7949651130001,-7.3652019089999499,0],[112.79504605800003,-7.3651612439999781,0],[112.7951657430001,-7.3651243009999803,0],[112.79536750000011,-7.3651181589999624,0],[112.79559768400009,-7.3651411669999334,0],[112.79584798600001,-7.3651905459999512,0],[112.79603036300011,-7.365260338999974,0],[112.79619476700009,-7.365371224999933,0],[112.79632820500001,-7.3655383099999767,0],[112.79642751100005,-7.3657430439999416,0],[112.79668661100004,-7.3660475709999673,0],[112.79695045500011,-7.3663430339999536,0],[112.79866257700007,-7.3652712859999383,0],[112.79943277000007,-7.3653128479999737,0],[112.80021359000011,-7.3652054939999516,0],[112.80043198300007,-7.3651252529999738,0],[112.80082312900004,-7.3648267259999329,0],[112.80126624700006,-7.3644483389999778,0],[112.80152302200008,-7.3643435109999587,0],[112.80205503900004,-7.3643269859999805,0],[112.8029294910001,-7.3644090779999374,0],[112.80349819100002,-7.3644915649999803,0],[112.80390010100007,-7.36422298399998,0],[112.80395444300007,-7.364032343999952,0],[112.80428502800009,-7.3634162109999579,0],[112.80433941100011,-7.3634101759999453,0],[112.80471812100006,-7.3634393439999712,0],[112.80486750200009,-7.3633019419999641,0],[112.80607581100003,-7.3622140429999376,0],[112.80635773900008,-7.3623507849999328,0],[112.80646112200009,-7.3624040999999352,0],[112.80656212200006,-7.3624573559999362,0],[112.80666796800006,-7.362504959999967,0],[112.80672987000003,-7.3625973039999622,0],[112.80680138500009,-7.3627324659999545,0],[112.80687270900012,-7.3628143409999325,0],[112.80707034600005,-7.3629317799999399,0],[112.80729578400008,-7.3630447539999295,0],[112.807656554,-7.3631833739999593,0],[112.80778682900007,-7.3632482139999524,0],[112.80791591500008,-7.3633416079999279,0],[112.80814910200002,-7.3635093599999664,0],[112.80827759300007,-7.3636467739999603,0],[112.80836384800011,-7.3638038179999512,0],[112.80838585800007,-7.3638817459999473,0],[112.80839478100006,-7.3639668109999548,0],[112.80838109900003,-7.3641173119999621,0],[112.80833392900001,-7.3642471049999472,0],[112.80827878300011,-7.3643618019999622,0],[112.8082117350001,-7.364427970999941,0],[112.80811757400011,-7.3645045699999514,0],[112.80795041700003,-7.3645937989999766,0],[112.80785464400003,-7.3646241369999643,0],[112.80768689200011,-7.3646217579999416,0],[112.80751259600004,-7.3645860659999585,0],[112.80729785000005,-7.3645343129999787,0],[112.80711225200002,-7.3644926719999262,0],[112.80689274700001,-7.3644659029999389,0],[112.80662565200009,-7.3643986839999798,0],[112.80648883300012,-7.3644082009999465,0],[112.80635320400006,-7.3644730419999291,0],[112.80615451900007,-7.3646051019999277,0],[112.80605577100005,-7.364718125999957,0],[112.80596964900008,-7.3648167629999648,0],[112.80644074800011,-7.3649946389999741,0],[112.80691904200012,-7.3652123449999749,0],[112.80694932900008,-7.3652304489999665,0],[112.8071550730001,-7.3653534329999388,0],[112.80722385700005,-7.365385066999977,0],[112.80746570300005,-7.3654962929999783,0],[112.80766651600004,-7.3656154299999343,0],[112.8082342780001,-7.3660105429999589,0],[112.8086161440001,-7.3662311099999442,0],[112.80901379500006,-7.3663818249999622,0],[112.80933321400005,-7.3663522979999811,0],[112.80985434600007,-7.366223745999946,0],[112.81037315200001,-7.3660835349999729,0],[112.81046238600004,-7.3660407779999559,0],[112.8108980830001,-7.3658320099999628,0],[112.81114571400008,-7.3656966909999255,0],[112.81160984700011,-7.3654430629999297,0],[112.81220328000006,-7.3650638999999387,0],[112.8128280950001,-7.3646525029999452,0],[112.81365803200003,-7.3643909279999775,0],[112.81478355800004,-7.3640861289999293,0],[112.81506669200007,-7.3639505389999727,0],[112.81536955900003,-7.3637088659999677,0],[112.81561672900011,-7.3633789509999588,0],[112.81578726300006,-7.3631497979999381,0],[112.81587424000008,-7.3629895869999586,0],[112.81594229400002,-7.3628220779999651,0],[112.81596399200009,-7.3625618289999579,0],[112.81589499500001,-7.3623501959999658,0],[112.81580800000006,-7.3620890759999611,0],[112.81574581600012,-7.3619497659999524,0],[112.81564504500011,-7.3617677329999651,0],[112.81551155600005,-7.3616064849999816,0],[112.8153865380001,-7.3614863179999475,0],[112.81516553500001,-7.3612455119999254,0],[112.81500171900007,-7.3610986279999793,0],[112.81491332700011,-7.3608954219999418,0],[112.81482120500004,-7.3606904569999756,0],[112.81471889800002,-7.3605125629999293,0],[112.81462766400011,-7.3602871659999778,0],[112.81463088600003,-7.3601235939999583,0],[112.81465807600011,-7.3598449049999317,0],[112.81472815200004,-7.3595545899999593,0],[112.81483820400001,-7.3592807289999769,0],[112.81499873500002,-7.3589629429999377,0],[112.81525858500004,-7.3586746519999338,0],[112.8155779760001,-7.3584492569999611,0],[112.81589512500011,-7.3582407819999389,0],[112.81641627400006,-7.3580188589999693,0],[112.81677808300003,-7.3578604209999412,0],[112.81716089400004,-7.3577323729999762,0],[112.81742117800002,-7.3576867609999681,0],[112.8176463420001,-7.3576834499999677,0],[112.81772466600012,-7.3576879779999445,0],[112.81787999700009,-7.3576969569999733,0],[112.81808919600007,-7.3577721389999624,0],[112.81828064600006,-7.3578599139999596,0],[112.81847803900007,-7.3579469069999277,0],[112.81863786700001,-7.3580537769999523,0],[112.81885212200007,-7.3581913039999449,0],[112.82001268500005,-7.3591603869999744,0],[112.8206116770001,-7.359796628999959,0],[112.82121067500009,-7.3604328709999436,0],[112.82152262400007,-7.3607578199999466,0],[112.82175378200009,-7.3609299829999486,0],[112.82206033600005,-7.3611058039999762,0],[112.82235058900005,-7.3612779139999702,0],[112.82255882800007,-7.3613632209999764,0],[112.82280799500006,-7.3614456549999545,0],[112.82311728000002,-7.3614286819999393,0],[112.8234549550001,-7.3613442659999464,0],[112.82364022000002,-7.3612752509999382,0],[112.82373927000003,-7.3612383519999298,0],[112.82396752800003,-7.361069175999944,0],[112.82417504000011,-7.3608773119999569,0],[112.82437362700011,-7.360702617999948,0],[112.82452311500003,-7.3605021519999809,0],[112.82462929700012,-7.3602810829999612,0],[112.82467405000011,-7.3601500569999416,0],[112.8247246090001,-7.360002030999965,0],[112.82482343900006,-7.3597293509999417,0],[112.82491180400007,-7.3593554989999461,0],[112.82495938500006,-7.3590836069999455,0],[112.8250262570001,-7.3587291849999588,0],[112.82511405300011,-7.3581831549999492,0],[112.82525800000008,-7.3572611309999729,0],[112.82553061100009,-7.3564765729999522,0],[112.82606734500007,-7.3555116249999628,0],[112.82656791400007,-7.3547057459999792,0],[112.82689300800007,-7.3541823689999433,0],[112.82701324200002,-7.3539887999999678,0],[112.82739647300002,-7.3531937059999564,0],[112.82784144000004,-7.351521608999974,0],[112.82782105000001,-7.3512633129999472,0],[112.82780142700005,-7.3509353129999795,0],[112.82720066400009,-7.3489894379999328,0],[112.82711806100008,-7.3487218879999432,0],[112.82683637100001,-7.3471287709999729,0],[112.82675480400007,-7.3462451219999707,0],[112.82679546400004,-7.3457786389999455,0],[112.82691021000005,-7.3452069169999277,0],[112.82715412800007,-7.3442983279999794,0],[112.8273520350001,-7.3439426199999502,0],[112.82744450200005,-7.3438233969999374,0],[112.82732223100004,-7.3431712619999416,0],[112.8271930950001,-7.3431395139999722,0],[112.8268216670001,-7.3430642249999778,0],[112.82681071100001,-7.3430620039999326,0],[112.82627788000002,-7.3431905199999505,0],[112.82592064400001,-7.3432766829999423,0],[112.82572648400003,-7.343323512999973,0],[112.82541494500003,-7.3433753569999567,0],[112.82524759100011,-7.3434032069999375,0],[112.82503412400001,-7.3434387299999457,0],[112.82476869600009,-7.3434829009999589,0],[112.82476157200006,-7.3434826509999311,0],[112.82474616000002,-7.3434821099999681,0],[112.82448581200003,-7.3434729769999763,0],[112.82415760400011,-7.343461462999926,0],[112.8241513270001,-7.3434619899999802,0],[112.82384092400002,-7.3434880509999516,0],[112.82355878400006,-7.3435117399999399,0],[112.8232071860001,-7.3435070099999393,0],[112.8228758570001,-7.3435025529999507,0],[112.82232452100004,-7.3434449869999412,0],[112.82178511500001,-7.3433754099999646,0],[112.82127839900011,-7.343302562999952,0],[112.82113778900009,-7.343282348999935,0],[112.82109606900008,-7.3432843559999696,0],[112.82056988300008,-7.343309670999929,0],[112.8203232730001,-7.3433215359999622,0],[112.81923369700007,-7.343481446999931,0],[112.81911091300003,-7.3435126219999347,0],[112.81879606700011,-7.3435925629999588,0],[112.81837198800008,-7.3437002379999399,0],[112.81819383100003,-7.3437609759999418,0],[112.81774704400004,-7.3439132959999256,0],[112.81755589400007,-7.3439784639999743,0],[112.81741859800002,-7.3440252719999535,0],[112.8173886190001,-7.3440354919999322,0],[112.8172713030001,-7.3440754879999304,0],[112.8169321040001,-7.3442700779999655,0],[112.81680686300001,-7.34434192599997,0],[112.81657952900002,-7.3444723429999499,0],[112.81654741300008,-7.3444907669999679,0],[112.81649437700003,-7.3445211919999451,0],[112.81643544700012,-7.3445470149999323,0],[112.81643225300002,-7.3445484139999735,0],[112.81599444200003,-7.3447402599999805,0],[112.81587242700004,-7.3447937259999776,0],[112.81561881100004,-7.3449048579999499,0],[112.81558064100011,-7.3449294869999449,0],[112.8150302900001,-7.3452845979999779,0],[112.8149881920001,-7.3453117609999481,0],[112.81486853900003,-7.3453889659999732,0],[112.81485891900002,-7.3453959229999555,0],[112.81451001900007,-7.3456482779999419,0],[112.8142817260001,-7.345813398999951,0],[112.81420773500008,-7.3458669159999772,0],[112.81409987500001,-7.3459449299999733,0],[112.81402040500006,-7.3460024089999365,0],[112.81392013000004,-7.3460371609999697,0],[112.81390897100005,-7.3460410279999451,0],[112.81387268100002,-7.3460536049999519,0],[112.81378135300008,-7.3460852559999807,0],[112.8137181730001,-7.346107151999945,0],[112.81368354900007,-7.3461191519999716,0],[112.81365571700007,-7.3461287969999489,0],[112.81363125700011,-7.3461372739999433,0],[112.81360680000012,-7.3461457499999483,0],[112.81359135300011,-7.3461511029999542,0],[112.8134574820001,-7.3461974979999809,0],[112.81333152200011,-7.3462236479999774,0],[112.81332948800002,-7.3462240699999484,0],[112.81318788600004,-7.3462534679999294,0],[112.81310850500006,-7.3462699479999287,0],[112.81303610100008,-7.3462849789999609,0],[112.81294808500002,-7.346303250999938,0],[112.81276662700009,-7.3463409219999676,0],[112.81260630300005,-7.3463742059999504,0],[112.81252440200001,-7.3463912089999326,0],[112.81237453600011,-7.3463833109999541,0],[112.81237141000008,-7.3463831459999369,0],[112.81229062400007,-7.3463788889999364,0],[112.81208873000003,-7.346368249999955,0],[112.81195943800003,-7.3463614359999383,0],[112.81177714000012,-7.346351828999957,0],[112.81170614500002,-7.3463480879999565,0],[112.81138599700012,-7.3463312169999426,0],[112.81133348900005,-7.3463215189999573,0],[112.81117642900006,-7.3462925089999658,0],[112.81117236700004,-7.3462917589999392,0],[112.81097871100008,-7.3462559899999746,0],[112.81088876800004,-7.3462393769999608,0],[112.81076930400002,-7.3462173119999647,0],[112.81066533700005,-7.3461981089999426,0],[112.81054146700001,-7.3461752299999716,0],[112.81045111300011,-7.3461585409999657,0],[112.81041799200011,-7.3461524229999782,0],[112.81039351900006,-7.3461479029999737,0],[112.81037614700006,-7.3461446939999746,0],[112.8102570320001,-7.346122692999927,0],[112.81018171100004,-7.3461087809999412,0],[112.81005923700002,-7.3460861599999703,0],[112.81001246300002,-7.3460775209999269,0],[112.80992116000004,-7.3460606569999527,0],[112.80976059400007,-7.3460309989999359,0],[112.80948785500004,-7.3459806229999458,0],[112.80947322700001,-7.3459779209999283,0],[112.80937380700004,-7.3459595569999578,0],[112.80925664000006,-7.3459379159999685,0],[112.80915672200001,-7.3459158939999725,0],[112.80915092900011,-7.3459146169999485,0],[112.80907961800006,-7.3458988999999519,0],[112.80907937300003,-7.3458988459999546,0],[112.80905367700007,-7.3458931829999301,0],[112.80901234900011,-7.3458840739999687,0],[112.80894941500003,-7.3458702029999472,0],[112.80886456300004,-7.3458515019999595,0],[112.80884338800001,-7.3458468349999748,0],[112.80874593700003,-7.345825356999967,0],[112.80863667400001,-7.3458099639999546,0],[112.80851652000001,-7.3457930369999644,0],[112.80828370000006,-7.3457602379999685,0],[112.80821030800007,-7.3457649239999796,0],[112.80785662800008,-7.3457875069999545,0],[112.80782163000003,-7.3457917709999379,0],[112.80776805400001,-7.345798297999977,0],[112.80776490400001,-7.3457986819999519,0],[112.80764407600009,-7.3458134029999655,0],[112.80750166200005,-7.3458307529999729,0],[112.80738878400007,-7.3458445049999455,0],[112.80718470800002,-7.3458693669999775,0],[112.80699467700003,-7.3458925189999604,0],[112.80678011700002,-7.345918658999949,0],[112.80670434000001,-7.3459278909999739,0],[112.80665995700008,-7.3459332979999772,0],[112.80664924700011,-7.3459346029999324,0],[112.80660249900006,-7.3459402979999595,0],[112.80640020700002,-7.3459649429999558,0],[112.80636671200011,-7.3459762399999704,0],[112.80614751900009,-7.3460501669999303,0],[112.80597232100001,-7.3460833569999409,0],[112.80586742300011,-7.3461032289999366,0],[112.80586584700006,-7.3461035269999684,0],[112.80585390300007,-7.3460995229999639,0],[112.8057812190001,-7.3460751569999729,0],[112.80567892800002,-7.3460408669999424,0],[112.80562535200011,-7.3460249319999775,0],[112.80560925000009,-7.3460201429999756,0],[112.80528360100004,-7.3459232859999588,0],[112.80512409100004,-7.3458758419999413,0],[112.80510343300011,-7.3458716189999791,0],[112.80501032900008,-7.345852587999957,0],[112.80474758100002,-7.3457988799999612,0],[112.80442052700005,-7.34573202699994,0],[112.80431560300008,-7.3457033009999577,0],[112.80406003900009,-7.345633333999956,0],[112.80393545000004,-7.3455992239999546,0],[112.80385242800003,-7.3455798149999509,0],[112.80355119700005,-7.3455093919999399,0],[112.80345983800009,-7.3455097589999809,0],[112.80343348200006,-7.34550986499994,0],[112.80328510200002,-7.3455104609999466,0],[112.80322624500002,-7.3455113359999586,0],[112.80299447600009,-7.345514780999963,0],[112.80291973200008,-7.3455158919999803,0],[112.80285876500011,-7.3455264059999763,0],[112.80285716100002,-7.3455266829999459,0],[112.80260540900008,-7.3455700979999392,0],[112.80259031100002,-7.3455727019999699,0],[112.8023874910001,-7.345623509999939,0],[112.80230696600006,-7.3456436819999453,0],[112.80228480300002,-7.34564923399995,0],[112.80219005400011,-7.3456338659999574,0],[112.80214172900003,-7.3456260279999697,0],[112.80213120500002,-7.3456215229999771,0],[112.80208078900012,-7.3455999409999322,0],[112.80206466400011,-7.3455930389999367,0],[112.80205003500009,-7.3455867769999372,0],[112.80204477800009,-7.3455845269999713,0],[112.80194991200005,-7.3455439179999757,0],[112.80190185600009,-7.3455233469999257,0],[112.80187689000002,-7.3455126599999403,0],[112.80176548100007,-7.3454649689999769,0],[112.80171424000002,-7.3454474139999775,0],[112.80130810800006,-7.3453082709999649,0],[112.80096750000007,-7.3452633139999648,0],[112.80088139100008,-7.345251947999941,0],[112.80087942500006,-7.3452516889999515,0],[112.80078357100001,-7.3452390369999421,0],[112.80070781600011,-7.3452547289999757,0],[112.80068146200006,-7.3452601879999406,0],[112.80065093500002,-7.3452665109999771,0],[112.8005737090001,-7.3452825079999684,0],[112.80054943800008,-7.3452875359999439,0],[112.80041154000003,-7.3453251789999285,0],[112.80034313700003,-7.3453438509999387,0],[112.80030805500007,-7.3453537789999359,0],[112.79993215000002,-7.345460156999934,0],[112.79981768900007,-7.3455009869999799,0],[112.79972988500003,-7.3455323079999744,0],[112.79966078000007,-7.3455269579999367,0],[112.79953521200002,-7.3455172359999779,0],[112.79943166400005,-7.345446309999943,0],[112.79938027700007,-7.3453736769999409,0],[112.79934778100005,-7.3453277459999526,0],[112.79926455000009,-7.3451632889999701,0],[112.79924525100012,-7.3451251549999483,0],[112.79922367200004,-7.3450825169999803,0],[112.79905441200003,-7.3449999789999652,0],[112.79891241100006,-7.3449521349999713,0],[112.79885660700006,-7.3449333329999718,0],[112.79875215700008,-7.3448981419999768,0],[112.79863647100001,-7.3449064789999738,0],[112.79859225700011,-7.3449096659999782,0],[112.79857745300001,-7.3449107329999492,0],[112.79844669300007,-7.3449865599999384,0],[112.7983263860001,-7.3451075839999476,0],[112.79831615700004,-7.345117873999925,0],[112.79822517700006,-7.3452093959999729,0],[112.79815560100008,-7.3452248209999311,0],[112.79791566100005,-7.3452780139999732,0],[112.79784771900006,-7.3452782859999388,0],[112.79778270800011,-7.345278546999964,0],[112.79766545000007,-7.3452790179999283,0],[112.79766327000004,-7.3452791229999548,0],[112.79763059200002,-7.3452806919999603,0],[112.79743991500004,-7.3452898509999613,0],[112.79743259800011,-7.3452902019999442,0],[112.79739771400011,-7.345291877999955,0],[112.79739410000002,-7.3452920509999444,0],[112.79737790800004,-7.3452928289999591,0],[112.79734702500002,-7.3452943129999539,0],[112.79734065200012,-7.3452946189999579,0],[112.79717840500007,-7.3453024129999562,0],[112.79712540700007,-7.345304958999975,0],[112.79697846900001,-7.3453332349999414,0],[112.79691507000007,-7.3453454349999561,0],[112.79688984300003,-7.3453694639999298,0],[112.79681373200003,-7.3454419559999451,0],[112.79664688600008,-7.3456152079999697,0],[112.79656851000004,-7.3456965929999569,0],[112.7964734950001,-7.3457722779999699,0],[112.79638414100009,-7.3457912829999259,0],[112.79626970200002,-7.3458156239999539,0],[112.79620762000002,-7.34582882899997,0],[112.79620205800006,-7.3458341579999455,0],[112.79616053100006,-7.3458739419999688,0],[112.79612453400011,-7.3459084279999729,0],[112.7960795350001,-7.3459871499999281,0],[112.79604960000006,-7.3460395189999304,0],[112.79603576300008,-7.3460810729999366,0],[112.79599614600011,-7.3462000489999468,0],[112.79599018300007,-7.3462179579999543,0],[112.79598839300002,-7.3462233339999443,0],[112.79592009500004,-7.346428446999937,0],[112.79579518800006,-7.3465285169999675,0],[112.79574793100005,-7.3465259329999526,0],[112.79567433700004,-7.3465219079999429,0],[112.79559258800009,-7.346517437999978,0],[112.79532182900004,-7.3464624249999702,0],[112.79528651700002,-7.3464552499999627,0],[112.79506000700007,-7.346424448999926,0],[112.79502136500003,-7.3464205029999334,0],[112.79468651700006,-7.3463863089999677,0],[112.79456849600001,-7.3463867809999783,0],[112.7944720480001,-7.3463871669999321,0],[112.7942921560001,-7.3463955589999728,0],[112.79413401200009,-7.3464029369999366,0],[112.79410174900011,-7.3464044419999368,0],[112.79409855200004,-7.3464045909999527,0],[112.79400744900011,-7.3464088409999704,0],[112.79397591600002,-7.3464065529999516,0],[112.79396926400011,-7.3464060699999436,0],[112.79369755200003,-7.3463863519999677,0],[112.79358358900004,-7.3463780809999548,0],[112.79357967300007,-7.3463777969999455,0],[112.79350371100008,-7.3463483839999526,0],[112.79340520900007,-7.3463102429999481,0],[112.79323972100008,-7.3462461639999788,0],[112.79293128100005,-7.3461267319999592,0],[112.79276418800009,-7.3460560599999667,0],[112.79268849100004,-7.3460120309999297,0],[112.79259121700011,-7.3459554529999309,0],[112.79256115900012,-7.3459379699999658,0],[112.79253662600001,-7.3459194039999716,0],[112.79249843800005,-7.3458905039999536,0],[112.79235919400003,-7.3457851249999635,0],[112.79233972200007,-7.3457703889999379,0],[112.79222253700004,-7.3456817049999472,0],[112.79216094000003,-7.3456391349999421,0],[112.79211845400005,-7.345609771999932,0],[112.79195593400004,-7.3454974499999253,0],[112.79187826700002,-7.3454437719999532,0],[112.7918230250001,-7.3453935209999486,0],[112.79180063800004,-7.3453731559999369,0],[112.79173077600001,-7.3453096069999333,0],[112.79168405700011,-7.3452578539999536,0],[112.79160641500005,-7.3451718449999248,0],[112.79159459900006,-7.3451587559999325,0],[112.79139567000004,-7.3449383879999459,0],[112.79135119400007,-7.3449088749999305,0],[112.79124411500004,-7.3448378219999313,0],[112.79122303600002,-7.3448238349999428,0],[112.79110822700011,-7.3447476529999562,0],[112.79109191300006,-7.3447368279999523,0],[112.79106912400005,-7.344721705999973,0],[112.79094097000007,-7.3446681139999441,0],[112.79071042700002,-7.3445717029999287,0],[112.79068185100004,-7.3445597529999418,0],[112.7905853960001,-7.3445194169999581,0],[112.79008308500011,-7.3442909269999745,0],[112.78988589500011,-7.3442012299999533,0],[112.78986821600006,-7.3441931879999629,0],[112.78981472500004,-7.3441711799999325,0],[112.78974922900011,-7.3441442329999518,0],[112.789744369,-7.3441422329999568,0],[112.7896766450001,-7.3441143689999535,0],[112.7896671420001,-7.3441104589999782,0],[112.78964102000009,-7.3440997119999452,0],[112.78941901200005,-7.344008371999962,0],[112.7893338130001,-7.3439733189999288,0],[112.78932787400004,-7.3439726249999353,0],[112.78912928000011,-7.3439494089999471,0],[112.78905494300011,-7.3439407189999315,0],[112.78895763800006,-7.3439457809999453,0],[112.78889815600007,-7.3439488759999563,0],[112.78883511100003,-7.3439521559999434,0],[112.78882831700002,-7.343952508999962,0],[112.78875165500006,-7.3439564969999651,0],[112.78868686900012,-7.3439598669999668,0],[112.78865787800009,-7.3439710209999589,0],[112.78856303000009,-7.3440075119999619,0],[112.78835985900002,-7.3440686879999362,0],[112.78816094100011,-7.3441285829999288,0],[112.78814405700007,-7.3441336669999373,0],[112.78809375900005,-7.3441488119999576,0],[112.78800157500007,-7.3441765679999662,0],[112.78781612100011,-7.3442324089999715,0],[112.78775314900008,-7.344250274999979,0],[112.78767474400001,-7.3442725189999578,0],[112.7875620750001,-7.3443044849999524,0],[112.78734627200004,-7.3443657109999663,0],[112.78722280000011,-7.344400741999948,0],[112.78706161500008,-7.3444545259999359,0],[112.78702283700011,-7.3444674649999797,0],[112.78695671500009,-7.34448952799994,0],[112.78690354000003,-7.3445072709999408,0],[112.78683594300003,-7.3445298259999277,0],[112.78681367600007,-7.3445372559999669,0],[112.78678791400012,-7.3445458519999534,0],[112.78672399400011,-7.3445671799999559,0],[112.78670441400004,-7.3445737129999316,0],[112.78666335500009,-7.3445874129999424,0],[112.7866284700001,-7.3445990529999676,0],[112.78661958500004,-7.3446044459999484,0],[112.78655442500008,-7.3446439919999307,0],[112.78654937600004,-7.3446470569999747,0],[112.78649951500006,-7.3446773179999809,0],[112.78648428000008,-7.3446865639999714,0],[112.78647730200009,-7.3446929209999325,0],[112.7863797230001,-7.3447818199999801,0],[112.78633263900008,-7.3448252219999404,0],[112.78631899700008,-7.3448377969999683,0],[112.78629758000011,-7.3448575389999746,0],[112.78626379700006,-7.34488867999994,0],[112.78619755900002,-7.3449497379999684,0],[112.78611922300001,-7.3450661319999426,0],[112.78611489000002,-7.3450725699999566,0],[112.7860841910001,-7.3450861949999648,0],[112.78601606600012,-7.3451164309999513,0],[112.78587356700007,-7.3451308299999596,0],[112.78569581700003,-7.3451213679999796,0],[112.78549627300004,-7.3451107459999321,0],[112.78543501000001,-7.3451218779999294,0],[112.78542154700006,-7.3451243239999258,0],[112.78530010000009,-7.3451463909999575,0],[112.78526280500012,-7.3451531679999675,0],[112.78522933800002,-7.345165341999973,0],[112.78513833800002,-7.3451984429999584,0],[112.78511452200007,-7.3452071059999753,0],[112.78505030300005,-7.345249004999971,0],[112.78501454700006,-7.3452723339999579,0],[112.78500919800001,-7.3452758239999412,0],[112.78500788100007,-7.3452766829999518,0],[112.78499864700007,-7.3452838459999725,0],[112.78494180900009,-7.3453279379999685,0],[112.78491816500002,-7.3453462789999548,0],[112.7848073880001,-7.3454322129999809,0],[112.78477605600006,-7.3454427739999346,0],[112.78464328500002,-7.3454875259999426,0],[112.78463259200009,-7.3454911299999708,0],[112.78462943000011,-7.3454921959999524,0],[112.78448938300005,-7.3455117419999283,0],[112.78448560100003,-7.345512269999972,0],[112.78446914200003,-7.3455145669999524,0],[112.78442509400008,-7.3455174479999528,0],[112.78434047400003,-7.3455229819999772,0],[112.78430584300008,-7.3455205529999716,0],[112.78427650700007,-7.3455184959999542,0],[112.78423683100004,-7.3455157139999301,0],[112.78420113000004,-7.3455132099999787,0],[112.78419253400011,-7.3455126069999324,0],[112.78398875900007,-7.345498316999965,0],[112.78396554900007,-7.3454970779999371,0],[112.78389009700004,-7.345493051999938,0],[112.78370401800009,-7.3454831219999619,0],[112.78359956700001,-7.3454775479999626,0],[112.78337352000005,-7.3454575659999364,0],[112.78334236800004,-7.3454548119999572,0],[112.78323885700001,-7.3454356029999417,0],[112.78313648200003,-7.3454166049999685,0],[112.78312236400006,-7.3454139849999365,0],[112.78304039900001,-7.3453987749999783,0],[112.78300906000004,-7.3453929589999802,0],[112.78300902700005,-7.34539295299993,0],[112.78294977200005,-7.3453819569999723,0],[112.78279296100004,-7.3453528569999662,0],[112.78255266400004,-7.3453061639999646,0],[112.78249678900011,-7.345295306999958,0],[112.78227373700008,-7.3452519639999423,0],[112.78177275000007,-7.3451546149999558,0],[112.78149850900002,-7.3451013249999733,0],[112.78137675700009,-7.3450776669999414,0],[112.7813676830001,-7.3450759029999517,0],[112.78108973300004,-7.3450330959999519,0],[112.78076468300003,-7.3449830349999274,0],[112.78068179100001,-7.3449702689999299,0],[112.78057409100006,-7.3449536819999253,0],[112.78030906200001,-7.3449128649999693,0],[112.78009177100012,-7.3448812199999338,0],[112.78004476500007,-7.3448743739999713,0],[112.77984841000011,-7.3448457789999679,0],[112.77981614200007,-7.3448410799999806,0],[112.77975308100008,-7.3448318959999597,0],[112.77973272000008,-7.344824942999935,0],[112.77965909200009,-7.3447997989999294,0],[112.77956339600007,-7.3447671179999361,0],[112.7794822730001,-7.3446918259999734,0],[112.77940624400003,-7.3446265969999445,0],[112.77937821900002,-7.3445662179999545,0],[112.77937506600006,-7.3444475529999522,0],[112.7793690630001,-7.3442216229999531,0],[112.77936941000007,-7.3442036829999324,0],[112.77936952700009,-7.34419765399997,0],[112.77937709700007,-7.3438059349999776,0],[112.77937953700007,-7.3436796889999414,0],[112.77939081700003,-7.3435467159999348,0],[112.77939537400005,-7.3434929939999734,0],[112.77941722500009,-7.3432354089999308,0],[112.77942505200008,-7.34314313699997,0],[112.77942753600007,-7.34310722999993,0],[112.77943108500006,-7.343055933999949,0],[112.77943744100003,-7.3429640679999579,0],[112.77945610000006,-7.3426943769999298,0],[112.77945073900003,-7.3426162649999469,0],[112.77939242700006,-7.3425610469999469,0],[112.7793722880001,-7.3425551589999714,0],[112.77936019600008,-7.3425516239999524,0],[112.77929886800007,-7.3425336929999503,0],[112.77899341500006,-7.3424510579999378,0],[112.77894994700011,-7.3424392989999774,0],[112.77891930900012,-7.3424286449999272,0],[112.77888688600001,-7.3424173699999642,0],[112.77882095500001,-7.342394441999943,0],[112.77875416200004,-7.3423823749999428,0],[112.7787383540001,-7.3423795189999623,0],[112.77846214500005,-7.3423296159999722,0],[112.77826295600005,-7.3422936279999362,0],[112.77801934400009,-7.3422500889999469,0],[112.77761444400005,-7.3421777249999423,0],[112.77749262300006,-7.3421167569999284,0],[112.77745609500005,-7.3420633299999736,0],[112.7774305690001,-7.341997254999967,0],[112.77742447100002,-7.3419519959999775,0],[112.77742080900009,-7.3419248129999346,0],[112.77742758600004,-7.341873039999939,0],[112.77742807800007,-7.3418692779999333,0],[112.77743159800002,-7.3418423849999499,0],[112.77743661200009,-7.3418040779999387,0],[112.77743941500012,-7.3417826629999468,0],[112.77744323100001,-7.3417152469999678,0],[112.77744777900011,-7.3416348939999807,0],[112.77745108800002,-7.3415764279999394,0],[112.77745715200001,-7.3414693039999293,0],[112.77745870400008,-7.3414418869999736,0],[112.77746792200003,-7.3413122599999383,0],[112.777468967,-7.3412975619999656,0],[112.77748280200001,-7.3411030099999266,0],[112.77748352300011,-7.3410950669999693,0],[112.77750410100009,-7.340868397999941,0],[112.77751363700008,-7.3407964889999562,0],[112.77755304800007,-7.3404992859999538,0],[112.77756497500002,-7.3404093419999299,0],[112.77756492800006,-7.3403975899999523,0],[112.77756455000008,-7.3403023409999264,0],[112.7775644840001,-7.3402857399999561,0],[112.77754335600002,-7.3401638069999535,0],[112.77752798300003,-7.3401536669999814,0],[112.77752423600009,-7.3401511959999652,0],[112.77752267300002,-7.3401501649999545,0],[112.7774717100001,-7.3401165499999479,0],[112.77744135800003,-7.3401028479999582,0],[112.77741603300001,-7.3400914149999608,0],[112.77730760000009,-7.3400739959999441,0],[112.77728242000001,-7.3400699509999754,0],[112.77725236900005,-7.3400651239999775,0],[112.77719094500003,-7.3400526569999442,0],[112.77716814000007,-7.3400480279999556,0],[112.77716661500006,-7.3400478579999344,0],[112.77716463000002,-7.340047636999941,0],[112.77708552900003,-7.3400388449999809,0],[112.77704410300009,-7.3400329739999393,0],[112.77701758600006,-7.3400292159999481,0],[112.77694412100004,-7.3400188059999323,0],[112.77692723600001,-7.3400188729999627,0],[112.77682529600008,-7.3400192749999746,0],[112.77681708700004,-7.3400193069999773,0],[112.77679826100007,-7.3400219339999353,0],[112.7764990930001,-7.3400636809999469,0],[112.77639006100003,-7.3400826809999558,0],[112.77633677900008,-7.3400919659999317,0],[112.77618896600006,-7.3400624309999785,0],[112.77610331800008,-7.3400453179999658,0],[112.77606079900011,-7.3400368209999556,0],[112.77603996200003,-7.3400326589999736,0],[112.77588741200009,-7.3399830019999399,0],[112.77580294300003,-7.3399556939999684,0],[112.77568328900009,-7.3399461159999646,0],[112.77566939400003,-7.3399461709999514,0],[112.77556115600009,-7.3399465989999726,0],[112.77548191100004,-7.339955353999926,0],[112.77545432200009,-7.3399584019999793,0],[112.77543600800004,-7.3399604249999584,0],[112.77542146700011,-7.3399620309999705,0],[112.77538651900011,-7.3399657549999802,0],[112.77536514800011,-7.3399680329999342,0],[112.77527521600007,-7.3399776159999419,0],[112.77522731300007,-7.3399815559999411,0],[112.77520405700011,-7.3399834689999466,0],[112.77511143400011,-7.3399639429999297,0],[112.77508738200004,-7.3399588729999437,0],[112.77492218500004,-7.3399094129999298,0],[112.77483173000007,-7.3398765619999722,0],[112.77478568200002,-7.3398598389999279,0],[112.77471020500002,-7.339854834999926,0],[112.77470330600011,-7.3398543779999272,0],[112.77465830900007,-7.3398513939999361,0],[112.77463134900006,-7.3398515009999414,0],[112.77456505100008,-7.339851762999956,0],[112.77448190700011,-7.3398711409999464,0],[112.7743860380001,-7.3398934839999583,0],[112.77433818600002,-7.3398995329999366,0],[112.77425449200007,-7.3399101119999273,0],[112.77421528700006,-7.3399150669999358,0],[112.77419602400005,-7.3399175019999348,0],[112.77406504300006,-7.3399037009999688,0],[112.77402733700001,-7.339890913999966,0],[112.77395549300002,-7.3398665499999538,0],[112.77391007100005,-7.339849663999928,0],[112.77389615600009,-7.3398444909999512,0],[112.77388334600005,-7.339839728999948,0],[112.77387849700006,-7.3398379259999729,0],[112.77384593000011,-7.339825818999941,0],[112.77372921300002,-7.3397904829999447,0],[112.77363801800004,-7.339764099999968,0],[112.77358194100009,-7.3397478769999793,0],[112.77349496300008,-7.3397227139999472,0],[112.77348893100009,-7.3397209689999272,0],[112.77345630000002,-7.3397115289999419,0],[112.77340561400001,-7.3396968649999508,0],[112.77333239800009,-7.3396756839999284,0],[112.77327363000006,-7.3396586819999357,0],[112.7732507180001,-7.3396525429999429,0],[112.77315269900009,-7.3396262819999265,0],[112.77313741300009,-7.3396221519999472,0],[112.77313331500011,-7.3396210449999444,0],[112.77303276400005,-7.3395938769999702,0],[112.77292585500004,-7.3395491279999305,0],[112.7729040590001,-7.3395400049999466,0],[112.77290018100007,-7.3395383819999438,0],[112.77289328800009,-7.3395347779999724,0],[112.77278837100005,-7.3394799169999487,0],[112.77275466500009,-7.33946229299994,0],[112.77274511000007,-7.3394572969999672,0],[112.77266517200007,-7.3394396799999413,0],[112.77254737400006,-7.3394421379999812,0],[112.77245923900011,-7.3395012809999685,0],[112.77233389000003,-7.339542109999968,0],[112.77228275400012,-7.3395587659999251,0],[112.77227237800003,-7.3395616419999783,0],[112.77219981500002,-7.3395817539999371,0],[112.77217955100002,-7.3395873709999364,0],[112.77216607000003,-7.3395911079999792,0],[112.77207966000003,-7.3396170529999267,0],[112.77203615200006,-7.3396213209999814,0],[112.77202676500008,-7.3396222419999617,0],[112.77197979100004,-7.3396094769999536,0],[112.77192878900007,-7.3395877589999259,0],[112.77186372800008,-7.3395461709999381,0],[112.77178490200004,-7.3394827919999557,0],[112.77175878600008,-7.3394617929999413,0],[112.77173406100007,-7.3394419129999733,0],[112.77173098700007,-7.3394394419999571,0],[112.77166621800006,-7.3393873649999364,0],[112.7714922780001,-7.3392475099999501,0],[112.77137528500009,-7.3391698219999739,0],[112.77134312800001,-7.3391484679999621,0],[112.77126047400009,-7.3391099949999443,0],[112.77125926600002,-7.339109432999976,0],[112.77125610700011,-7.3391079629999467,0],[112.77123006000011,-7.3391021639999394,0],[112.77119015700009,-7.3390932789999397,0],[112.77112032700006,-7.3391075019999334,0],[112.77107153200006,-7.3391395759999796,0],[112.77105793900012,-7.3391574399999513,0],[112.7710500500001,-7.3391678079999565,0],[112.77102286600007,-7.3392035319999422,0],[112.77099617500005,-7.3392580739999289,0],[112.77098017900005,-7.3392907599999262,0],[112.77096502100005,-7.3393217349999418,0],[112.77096493300007,-7.3393219159999603,0],[112.77092212500008,-7.3394093909999469,0],[112.77090394700008,-7.3394108069999788,0],[112.77090387900012,-7.339410811999926,0],[112.77084535600011,-7.3394153699999265,0],[112.77077262700004,-7.3393951679999532,0],[112.7707277290001,-7.3393826969999623,0],[112.77071438100006,-7.3393789889999539,0],[112.77070838200007,-7.3393770859999563,0],[112.77063612300003,-7.3393541649999747,0],[112.77062791200001,-7.339351560999944,0],[112.77062191100003,-7.339349656999957,0],[112.77059304500006,-7.339340500999981,0],[112.77058623000005,-7.3393383389999372,0],[112.77058455500003,-7.3393377839999516,0],[112.77042532500002,-7.3392850469999757,0],[112.77025161300003,-7.3392303849999507,0],[112.77016906200004,-7.3392122609999433,0],[112.77012489300012,-7.3392250439999316,0],[112.77010940300011,-7.3392295269999295,0],[112.77008320600009,-7.3392482569999515,0],[112.77005551400009,-7.3392680549999341,0],[112.77002366200009,-7.3393114419999392,0],[112.77000358700002,-7.3393387869999742,0],[112.76998946500009,-7.3393580219999421,0],[112.76996510300012,-7.3393945299999359,0],[112.76995485900011,-7.3394098809999377,0],[112.76995109900008,-7.3394155159999741,0],[112.76992584800007,-7.3394533539999429,0],[112.76992150900003,-7.3394558879999749,0],[112.76990114300008,-7.3394677839999645,0],[112.76985490800007,-7.3394947869999783,0],[112.76979275500003,-7.3395144399999594,0],[112.76978673200006,-7.3395163439999465,0],[112.76969713300002,-7.3395138579999752,0],[112.76964637100002,-7.3395035649999727,0],[112.76963889400008,-7.3395020489999752,0],[112.76963594600011,-7.3395014509999328,0],[112.76958042700005,-7.3394901929999605,0],[112.76955370700011,-7.3395205749999377,0],[112.7695474090001,-7.3395277359999795,0],[112.76948936400004,-7.3395937349999372,0],[112.76948526400008,-7.3395983969999747,0],[112.76948522600003,-7.3395984399999747,0],[112.7694631170001,-7.3396235799999658,0],[112.76946238400001,-7.3396244129999673,0],[112.76942945300004,-7.3396618579999426,0],[112.76941052900008,-7.3396833759999254,0],[112.76936631600006,-7.3397336479999353,0],[112.7692575530001,-7.3398573189999752,0],[112.76920100200005,-7.3399216199999273,0],[112.76917181900001,-7.3399548029999551,0],[112.76917005400003,-7.3399568099999328,0],[112.76915995400009,-7.3399857309999561,0],[112.76914224400002,-7.340036442999974,0],[112.76912943800005,-7.3400731129999599,0],[112.76912928200011,-7.3400735629999758,0],[112.76912866300006,-7.3400733999999375,0],[112.76902182300012,-7.3400452789999804,0],[112.76894500300011,-7.3400092189999668,0],[112.76893511300011,-7.3400453179999658,0],[112.76888831300005,-7.3402161349999346,0],[112.76894085200001,-7.3402251439999304,0],[112.76895414800003,-7.340227423999977,0],[112.76899464600001,-7.3402343689999725,0],[112.76906287100007,-7.3402460679999422,0],[112.76905661500007,-7.3402835739999546,0],[112.76905263800006,-7.3403074139999376,0],[112.76904765000006,-7.3403373199999464,0],[112.76903741300009,-7.3403986919999511,0],[112.76901779600007,-7.3405162979999545,0],[112.76901290700005,-7.340545610999925,0],[112.76900988000011,-7.3405637589999628,0],[112.76900856700001,-7.340571630999932,0],[112.76896901900011,-7.3405663919999711,0],[112.76888820300007,-7.3405556849999698,0],[112.76872612900002,-7.3405342119999659,0],[112.76871535700002,-7.3405621949999613,0],[112.76870738300011,-7.3405829069999413,0],[112.76868882200006,-7.3406311229999801,0],[112.76868751200004,-7.3406345269999633,0],[112.7686859910001,-7.3406645359999629,0],[112.76868449200003,-7.3406941299999744,0],[112.76868414300009,-7.3407010119999541,0],[112.76861778600005,-7.3407007059999501,0],[112.7686121910001,-7.3407559579999315,0],[112.76861105900002,-7.3407671339999752,0],[112.76861064900004,-7.3407711859999267,0],[112.76860200600004,-7.3408565409999369,0],[112.76858204000007,-7.3410537069999577,0],[112.76833149000004,-7.3410152209999637,0],[112.76832460500009,-7.3410543429999393,0],[112.76831581700003,-7.3411042719999386,0],[112.76831274100005,-7.341121750999946,0],[112.76842301800002,-7.3411473959999398,0],[112.76843288700002,-7.3411496909999414,0],[112.76844425200011,-7.3411523339999576,0],[112.76839345700012,-7.3413355409999781,0],[112.76847540800009,-7.3413680889999569,0],[112.76849894300005,-7.3413774359999593,0],[112.76852750700004,-7.3413887809999778,0],[112.76852729500001,-7.3413894079999409,0],[112.76851173300008,-7.3414061619999416,0],[112.76839065800004,-7.3415365029999293,0],[112.76829743100006,-7.3415930889999572,0],[112.76810506200002,-7.3415861269999709,0],[112.7680589790001,-7.3415844589999324,0],[112.76800831600008,-7.3415711019999321,0],[112.76786228900005,-7.3415326029999619,0],[112.76785469400011,-7.3415290449999588,0],[112.76779441500003,-7.341500802999974,0],[112.76779163800006,-7.3414995019999765,0],[112.76778993400001,-7.3414987019999671,0],[112.7677797880001,-7.3414939479999362,0],[112.76777138900002,-7.341490012999941,0],[112.76767413700009,-7.3414444479999474,0],[112.76762597600009,-7.3414218829999527,0],[112.76757434600006,-7.3413976929999762,0],[112.76755555600005,-7.3413888889999726,0],[112.76753265200011,-7.3413838449999389,0],[112.76753243700011,-7.3413761459999591,0],[112.76752649200012,-7.3411633679999682,0],[112.76752456600002,-7.3410944259999269,0],[112.76752123400001,-7.3409751659999642,0],[112.76752108500011,-7.3409698389999676,0],[112.76751808600011,-7.3408624869999812,0],[112.76751785800002,-7.3408543269999313,0],[112.76742634400011,-7.340686236999943,0],[112.76739114100008,-7.3406215789999578,0],[112.76737691100004,-7.340540500999964,0],[112.76732643300011,-7.3402528979999602,0],[112.76731205600004,-7.3401709889999438,0],[112.76731110500009,-7.3401655679999749,0],[112.76732637200007,-7.3401304849999747,0],[112.76740894600005,-7.3399407329999349,0],[112.76742590800006,-7.3399017549999712,0],[112.7674358910001,-7.3398788179999315,0],[112.76743919900002,-7.3398270789999742,0],[112.76744311200002,-7.3397658739999656,0],[112.76740797900004,-7.3397606189999465,0],[112.76738658900001,-7.3397574199999553,0],[112.76735068300002,-7.3397520489999692,0],[112.76734337400001,-7.3397509559999321,0],[112.76734127300006,-7.3397170429999505,0],[112.76733867500002,-7.339675108999927,0],[112.76733860400009,-7.3396739619999494,0],[112.7673385710001,-7.3396734239999546,0],[112.76733633600008,-7.3396373509999648,0],[112.76732875300002,-7.3395452789999354,0],[112.76732766600003,-7.3395320839999272,0],[112.76732330700008,-7.3394791709999367,0],[112.76731368500009,-7.3393623289999255,0],[112.76731291500005,-7.3393346539999698,0],[112.76731089100008,-7.339261864999969,0],[112.76728981800011,-7.3392572829999381,0],[112.76725569900009,-7.339249863999953,0],[112.76718144600011,-7.3392337179999458,0],[112.76716132500007,-7.3392293429999427,0],[112.76695212000004,-7.3391838529999518,0],[112.7669903420001,-7.3390495439999768,0],[112.76701104300002,-7.3389768019999337,0],[112.76702783900009,-7.3389177819999531,0],[112.76703485600001,-7.3388931229999343,0],[112.76691495200009,-7.338856352999926,0],[112.76690016200007,-7.3388518179999664,0],[112.76689443000009,-7.3388500599999702,0],[112.76689023400002,-7.3388487739999277,0],[112.76688627400006,-7.338847752999925,0],[112.76685310000005,-7.3388391979999597,0],[112.76683914700004,-7.3388350579999724,0],[112.76683333200003,-7.3388333329999682,0],[112.76672206700005,-7.3387974119999626,0],[112.76663196400011,-7.3387683229999539,0],[112.76661246700007,-7.3387620269999729,0],[112.76661164000006,-7.3387617599999544,0],[112.76649758000008,-7.338694501999953,0],[112.76646897700005,-7.3386776349999536,0],[112.76646782300008,-7.3386209899999812,0],[112.7664676710001,-7.3386135429999513,0],[112.76646741800005,-7.3386011249999683,0],[112.76646720500003,-7.338590728999975,0],[112.76646719200005,-7.3385900839999749,0],[112.76643073900004,-7.338590121999971,0],[112.76641518700001,-7.3385901379999723,0],[112.76641128900008,-7.3385682709999287,0],[112.76639836300001,-7.3384957779999809,0],[112.76639558700003,-7.3384802089999539,0],[112.76638945000002,-7.3384558059999563,0],[112.76637725500007,-7.338407315999973,0],[112.76637310400008,-7.3383908119999433,0],[112.76636853100001,-7.3383726279999451,0],[112.76636648900001,-7.3383645079999269,0],[112.76635904900002,-7.3383349289999273,0],[112.76635663800005,-7.3383253429999513,0],[112.76630259700005,-7.3383415399999308,0],[112.76628508500005,-7.3383467889999565,0],[112.76625933000003,-7.3383544059999508,0],[112.76621780800008,-7.3383666859999721,0],[112.76613675400006,-7.3383906589999697,0],[112.76611691500011,-7.3383972309999308,0],[112.76608573500005,-7.3384075589999611,0],[112.76592024100012,-7.3384623829999782,0],[112.76590694100003,-7.3384667889999378,0],[112.76590353100005,-7.3384679179999353,0],[112.76587943700008,-7.3384749729999612,0],[112.7658344350001,-7.3384881499999324,0],[112.76578563100009,-7.3385024399999566,0],[112.76571650000005,-7.3385062209999319,0],[112.76570174800008,-7.3385070279999809,0],[112.76569023900004,-7.3385041229999501,0],[112.76556848100006,-7.3384733929999584,0],[112.76555397300001,-7.3384686299999657,0],[112.76550867600008,-7.3384537599999362,0],[112.76547549400004,-7.3384408819999294,0],[112.76542179600006,-7.3384200409999494,0],[112.76534951400004,-7.3383843299999398,0],[112.76532358000009,-7.3383715169999277,0],[112.76529355700006,-7.3383566839999617,0],[112.76527750100001,-7.3383501879999358,0],[112.76517278100005,-7.3383078219999334,0],[112.76515112200002,-7.3382990599999403,0],[112.76514573000009,-7.33829805299996,0],[112.76508155600004,-7.3382860629999414,0],[112.7649823270001,-7.3383201859999758,0],[112.76498156500008,-7.3383204479999335,0],[112.76498152000011,-7.3383204639999349,0],[112.76493112800006,-7.3383445149999602,0],[112.76484251500005,-7.3383868069999494,0],[112.76481837300003,-7.338388833999943,0],[112.76473345000011,-7.3383959649999611,0],[112.76469323700007,-7.3383993409999562,0],[112.76467644600007,-7.3384007509999378,0],[112.7646034600001,-7.3384068789999333,0],[112.76460282800008,-7.3384069319999412,0],[112.7645754130001,-7.3384092339999256,0],[112.76456454600009,-7.3384101469999337,0],[112.76455699100006,-7.338410779999947,0],[112.76444367900001,-7.3384202949999349,0],[112.76439592000008,-7.3384243049999327,0],[112.76434999900005,-7.3384281609999675,0],[112.76431099600006,-7.3384314359999507,0],[112.7641927630001,-7.3384413629999585,0],[112.76396035800008,-7.3384608749999529,0],[112.7637276160001,-7.3384804149999354,0],[112.76365157200007,-7.338486798999952,0],[112.76357622,-7.3384931249999568,0],[112.76353906300005,-7.3384962449999307,0],[112.76351388400008,-7.3384983589999706,0],[112.76340299500009,-7.3385076689999664,0],[112.76334171300005,-7.3385078099999532,0],[112.76314285700005,-7.3385080059999268,0],[112.76302952600008,-7.3384994289999668,0]]]},"properties":{"OBJECTID":3770,"NAMOBJ":"Waru","FCODE":"BA03070040","REMARK":null,"METADATA":"TASWIL1000020260612KECAMATAN_AR","SRS_ID":"4326","KDBBPS":null,"KDCBPS":null,"KDCPUM":"35.15.18","KDEBPS":null,"KDEPUM":null,"KDPBPS":null,"KDPKAB":"35.15","KDPPUM":"35","LUASWH":30.535490343921797,"TIPADM":3,"WADMKC":"Waru","WADMKD":null,"WADMKK":"Sidoarjo","WADMPR":"Jawa Timur","WIADKC":null,"WIADKK":null,"WIADPR":null,"WIADKD":null,"UUPP":null,"SHAPE_Length":0.34113454029199042,"SHAPE_Area":0.0025007589725994789}}]}