{"type":"FeatureCollection","features":[{"type":"Feature","id":1129,"geometry":{"type":"MultiPolygon","coordinates":[[[[103.55137491600004,-0.49782846699997663,0],[103.55144737900008,-0.49776328199993713,0],[103.55150003100005,-0.49770175499998004,0],[103.55154758200007,-0.49767026499995382,0],[103.55160362000004,-0.4976548929999467,0],[103.55165682900008,-0.49762999699993316,0],[103.55169702300009,-0.49759557299995549,0],[103.55172816800007,-0.49752964699996483,0],[103.55175705000005,-0.49745858999995107,0],[103.55178706100008,-0.49739705999996886,0],[103.55181593700007,-0.49735237799995957,0],[103.55181934200004,-0.49734823099993264,0],[103.55185443500005,-0.4973054999999249,0],[103.55190765300006,-0.49724836799993,0],[103.55196143600006,-0.49718684299995175,0],[103.55199540900009,-0.49713337099996124,0],[103.55202938100007,-0.49707403699994757,0],[103.55206279000004,-0.49700444899997365,0],[103.55208714100007,-0.49694804299997486,0],[103.55211319000006,-0.4968901749999759,0],[103.55214150100005,-0.49684182899994767,0],[103.55216528300008,-0.49679421499996579,0],[103.55217095100005,-0.49676125099995261,0],[103.55216643100005,-0.49672095699997953,0],[103.55215285300005,-0.49669604499996467,0],[103.55209003400006,-0.49666306399996074,0],[103.55204474000004,-0.4966410939999264,0],[103.55199099700008,-0.49659784099992521,0],[103.55196156800008,-0.4965831839999737,0],[103.55191176200009,-0.49656705599994666,0],[103.55185346300004,-0.49657363599993687,0],[103.55180478100004,-0.49659780099995032,0],[103.55174986900005,-0.49664540699995996,0],[103.55170061500007,-0.49669594499994218,0],[103.55166155300009,-0.49673036999996611,0],[103.55160776800005,-0.49679629099995282,0],[103.55156247500008,-0.49685635399993089,0],[103.55153812500004,-0.49691202499997189,0],[103.55152679300005,-0.49697063099995376,0],[103.55152395200008,-0.4970204469999544,0],[103.55151997800004,-0.49707172799998034,0],[103.55150412100005,-0.49711274999992838,0],[103.55147185300007,-0.49713911499992491,0],[103.55141468000005,-0.49716620899994268,0],[103.55134675700003,-0.49718157899997095,0],[103.55127883100005,-0.49720940299994254,0],[103.55122618600006,-0.49723796099993933,0],[103.55118825300008,-0.49728557199995294,0],[103.55117862000009,-0.49733392199993887,0],[103.55118200700008,-0.49737568099993723,0],[103.55120407400005,-0.49741084999993745,0],[103.55124991300005,-0.4974445589999732,0],[103.55129688500006,-0.49747240799996462,0],[103.55132460700008,-0.4975295579999397,0],[103.55133478400006,-0.49758230499998035,0],[103.55132854200008,-0.49765556399995603,0],[103.55130192300004,-0.49772955099996352,0],[103.55129890400008,-0.49774207599995179,0],[103.55128832700007,-0.49778595799995173,0],[103.55129850900005,-0.49781526299994994,0],[103.55133020100004,-0.49783065399992665,0],[103.55137491600004,-0.49782846699997663,0]]],[[[103.31358389700006,-0.36420548099994221,0],[103.31330908900009,-0.3641196749999267,0],[103.30441007100006,-0.36134107099996982,0],[103.28945415900006,-0.35667127799996479,0],[103.27672529900008,-0.35269751299995278,0],[103.27647420900007,-0.35261835599993674,0],[103.27611754400004,-0.35250698999993801,0],[103.27660246600004,-0.34987022099994647,0],[103.27564048800008,-0.34969329799997695,0],[103.27087211600008,-0.34604644799992457,0],[103.27038383500008,-0.34304237399993553,0],[103.26540565500005,-0.33600234999994427,0],[103.26519203200007,-0.33535575899992409,0],[103.26269340500005,-0.32939529399993717,0],[103.26271247900007,-0.32925033599997278,0],[103.26273155200005,-0.32638168299996551,0],[103.26252937300006,-0.32606506299993043,0],[103.26251411400006,-0.32591247599992812,0],[103.26247596700006,-0.32553482099996245,0],[103.26237678500007,-0.32487297099993384,0],[103.26235389700008,-0.32471466099997315,0],[103.26228904700008,-0.32431793199992853,0],[103.26218605000008,-0.32374763499996106,0],[103.26211738600006,-0.32339477499994018,0],[103.26207923900006,-0.32320594799995206,0],[103.26163673400004,-0.32115745499993409,0],[103.26141929600004,-0.32026863099997627,0],[103.26133537300007,-0.31994056699994644,0],[103.26128578200007,-0.31974220299997569,0],[103.26114845300003,-0.31925582899992833,0],[103.26090812700005,-0.31844329799997695,0],[103.26086998000005,-0.31830596899993679,0],[103.26061821000008,-0.31753539999994018,0],[103.26043510400007,-0.31705665599997701,0],[103.25997734100008,-0.3158874509999805,0],[103.25975990300009,-0.31541061399997261,0],[103.25966835000008,-0.31521415699995714,0],[103.25962638900006,-0.3151340479999476,0],[103.25961875900003,-0.31511688199992705,0],[103.25927543600005,-0.31451797499994427,0],[103.25888252300007,-0.3133010859999672,0],[103.25872993500008,-0.31292915299997048,0],[103.25857734700008,-0.3125858309999785,0],[103.25845909100008,-0.31237602199996672,0],[103.25821876500004,-0.31199836699994421,0],[103.25800895700007,-0.31167983999995386,0],[103.25792884800006,-0.31156349199994793,0],[103.25769615200005,-0.31121635399995284,0],[103.25746345500005,-0.31088256799995406,0],[103.25726890600004,-0.31056594799997583,0],[103.25656700100006,-0.30973052999996753,0],[103.25642204300004,-0.30955696099994157,0],[103.25579643200007,-0.30870056199995588,0],[103.25576973000005,-0.30865287799997532,0],[103.25510215800006,-0.30763816799992583,0],[103.25494575500005,-0.30742835999996032,0],[103.25455284100008,-0.30694961499995088,0],[103.25429725600009,-0.30664634699996896,0],[103.25380897500008,-0.3061218259999805,0],[103.25371360800006,-0.30602836599996408,0],[103.25358772300007,-0.3059043879999308,0],[103.25331687900007,-0.30565643299996736,0],[103.25237846400006,-0.30488014199994495,0],[103.25192832900007,-0.30453681899996354,0],[103.25172615100007,-0.30439567599995598,0],[103.25083351100005,-0.30382537799994225,0],[103.25031471300008,-0.30350875899995344,0],[103.24978065500005,-0.30323791499995423,0],[103.24941062900007,-0.30306243899997298,0],[103.24907493600006,-0.30292510999993283,0],[103.24878883400004,-0.30281066899993903,0],[103.24800300600003,-0.30254936199997928,0],[103.24790382400005,-0.3025169369999503,0],[103.24738884000004,-0.30236244199994644,0],[103.24700567400004,-0.30228740499995865,0],[103.24628712900005,-0.30632476399995312,0],[103.24599566000006,-0.30855305599993699,0],[103.24595547500007,-0.30997103899994727,0],[103.24592234800008,-0.31113996099998076,0],[103.24591763800004,-0.31130617399998073,0],[103.24575710900007,-0.31697052999993502,0],[103.24526895300005,-0.33419544799994583,0],[103.24495468800006,-0.34528452799997922,0],[103.24483355100006,-0.34541696799993815,0],[103.24367683700007,-0.34668102999995654,0],[103.24081989900009,-0.34980310299994244,0],[103.23632280900006,-0.35471753999996736,0],[103.23036842400006,-0.3612245159999361,0],[103.22760972100008,-0.36423923699993566,0],[103.22397919000008,-0.36819052599997804,0],[103.22979645400005,-0.38519614199992702,0],[103.23028334500003,-0.38661936699998023,0],[103.23219966400006,-0.39222093299997596,0],[103.23364252000005,-0.39643852699992976,0],[103.23519933900008,-0.40098924699992722,0],[103.23692001300009,-0.40601892599994471,0],[103.24258216800007,-0.42256989999992811,0],[103.24436753500004,-0.42779056299997364,0],[103.24684126100004,-0.44059573899994575,0],[103.24655020100005,-0.4455437579999284,0],[103.24726979200005,-0.45422116499997855,0],[103.24772981000007,-0.45976844899996649,0],[103.24778720700004,-0.46046058299992865,0],[103.24676849600007,-0.46409883199993374,0],[103.24922353000005,-0.47536309799994569,0],[103.24924250700008,-0.47545017199996664,0],[103.25168012500006,-0.48385746799993967,0],[103.25212598900004,-0.48539524399996026,0],[103.25280799100005,-0.48774745499997607,0],[103.25374460700004,-0.4887133599999629,0],[103.25746640400007,-0.4925502469999401,0],[103.26517804000008,-0.49415077499998006,0],[103.27361877900006,-0.4989532639999652,0],[103.28380587900006,-0.49909879499995213,0],[103.29210214000005,-0.50055555799997364,0],[103.29343810300008,-0.50241470599996774,0],[103.29888414200008,-0.50999351499996237,0],[103.29967869000006,-0.5110997409999527,0],[103.30073651600009,-0.51257252299996026,0],[103.30250576200007,-0.51503579399997079,0],[103.30073651600009,-0.51862908199996127,0],[103.29202495200008,-0.53632202499994719,0],[103.28980914700008,-0.54082226299993863,0],[103.28855780700007,-0.54336370099997566,0],[103.28704756700006,-0.54261184999995749,0],[103.28649713100003,-0.54235156199996482,0],[103.28599700200004,-0.54211506799993003,0],[103.28053145300004,-0.54006548699993573,0],[103.27975048600007,-0.53961921899997378,0],[103.27952256300006,-0.53952778499996157,0],[103.27880390300004,-0.53915762699995184,0],[103.27859908400006,-0.53896127599995225,0],[103.27849403500005,-0.53890124699995567,0],[103.27845497200008,-0.53882312199993976,0],[103.27845297100004,-0.53882120399993028,0],[103.27816893100004,-0.53838390399994296,0],[103.27809844100005,-0.53811005799997247,0],[103.27805205000004,-0.53792983599993249,0],[103.27796862400004,-0.53739169899995431,0],[103.27796872600004,-0.53702378299993825,0],[103.27796878900006,-0.53680313599994633,0],[103.27811608500008,-0.53632202499994719,0],[103.27843725200006,-0.53527300399997557,0],[103.27902352800004,-0.53381699299995944,0],[103.28059592000005,-0.52969748999993271,0],[103.28098302100005,-0.52841449999993984,0],[103.28119225700004,-0.52769822299995894,0],[103.28127083600003,-0.52702133799994044,0],[103.28128371500009,-0.52656485799997199,0],[103.28116625900009,-0.52609821899994813,0],[103.28095081600009,-0.52561184099994307,0],[103.28066350600005,-0.52516487199994799,0],[103.28029125200004,-0.52480331499992872,0],[103.27994507900007,-0.52459949199993616,0],[103.27977194500005,-0.52451040799996917,0],[103.27063541400008,-0.52536695699996017,0],[103.26874352500005,-0.52463930799996206,0],[103.26724774300004,-0.52296221899996453,0],[103.26738161300005,-0.5223932279999417,0],[103.26636572600006,-0.52069980799996074,0],[103.26535191300007,-0.51952875399996401,0],[103.26426911100003,-0.51847106499997153,0],[103.26324680700009,-0.51793557099995269,0],[103.26249042500007,-0.51770957199994427,0],[103.26139323300004,-0.51745838799996591,0],[103.25965594600007,-0.51729065699993271,0],[103.25859553900005,-0.51723845699996218,0],[103.25716584000008,-0.51701227199993127,0],[103.25512106600007,-0.51658521199993856,0],[103.25393246800007,-0.51622528999996575,0],[103.25256937600005,-0.5156144459999723,0],[103.25131438500006,-0.51487818899994409,0],[103.25000088600007,-0.51419385499997361,0],[103.25000000900008,-0.51419365399993922,0],[103.24966094500007,-0.51411679199992477,0],[103.24905631900003,-0.51407948399997849,0],[103.24867543700009,-0.51410813699993696,0],[103.24828262400007,-0.51424222699995426,0],[103.24836759500005,-0.51564926199995398,0],[103.24833797300005,-0.5167610939999463,0],[103.24815985600009,-0.52344658099997332,0],[103.24795583300005,-0.53110442899992449,0],[103.24794047700004,-0.53168079599993234,0],[103.24754936700003,-0.54636079099992685,0],[103.24737367500006,-0.55295519299994567,0],[103.24682550300008,-0.57353040599997485,0],[103.24909275600004,-0.57470755299993925,0],[103.25367385700008,-0.57708476799996333,0],[103.26920396000008,-0.58605429999994385,0],[103.27131209100008,-0.58727186799995934,0],[103.29191913800008,-0.59612008999994259,0],[103.29807077300006,-0.59538658199994643,0],[103.29971954600006,-0.59518869899994797,0],[103.30277795700005,-0.59518851899997571,0],[103.30449292900005,-0.59518841899995323,0],[103.31015812100009,-0.59300408899997592,0],[103.31042197500005,-0.59290235499997834,0],[103.31075125200005,-0.59277539599997908,0],[103.31115366000006,-0.59262026499993681,0],[103.31343794100007,-0.59173965599995881,0],[103.31522027900007,-0.59105255299994042,0],[103.31734025800006,-0.59023528599993824,0],[103.32287391200003,-0.58810202199993,0],[103.32381931200007,-0.58773756399995136,0],[103.32524006900007,-0.5867458669999337,0],[103.32628374600006,-0.58601737399993681,0],[103.32809542200005,-0.58475281399995538,0],[103.33038777000007,-0.583152742999971,0],[103.33114113200008,-0.58262689199995066,0],[103.33338763900008,-0.58105881699992779,0],[103.33461485700008,-0.58020221099997116,0],[103.33757946700007,-0.5781328969999322,0],[103.34291846000008,-0.57440624999992451,0],[103.34425172300007,-0.57347562499995774,0],[103.35327603500008,-0.57178697799997735,0],[103.35333859000008,-0.57176552899994704,0],[103.35540076900008,-0.57105840699995269,0],[103.36449740900008,-0.56793916699996316,0],[103.36549910200006,-0.56759621299994478,0],[103.38284627600007,-0.55909726199996612,0],[103.41235975700005,-0.55205360999997311,0],[103.42097513400006,-0.55217003399997111,0],[103.43699809400005,-0.55269712799997706,0],[103.43800036900006,-0.55273009899997305,0],[103.43804922000004,-0.55273367299997744,0],[103.43805390200004,-0.55269486799994638,0],[103.43805925200007,-0.55233246199992436,0],[103.43808363500005,-0.55205272199992805,0],[103.43810801800004,-0.55177298299997801,0],[103.43811467300009,-0.55143569899996692,0],[103.43812790200008,-0.55107725599992818,0],[103.43812795200006,-0.55088604299993449,0],[103.43812798300007,-0.55076643399996783,0],[103.43812520300008,-0.55044664299992974,0],[103.43812436300004,-0.55035002799996846,0],[103.43812242300004,-0.55012685299993791,0],[103.43811964300005,-0.54980706299994608,0],[103.43811024900003,-0.54941812699996717,0],[103.43810719600003,-0.54895905699993364,0],[103.43810648100003,-0.54867054499993628,0],[103.43810602800005,-0.54848788999993303,0],[103.43810576500005,-0.54838203599996405,0],[103.43810515600006,-0.54830632199997353,0],[103.43810270200004,-0.54800106799996229,0],[103.43809564600008,-0.54772052299995266,0],[103.43808859000006,-0.54743998099996816,0],[103.43804842900005,-0.54700849799996831,0],[103.43804437700004,-0.54696496299993669,0],[103.43802445700004,-0.54678959499995017,0],[103.43799856600003,-0.54656166399996664,0],[103.43796301300006,-0.54628191299997297,0],[103.43792745900004,-0.54600216199997931,0],[103.43790538700006,-0.54561799699996527,0],[103.43790091100004,-0.54553981999993084,0],[103.43788935300006,-0.5453379549999795,0],[103.43788174900004,-0.54520515399997294,0],[103.43787618100004,-0.5450941039999293,0],[103.43785969000004,-0.5447652069999549,0],[103.43782656400003,-0.54428859199992985,0],[103.43782267000006,-0.5442434819999562,0],[103.43780779600007,-0.54407117999994625,0],[103.43779656600009,-0.54394109099996513,0],[103.43775393700008,-0.54345491499992704,0],[103.43775334200006,-0.54343581299997368,0],[103.43774880400008,-0.54329016499997351,0],[103.43774373100007,-0.54312734599994883,0],[103.43773352400007,-0.54279977599992435,0],[103.43772410400004,-0.54250329599994984,0],[103.43768779600003,-0.54206812899997203,0],[103.43768630800008,-0.5416999149999242,0],[103.43767530100007,-0.54139386499997499,0],[103.43766586000004,-0.54114679199994953,0],[103.43765958300008,-0.54092363099994145,0],[103.43766122600005,-0.54071481799996945,0],[103.43768503800004,-0.54045340899995153,0],[103.43773260200004,-0.54022707899997613,0],[103.43776699100005,-0.53991332699996519,0],[103.43780138000005,-0.53959957499995426,0],[103.43780650100007,-0.53935030899992853,0],[103.43781793500006,-0.53907941899996104,0],[103.43781674500008,-0.53881234299996095,0],[103.43781174900005,-0.53857069699995463,0],[103.43779538000007,-0.53836211199995887,0],[103.43775627600007,-0.53813954099996408,0],[103.43772959200004,-0.53804498899995679,0],[103.43752540500009,-0.53639547199992421,0],[103.43745878000004,-0.53610993699993514,0],[103.43736360100007,-0.53591006199997082,0],[103.43720179800005,-0.53579584799996383,0],[103.43708282500006,-0.53573144399996409,0],[103.43700668200006,-0.5357504799999333,0],[103.43698288800005,-0.53583391899996968,0],[103.43689722700009,-0.53610041999996838,0],[103.43638326300004,-0.53632884799992553,0],[103.43631797400008,-0.53637632999993912,0],[103.43599303200006,-0.53648335399992675,0],[103.43579315700003,-0.53652618399996754,0],[103.43574556800007,-0.53648811299996169,0],[103.43586930000004,-0.53642624699995167,0],[103.43603103400005,-0.53622249099993269,0],[103.43615868800003,-0.53599741099992571,0],[103.43646892400005,-0.53571018799993908,0],[103.43654506700005,-0.5355864559999759,0],[103.43669735200007,-0.53548175899993566,0],[103.43704951200004,-0.53536754499992867,0],[103.43716273500007,-0.53528807099996811,0],[103.43726981100008,-0.53518694399997457,0],[103.43724304200003,-0.53512745799997674,0],[103.43714191500004,-0.53509771399995998,0],[103.43707648000009,-0.53503227999993896,0],[103.43704039700003,-0.53497284899992792,0],[103.43702591600004,-0.53494899799994755,0],[103.43695750700005,-0.53488058799996452,0],[103.43685935400003,-0.53483894899994766,0],[103.43673740600008,-0.53485381899997719,0],[103.43665710000005,-0.53492520299994339,0],[103.43655328500006,-0.53504802399993423,0],[103.43651651300007,-0.53509152799995263,0],[103.43613579900006,-0.53522477799992885,0],[103.43589785300009,-0.53525333099997852,0],[103.43564087200008,-0.53529140199992753,0],[103.43537777400007,-0.53533783199992513,0],[103.43531726500004,-0.53534850899995945,0],[103.43501269400008,-0.53553886699995701,0],[103.43496569000007,-0.53561378999995668,0],[103.43459840800006,-0.53619923299993388,0],[103.43447964500007,-0.5362246329999607,0],[103.43435836800006,-0.53621061099994449,0],[103.43423837300008,-0.53613427699997374,0],[103.43402091600007,-0.53569753099992568,0],[103.43393717700008,-0.53552934899994398,0],[103.43386103500006,-0.53514863499992771,0],[103.43399428500004,-0.53489165299993147,0],[103.43420367700008,-0.53472984999996243,0],[103.43450824800004,-0.53472984999996243,0],[103.43475571200008,-0.5344347959999709,0],[103.43497462200008,-0.53410167199996295,0],[103.43505076500008,-0.53360674499992911,0],[103.43498414000004,-0.53333072699996364,0],[103.43454631900005,-0.53270254899996416,0],[103.43407994500006,-0.53229328099996565,0],[103.43347080300003,-0.53186497799993049,0],[103.43301394700006,-0.5316175149999367,0],[103.43253805400008,-0.53137005099995349,0],[103.43202292000007,-0.53114901599997211,0],[103.43182541700008,-0.53106427099993425,0],[103.43161191700005,-0.53103369299992664,0],[103.43140094800003,-0.53101201499993067,0],[103.43114575800007,-0.53096997699992698,0],[103.43090447400004,-0.5309292179999261,0],[103.43071423600009,-0.53091914599997381,0],[103.43066318200005,-0.53091644299996688,0],[103.43040546000009,-0.530906201999926,0],[103.43019069400003,-0.53090742099993804,0],[103.43006704800007,-0.53092187899994769,0],[103.42979147300008,-0.53091495199993233,0],[103.42974569400008,-0.53091715099992598,0],[103.42963355500007,-0.53092253499994513,0],[103.42947311200004,-0.53093394399996896,0],[103.42935056300007,-0.53093772899995884,0],[103.42924066000006,-0.53092498699993484,0],[103.42917623800008,-0.53088935399995307,0],[103.42913961700003,-0.53083084099995403,0],[103.42908404700006,-0.53074561499994388,0],[103.42901157300008,-0.53069986599996355,0],[103.42898932000008,-0.53068581899992751,0],[103.42875054800004,-0.53065777799997704,0],[103.42852820400009,-0.53064754499996525,0],[103.42822880400007,-0.53060804699993014,0],[103.42797993200008,-0.53059017499992933,0],[103.42771337600004,-0.5305545009999264,0],[103.42741018300006,-0.53052390099992408,0],[103.42721058400008,-0.53051749199994447,0],[103.42697560000005,-0.53050979999994752,0],[103.42671409300004,-0.5305046399999469,0],[103.42647532500007,-0.53050331299994014,0],[103.42618854500006,-0.53050578199997744,0],[103.42595229800008,-0.53051717099992857,0],[103.42571975100009,-0.53054353999993964,0],[103.42571731300006,-0.53054381599997669,0],[103.42552178400007,-0.53056157599996823,0],[103.42545200900008,-0.5305679129999703,0],[103.42518165200005,-0.53057292699998015,0],[103.42488982000003,-0.53055759599993735,0],[103.42463211600005,-0.53051173999995171,0],[103.42456229100009,-0.53050160699996241,0],[103.42428092000006,-0.53046077799996283,0],[103.42399794100004,-0.53042891199993392,0],[103.42371496200008,-0.53039704499997242,0],[103.42358402300005,-0.53039199299996653,0],[103.42348251000004,-0.53038807699994095,0],[103.42321594900005,-0.53037910999995574,0],[103.42296455400003,-0.53035615599992525,0],[103.42270305700004,-0.53031793299993524,0],[103.42246303100006,-0.5302822649999257,0],[103.42221542700008,-0.53022623799995472,0],[103.42200825600008,-0.53018167099997981,0],[103.42176664100003,-0.53002178599996341,0],[103.42172796300008,-0.52999619099995243,0],[103.42144766800004,-0.52981071299996074,0],[103.42125861400007,-0.52970468199993093,0],[103.42125993600007,-0.52961461799992549,0],[103.42131533700007,-0.52584111499993469,0],[103.42136385800006,-0.52253611699995872,0],[103.42136736000003,-0.52229757199995674,0],[103.42137074400006,-0.52206708399995705,0],[103.42137335300004,-0.52188941599996497,0],[103.42178837500006,-0.52195581999995966,0],[103.42189402200006,-0.52191388899996127,0],[103.42210914500004,-0.52187868899994783,0],[103.42239765700003,-0.52180321899993487,0],[103.42249469800004,-0.52177989799997704,0],[103.42266282600008,-0.52173949099994843,0],[103.42295134200003,-0.52164890799997465,0],[103.42324819400005,-0.52156169199997748,0],[103.42357173800008,-0.5214341819999504,0],[103.42386526300004,-0.52132010399992623,0],[103.42412652300004,-0.52122924299993656,0],[103.42417880300007,-0.52121106199996348,0],[103.42444730300008,-0.52112383599995837,0],[103.42479416000003,-0.52095792499994786,0],[103.42498803100005,-0.52083690199992816,0],[103.42527671800008,-0.52067174399996929,0],[103.42563475400004,-0.52045817299995178,0],[103.42592201900004,-0.52030155899996089,0],[103.42604949400004,-0.5202064319999522,0],[103.42626166600007,-0.52004810099992937,0],[103.42654613500008,-0.51979177799995568,0],[103.42685040200007,-0.51954827499997691,0],[103.42716600000006,-0.51929338899992672,0],[103.42745187300005,-0.51906412599993246,0],[103.42776179800006,-0.51882775299992545,0],[103.42806323200006,-0.51863125799997079,0],[103.42818804100006,-0.51856772399997908,0],[103.42888667700004,-0.51833336199996438,0],[103.42904102300008,-0.51832240999993928,0],[103.42940749600007,-0.51832107199993516,0],[103.42974142100007,-0.51831830699995862,0],[103.43003643800006,-0.51829843899997741,0],[103.43033145500004,-0.51827857099993935,0],[103.43071774700007,-0.51823451599994996,0],[103.43103328800004,-0.51817761799992468,0],[103.43126817700005,-0.51813636399992902,0],[103.43151721600009,-0.5180936939999583,0],[103.43169834600008,-0.5180210989999523,0],[103.43175274400005,-0.5179804399999739,0],[103.43184694600006,-0.51791003099992849,0],[103.43193894300003,-0.51778897399992729,0],[103.43199274700004,-0.51763657899994087,0],[103.43202816700006,-0.51746565899992447,0],[103.43206500100007,-0.51727764399993248,0],[103.43213014000008,-0.5170682689999353,0],[103.43223063500005,-0.51691018799994026,0],[103.43232775200005,-0.51682544299995925,0],[103.43239056100003,-0.51677063499994347,0],[103.43254055500006,-0.51672935899995309,0],[103.43278958300004,-0.51673654799992619,0],[103.43300464500004,-0.51677078699992762,0],[103.43325506800005,-0.51683494299993527,0],[103.43349134100004,-0.51694183799997973,0],[103.43373044500004,-0.51700599199995168,0],[103.43391014500008,-0.51701173499992592,0],[103.43411312100005,-0.51700227999992876,0],[103.43415351700008,-0.51700039999997216,0],[103.43437142400006,-0.51697624199994152,0],[103.43456385800005,-0.51696774299995241,0],[103.43479166100008,-0.51695782599995255,0],[103.43505344100004,-0.51690518999993174,0],[103.43524590200008,-0.51678700899992691,0],[103.43539733500006,-0.51662608999993154,0],[103.43557706400009,-0.51651787899993451,0],[103.43573838500004,-0.51644100099997559,0],[103.43594355400006,-0.51640971399996261,0],[103.43620673800007,-0.51638983799995231,0],[103.43652652200007,-0.51635999999996329,0],[103.43683781700008,-0.5163258909999513,0],[103.43692341400003,-0.51630729999993719,0],[103.43719157100008,-0.51624905999995008,0],[103.43741300700003,-0.51618719899994403,0],[103.43752268800006,-0.51615655999995624,0],[103.43782410100005,-0.51605407499994271,0],[103.43817362500005,-0.51589462799995545,0],[103.43864061000005,-0.51567395499995428,0],[103.43889603500008,-0.51556647599994676,0],[103.43915146000006,-0.51545899699993925,0],[103.43961135200004,-0.51529102999995757,0],[103.43987667600004,-0.51520847899996625,0],[103.44014200000004,-0.51512592799997492,0],[103.44062169500006,-0.51498502299995152,0],[103.44101452100006,-0.51488594499994633,0],[103.44105611300006,-0.51487545499998078,0],[103.44147922000008,-0.51469892999995182,0],[103.44189950200007,-0.51453237199996238,0],[103.44218676200006,-0.51441374099994164,0],[103.44247402400003,-0.51429510999997774,0],[103.44276128400008,-0.51417647999994642,0],[103.44305633000005,-0.51405903899996019,0],[103.44310453000008,-0.51403985399997509,0],[103.44310786000005,-0.51403852799995775,0],[103.44335137700006,-0.51394159899996339,0],[103.44361316800007,-0.51383126799993306,0],[103.44387496000007,-0.51372093699995958,0],[103.44389794500006,-0.51371140299994522,0],[103.44409971900006,-0.51362770399992996,0],[103.44411339400006,-0.5136220309999544,0],[103.44416151300004,-0.51360206999993352,0],[103.44444806400008,-0.51348320399995373,0],[103.44474806100004,-0.51336647599993057,0],[103.44504805800005,-0.51324974699997483,0],[103.44553767700006,-0.51305044699995506,0],[103.44578744300009,-0.51294225099996993,0],[103.44603720900005,-0.51283405599997423,0],[103.44651267600005,-0.51264471999996886,0],[103.44696691700005,-0.5124439919999304,0],[103.44723508200008,-0.51231870699996307,0],[103.44750324700004,-0.51219342399997458,0],[103.44792778200008,-0.5119827119999627,0],[103.44841598600004,-0.51176346899995906,0],[103.44871528000004,-0.51163534499994512,0],[103.44901457400005,-0.5115072179999629,0],[103.44930608300007,-0.51138763799997378,0],[103.44959759000005,-0.51126805699993838,0],[103.44988626500003,-0.51116129599995475,0],[103.45017494000007,-0.51105453399992484,0],[103.45058390300005,-0.51085521299995662,0],[103.45088250200007,-0.51068292599995857,0],[103.45121789100006,-0.51047219099996255,0],[103.45161130700006,-0.51022301799997649,0],[103.45197782800005,-0.51003223199995773,0],[103.45232451400005,-0.50991408599998067,0],[103.45266270500008,-0.50985861899994234,0],[103.45293438200008,-0.50982734799993068,0],[103.45338717000004,-0.50981178199992883,0],[103.45351593200007,-0.50978475399995204,0],[103.45373526900005,-0.50972070299997085,0],[103.45405082600007,-0.50960682599992424,0],[103.45408631700008,-0.50959482399997569,0],[103.45437912000006,-0.50949579899997843,0],[103.45469891400006,-0.50943463099997643,0],[103.45497343000005,-0.50936489599996548,0],[103.45517861900004,-0.50929657199992562,0],[103.45532862600004,-0.50920687399997178,0],[103.45543618400006,-0.50911288899993679,0],[103.45550270800004,-0.50900179899997511,0],[103.45551830700003,-0.50887787199997092,0],[103.45550276300008,-0.50877104099993176,0],[103.45543066300007,-0.50853171899996141,0],[103.45533167100007,-0.5082995079999364,0],[103.45519873000006,-0.50802883499994778,0],[103.45506720500003,-0.50773252299995875,0],[103.45497082000009,-0.50748603599993203,0],[103.45493852700008,-0.50740345399992748,0],[103.45460620100005,-0.50659144899992725,0],[103.45629987000007,-0.50585770599997204,0],[103.45642881200007,-0.50594091699997534,0],[103.45667779000007,-0.5061646159999782,0],[103.45690476800007,-0.50640274399995633,0],[103.45691544300007,-0.50641394399997353,0],[103.45713188500008,-0.50662481099993784,0],[103.45733417800005,-0.50680006999994021,0],[103.45759590500006,-0.50698530799996888,0],[103.45787460400004,-0.50716057599993292,0],[103.45820283400008,-0.50732019099996251,0],[103.45856928200004,-0.50744562799997084,0],[103.45887630300007,-0.50752689899996994,0],[103.45920453000008,-0.50770360899997513,0],[103.45950729200007,-0.50786321699996506,0],[103.45982985600006,-0.50805416899993361,0],[103.46014817200006,-0.50827930399992738,0],[103.46050892000005,-0.50853720999992902,0],[103.46067162300005,-0.50862556399994219,0],[103.46083997900007,-0.50870537099996227,0],[103.46099986500008,-0.50874244499993893,0],[103.46114136200003,-0.50873536199992486,0],[103.46128125400008,-0.50869718399997055,0],[103.46132389800005,-0.50868554699997048,0],[103.46150361500008,-0.50863004199993611,0],[103.46167060000005,-0.50854461499994841,0],[103.46193382100006,-0.50837516699994012,0],[103.46226355400006,-0.5081530329999282,0],[103.46261592500008,-0.50797363999993195,0],[103.46303197500004,-0.50774440899994033,0],[103.46319753500006,-0.50768462199994246,0],[103.46339706800006,-0.50760347299996056,0],[103.46364329400006,-0.50749955199995611,0],[103.46389518600006,-0.50737568299996383,0],[103.46417819900006,-0.50728031799997098,0],[103.46448527300004,-0.50714364499992826,0],[103.46480326500006,-0.50700969299992948,0],[103.46512125800007,-0.50687573999994129,0],[103.46541090200009,-0.50677387399997542,0],[103.46570054800009,-0.50667200899994214,0],[103.46590928000006,-0.50659282399993799,0],[103.46618610000007,-0.50651275899997472,0],[103.46668844600003,-0.50634016399993698,0],[103.46681138300005,-0.50629300999997895,0],[103.46705371700006,-0.50620581999993419,0],[103.46728897500009,-0.5060990479999532,0],[103.46747825100005,-0.50600116399994022,0],[103.46690888900008,-0.50507514799994624,0],[103.46690301600006,-0.50506438399997933,0],[103.46656624500008,-0.50444697199992561,0],[103.46691205100007,-0.50439510099994322,0],[103.46716758800005,-0.50435676999995849,0],[103.46770838700007,-0.50427565099994354,0],[103.46797850000007,-0.50423085299996728,0],[103.46848899800005,-0.50515859699993371,0],[103.46926459800005,-0.50590361499996561,0],[103.47096846700003,-0.50679505599993036,0],[103.47105436500004,-0.50682729499993684,0],[103.47123034800006,-0.50683712999995123,0],[103.47138865500006,-0.50678998499995487,0],[103.47150984500007,-0.50665023699997391,0],[103.47166376800004,-0.50648201799992876,0],[103.47179997000006,-0.5064197269999795,0],[103.47194058600007,-0.50638147799998023,0],[103.47209093600009,-0.50635658899994951,0],[103.47221652000007,-0.50632812999992893,0],[103.47236157000003,-0.50626584199994795,0],[103.47249158400007,-0.50619019999993498,0],[103.47259596300006,-0.50609764199992924,0],[103.47273482700007,-0.50598282199996447,0],[103.47289226500004,-0.50588671399992791,0],[103.47306014500003,-0.50583897199993544,0],[103.47306119100006,-0.50583867599993937,0],[103.47317417100004,-0.50582226499994931,0],[103.47328759300007,-0.50580578999995396,0],[103.47352949900005,-0.50578492599993297,0],[103.47360116600004,-0.50571325699996805,0],[103.47438638800008,-0.50567161699996177,0],[103.47463028300007,-0.50575489799996376,0],[103.47499910000005,-0.50617725199992947,0],[103.47518945600007,-0.50631407199995238,0],[103.47533817300007,-0.50639735199996494,0],[103.47543335100005,-0.50652227399996264,0],[103.47557611900004,-0.50660555499996462,0],[103.47577242400007,-0.50664124699994773,0],[103.47596278100008,-0.50673047699996232,0],[103.47617098400008,-0.50696247399997674,0],[103.47637323800006,-0.50704575499997873,0],[103.47662903000008,-0.50709929299995338,0],[103.47678964400006,-0.50709929299995338,0],[103.47700379500009,-0.50725395799997841,0],[103.47717035800008,-0.50745026399994231,0],[103.47754162700005,-0.507712890999926,0],[103.47773681600006,-0.50776000699994484,0],[103.47799127200005,-0.50767631299993354,0],[103.47818757700009,-0.50776554199995871,0],[103.47841290400004,-0.50792320099992594,0],[103.47859103600007,-0.50796619699997336,0],[103.47929402700004,-0.50802728299993305,0],[103.47943084600007,-0.50805107799993721,0],[103.47957361300007,-0.50819384499993703,0],[103.47992458400006,-0.50852102099997865,0],[103.48005545400008,-0.5085388669999702,0],[103.48041237300004,-0.50847938099997236,0],[103.48096559800007,-0.50852696999993441,0],[103.48134036300007,-0.508616199999949,0],[103.48157511700003,-0.50869721799995204,0],[103.48171301700006,-0.50874480999993921,0],[103.48185714800007,-0.50885078699997166,0],[103.48200391300009,-0.5089897109999697,0],[103.48205746600007,-0.50904133899996395,0],[103.48217912300004,-0.50928244899995434,0],[103.48240517200009,-0.50947875399992881,0],[103.48259778300007,-0.5095415619999244,0],[103.48267881000004,-0.50956798399994341,0],[103.48275019400006,-0.50972859899997047,0],[103.48273829600004,-0.50991300599997658,0],[103.48279778300008,-0.51005577399996582,0],[103.48282157800008,-0.510293719999936,0],[103.48288106400008,-0.51060899799995241,0],[103.48291675600007,-0.5107339199999501,0],[103.48288701300004,-0.51091238099996872,0],[103.48288106400008,-0.51108489099993903,0],[103.48304167800006,-0.51129309299994929,0],[103.48334172000006,-0.51156848799996624,0],[103.48342738000008,-0.51166842499992526,0],[103.48355587100008,-0.51198251499994285,0],[103.48359870200005,-0.51229660399997101,0],[103.48369863900007,-0.51269635199997765,0],[103.48381285300007,-0.51303899499993122,0],[103.48381829400006,-0.51305123699995647,0],[103.48412433200008,-0.51335727699995459,0],[103.48431468900009,-0.51358332599994583,0],[103.48438764900004,-0.51360296799992966,0],[103.48446935400005,-0.51362496499996269,0],[103.48454668700003,-0.51360117099994795,0],[103.48465971100006,-0.51358332599994583,0],[103.48473109500009,-0.51352978699992491,0],[103.48472514600007,-0.51342865999993137,0],[103.48460022500007,-0.51336917399993354,0],[103.48445150800006,-0.51336917399993354,0],[103.48441211500005,-0.51336744899992937,0],[103.48431445600005,-0.51336317399994869,0],[103.48427304900008,-0.51323235399996747,0],[103.48427029100009,-0.51319928199995957,0],[103.48425800400008,-0.51305192799992483,0],[103.48407674300006,-0.51291707499996164,0],[103.48399941100007,-0.51283974399996168,0],[103.48396371900009,-0.51272671999993236,0],[103.48395474400007,-0.51249938599994493,0],[103.48392706700008,-0.51241081699993174,0],[103.48386996000005,-0.51219666599996572,0],[103.48381285300007,-0.51193968399996947,0],[103.48372719300005,-0.51163987199993244,0],[103.48372719300005,-0.51143999799995754,0],[103.48386996000005,-0.51116873899997017,0],[103.48401272800004,-0.51114018499993108,0],[103.48405181600003,-0.51114018499993108,0],[103.48414121900004,-0.51114018499993108,0],[103.48434109300007,-0.51125439899993808,0],[103.48446958400007,-0.51153993499997341,0],[103.48445530800007,-0.51182546999996248,0],[103.48441247700003,-0.5121538349999355,0],[103.48441247700003,-0.51232515599997441,0],[103.48445530800007,-0.51266779999997425,0],[103.48452669100004,-0.51283912099995632,0],[103.48457195800006,-0.51287872799997558,0],[103.48464090600004,-0.51293905799997219,0],[103.48476939600005,-0.51293905799997219,0],[103.48486791400006,-0.51285758999995323,0],[103.48485006800007,-0.51276835899994921,0],[103.48476939600005,-0.51272671999993236,0],[103.48470135200006,-0.51266723199995567,0],[103.48468945400003,-0.51256610499996214,0],[103.48477868400005,-0.51244118299996444,0],[103.48494524700004,-0.51223892899997736,0],[103.48536313900007,-0.51199528199992983,0],[103.48545188200006,-0.51188879199997928,0],[103.48548062500004,-0.51166785899994238,0],[103.48554606000005,-0.51156673099995942,0],[103.48574831500008,-0.51139421999994283,0],[103.48601893300008,-0.51136136799993892,0],[103.48612568900006,-0.51132578299996112,0],[103.48620756600008,-0.51134215799993399,0],[103.48626845700005,-0.51135433599995395,0],[103.48632556400008,-0.51141144299992902,0],[103.48633984100007,-0.51162559499994131,0],[103.48631128700004,-0.51181119399996078,0],[103.48629701000004,-0.51209672799996042,0],[103.48633128300008,-0.51232815899993511,0],[103.48627774500005,-0.51257205399997474,0],[103.48627419900004,-0.51276046899994299,0],[103.48627280300008,-0.51283465199992406,0],[103.48631128700004,-0.5128962279999314,0],[103.48652293600009,-0.51280224399994268,0],[103.48659897200008,-0.5125958489999789,0],[103.48683982000006,-0.51229789199993547,0],[103.48681907200006,-0.51215564799997537,0],[103.48680717500008,-0.51206047099992702,0],[103.48706235300006,-0.51163634999994656,0],[103.48711078600007,-0.51149710499993262,0],[103.48715704300008,-0.51141780699992978,0],[103.48715704300008,-0.51134329599994999,0],[103.48719511400009,-0.51124811699997963,0],[103.48721415000006,-0.51121004599997377,0],[103.48728077500004,-0.51113390399996206,0],[103.48738547100004,-0.51109583199996678,0],[103.48741344800004,-0.51109583199996678,0],[103.48749968500005,-0.51109583199996678,0],[103.48754727400006,-0.51114342199997509,0],[103.48762341700007,-0.51121956499997623,0],[103.48767100600008,-0.51126715299994885,0],[103.48778522000003,-0.51135281299997359,0],[103.48788991700008,-0.5114194379999617,0],[103.48800413100008,-0.51146702899995944,0],[103.48821352300007,-0.51153365299995812,0],[103.48824207700005,-0.51153365299995812,0],[103.48826965300003,-0.51153365299995812,0],[103.48842424900005,-0.51149710499993262,0],[103.48852418600006,-0.51145427399995924,0],[103.48880592200004,-0.51130499099997451,0],[103.48899627900005,-0.51129309299994929,0],[103.48935914700007,-0.51135258099992598,0],[103.48963278500008,-0.51144180999995115,0],[103.49023359900008,-0.51167380699996556,0],[103.49087605300008,-0.51198313799994821,0],[103.49105451300005,-0.51205452099992499,0],[103.49150661000004,-0.51223297999996475,0],[103.49243203300006,-0.51285315799992759,0],[103.49260734100005,-0.51295333499996332,0],[103.49274300800005,-0.51305513499994504,0],[103.49312464400003,-0.51321450799997592,0],[103.49333879500006,-0.513416761999963,0],[103.49343046100006,-0.51377679499995565,0],[103.49348350600008,-0.51387295799997901,0],[103.49352505700006,-0.51391303299993751,0],[103.49354539700005,-0.51391392399995084,0],[103.49356132500009,-0.51387564299994892,0],[103.49358964300006,-0.51379641399995535,0],[103.49362680300004,-0.51374745699996538,0],[103.49369755800006,-0.5137252159999548,0],[103.49379217100005,-0.5137510599999473,0],[103.49385406400006,-0.51381606799992596,0],[103.49387879600005,-0.51393447999993214,0],[103.49388496200004,-0.51403775599993651,0],[103.49390175200006,-0.51411521399995763,0],[103.49394242200003,-0.51415617599997177,0],[103.49400875100008,-0.51415797299995347,0],[103.49403270800008,-0.51414676299992834,0],[103.49408480800008,-0.51412238499995055,0],[103.49415470100007,-0.51402179399997294,0],[103.49419628700008,-0.51390962899995429,0],[103.49423876500003,-0.51378766999994241,0],[103.49432017100008,-0.51362387999995462,0],[103.49438449200005,-0.51349959699996361,0],[103.49447498800004,-0.51318476499994858,0],[103.49467751600008,-0.51306311499996582,0],[103.49487354800004,-0.51288138399996797,0],[103.49504605800007,-0.51284569199992802,0],[103.49518882600006,-0.51287543499995536,0],[103.49534349100009,-0.51303009999998039,0],[103.49561221500005,-0.51364644399995996,0],[103.49567849000005,-0.51368361199996571,0],[103.49585361000004,-0.51378182099995229,0],[103.49615337700004,-0.51394570899992686,0],[103.49639242700005,-0.51408780999997816,0],[103.49668193800005,-0.51414249799995559,0],[103.49698531900003,-0.51426741999995329,0],[103.49718428100005,-0.51449995699994133,0],[103.49746121100009,-0.51456485199997815,0],[103.49770510600007,-0.51466597899997168,0],[103.49786439000007,-0.51482597399996166,0],[103.49811044500007,-0.51490321899996161,0],[103.49834756100006,-0.51482659399994191,0],[103.49860335300008,-0.51492177199997968,0],[103.49872232600006,-0.514945566999927,0],[103.49886509300006,-0.514945566999927,0],[103.49903165600006,-0.51493366899995863,0],[103.49920416700007,-0.51500505299992483,0],[103.49932908800008,-0.51516566599997304,0],[103.49944377200006,-0.51526588999996648,0],[103.49969318500007,-0.51530763399995294,0],[103.49995964500005,-0.51549879099997042,0],[103.49998344000005,-0.51561181599993233,0],[103.50000410400008,-0.51568528599995034,0],[103.50003697800008,-0.51580217299994047,0],[103.50019759200006,-0.51604011799997807,0],[103.50061399700007,-0.51620073199995886,0],[103.50094712200007,-0.51629590999993979,0],[103.50126834900004,-0.51630780799996501,0],[103.50174424100004,-0.51636729399996284,0],[103.50205952000005,-0.51644462599995222,0],[103.50219633900008,-0.51649816399992687,0],[103.50226177400003,-0.51644462599995222,0],[103.50226177400003,-0.51635800999997628,0],[103.50226177400003,-0.51634349899995868,0],[103.50211900600004,-0.51620668099997147,0],[103.50180967600005,-0.51605201499995701,0],[103.50154793600007,-0.51594494099992971,0],[103.50117911900008,-0.51587355599997409,0],[103.50097686500004,-0.51583786399993414,0],[103.50095901900005,-0.51571889199993848,0],[103.50104824900006,-0.51568319899996595,0],[103.50114342700004,-0.51576053099995534,0],[103.50132188700007,-0.51578432599995949,0],[103.50144086000006,-0.51576647999996794,0],[103.50153001800004,-0.51564572999996017,0],[103.50165382200004,-0.51562847099995679,0],[103.50174892900009,-0.5156974639999703,0],[103.50188938800005,-0.51581406999997625,0],[103.50215350900004,-0.51585333099995978,0],[103.50218920000003,-0.51589616199993316,0],[103.50227129200005,-0.5159461299999748,0],[103.50234624500007,-0.51594255999992811,0],[103.50244975100009,-0.51597111499995663,0],[103.50262821100006,-0.51598182099996848,0],[103.50280310100004,-0.51597825299995748,0],[103.50294377000006,-0.51595002499993825,0],[103.50300654500006,-0.51601037499995073,0],[103.50311005200007,-0.51607818899992708,0],[103.50318143600003,-0.51610317399996575,0],[103.50341105400008,-0.51620549199992638,0],[103.50353002700007,-0.51631851499996628,0],[103.50369658900007,-0.51630066899997473,0],[103.50385474600006,-0.51621793899994373,0],[103.50397673600008,-0.51623626599996442,0],[103.50406983400006,-0.51625155999994377,0],[103.50417843000008,-0.51636015599996199,0],[103.50427955700007,-0.51641369399993664,0],[103.50439853000006,-0.51641964299994925,0],[103.50450560600007,-0.51642559099997243,0],[103.50473760300008,-0.51648507699997026,0],[103.50493985700007,-0.51652671799996597,0],[103.50508857400007,-0.51656240999994907,0],[103.50520754700005,-0.5165505119999807,0],[103.50535626300007,-0.51653861599993434,0],[103.50560015800005,-0.5165862039999638,0],[103.50641819300006,-0.51658351199995423,0],[103.50656479900005,-0.51659366299998055,0],[103.50679595600008,-0.51660729299993591,0],[103.50709886200008,-0.51660674999993716,0],[103.50741096200005,-0.51659200999995392,0],[103.50771570900008,-0.51655628599996817,0],[103.50811182800004,-0.51649835099993879,0],[103.50839573400003,-0.5164545889999772,0],[103.50883968400007,-0.51636457699993343,0],[103.50919104600007,-0.51626465999993343,0],[103.50950991600007,-0.51615239699992799,0],[103.50961848500003,-0.51610887199996114,0],[103.51016872300005,-0.51596754399997735,0],[103.51028769600003,-0.51586046899996063,0],[103.51039477200004,-0.5158069319999754,0],[103.51051572700004,-0.51580763799995566,0],[103.51060892300006,-0.51583667399995647,0],[103.51057918000004,-0.51593185299992683,0],[103.51034748300003,-0.51601944699996238,0],[103.51009763900004,-0.51615507699995078,0],[103.51010078100006,-0.51625874399996974,0],[103.51024605500004,-0.51637800199995354,0],[103.51053308100006,-0.51656910299993797,0],[103.51081117700005,-0.51660999999995738,0],[103.51131086400005,-0.51659810199993217,0],[103.51148337500007,-0.51636015599996199,0],[103.51147742600006,-0.51610436499993284,0],[103.51137035100004,-0.5157652909999797,0],[103.51129301800006,-0.51556898599994838,0],[103.51118142000007,-0.51538126399992734,0],[103.51313509000005,-0.5140394349999724,0],[103.51339429800004,-0.51386140399995384,0],[103.51348835600004,-0.51379680299993424,0],[103.51353834000008,-0.51384224099996345,0],[103.51383101400006,-0.51400642399994467,0],[103.51416356900006,-0.51405892699995093,0],[103.51428987600008,-0.5140577259999759,0],[103.51442171500008,-0.51403121099997406,0],[103.51458544300004,-0.5139824849999286,0],[103.51468601300007,-0.5139294259999474,0],[103.51478965100006,-0.51386401699994622,0],[103.51489022400006,-0.51380169699996259,0],[103.51501531700006,-0.51376838899994937,0],[103.51514346400006,-0.51377582699996083,0],[103.51531882700004,-0.51379871299997149,0],[103.51565911500006,-0.51388274199996431,0],[103.51579031800009,-0.51392474699997592,0],[103.51588901900004,-0.51399698899996338,0],[103.51607783400004,-0.51416431499995952,0],[103.51618881100006,-0.51421619099994587,0],[103.51627402500009,-0.51425509199992803,0],[103.51634452700006,-0.51431560699995771,0],[103.51639541100008,-0.51436376199995948,0],[103.51645978700009,-0.51437921399997322,0],[103.51654931600007,-0.51436873499994817,0],[103.51668728000004,-0.51435148399997388,0],[103.51683934800008,-0.51433609099996147,0],[103.51696075000007,-0.51433179599996492,0],[103.51702206500005,-0.51433798699997624,0],[103.51711279900007,-0.51440096499993615,0],[103.51715693300008,-0.51446023299996568,0],[103.51720534800006,-0.51458061599993243,0],[103.51724945400008,-0.51476025299996309,0],[103.51726966200005,-0.51486518899997691,0],[103.51729295100006,-0.5149293899999634,0],[103.51732973500003,-0.51495779799995489,0],[103.51738185300007,-0.51495101799997656,0],[103.51740209000008,-0.5149263329999485,0],[103.51743583700005,-0.51484053699994092,0],[103.51748865700006,-0.51447512599997935,0],[103.51751320300008,-0.51439056699996399,0],[103.51754816800008,-0.51431835699997919,0],[103.51761256100008,-0.51426158299994995,0],[103.51768369200005,-0.51424801599995362,0],[103.51777995600008,-0.51424927599992998,0],[103.51785230900003,-0.51426780699995334,0],[103.51795346700004,-0.51431845099995144,0],[103.51805156000006,-0.51437711799997032,0],[103.51814474700006,-0.51443577299994558,0],[103.51825634000005,-0.51446789699997453,0],[103.51840471500009,-0.51449386199993796,0],[103.51866039900005,-0.51450749699995413,0],[103.51898779300006,-0.51451551999997491,0],[103.51901665200006,-0.51451622799993402,0],[103.51910270900004,-0.51451371899997866,0],[103.51943667000006,-0.51450398099996164,0],[103.51979353200005,-0.51448307099997237,0],[103.52020313100007,-0.51445847699994829,0],[103.52054099300005,-0.51442831099996056,0],[103.52088070200006,-0.51438086299992847,0],[103.52108120800006,-0.51434510299992553,0],[103.52127252800005,-0.51429021399997055,0],[103.52140131100003,-0.51423222399995439,0],[103.52160981300005,-0.51411622499995246,0],[103.52175759800008,-0.51405329299996083,0],[103.52194095500005,-0.51397124099997882,0],[103.52209670700006,-0.51391571999994312,0],[103.52234751500004,-0.51384294399997543,0],[103.52267250800008,-0.51375598699996772,0],[103.52282826600003,-0.51371280899996918,0],[103.52304778700005,-0.51365977999995494,0],[103.52324094500005,-0.51362278899995317,0],[103.52331267800008,-0.51361207499996908,0],[103.52360824500005,-0.51356792899997572,0],[103.52396266500006,-0.51350196999993614,0],[103.52406813500005,-0.51347730399993452,0],[103.52415276500005,-0.51344213199996602,0],[103.52421470900003,-0.51337178299996822,0],[103.52424967200005,-0.5133014159999334,0],[103.52425474800003,-0.51321954599995934,0],[103.52425705800005,-0.51318228699994961,0],[103.52425765000004,-0.51307581999992635,0],[103.52415995400008,-0.51272453699994003,0],[103.52415995400008,-0.5124508989999299,0],[103.52433088700008,-0.51209404999997332,0],[103.52430272100008,-0.51199880199993686,0],[103.52421349100007,-0.51181439399994133,0],[103.52408857000006,-0.51167757499996469,0],[103.52401718600004,-0.51152291099992908,0],[103.52411831300009,-0.51142178299994612,0],[103.52436815600004,-0.51126711799997793,0],[103.52457041100007,-0.51118978499994228,0],[103.52467153800006,-0.51113029999993387,0],[103.52481430500006,-0.51114219599998023,0],[103.52496302200007,-0.51122547799997164,0],[103.52515932700004,-0.51128496399996948,0],[103.52537942700008,-0.5113741929999378,0],[103.52561737300005,-0.51158239599993749,0],[103.52584937100005,-0.51186793099992656,0],[103.52595644700006,-0.51198690599994734,0],[103.52602783100008,-0.51212967199995774,0],[103.52606352200007,-0.51223079899995128,0],[103.52612895800007,-0.51240331099995728,0],[103.52614085500005,-0.51257582199997387,0],[103.52618249500006,-0.51271264099995051,0],[103.52620976100008,-0.51282577799997853,0],[103.52630396200004,-0.51286063999992848,0],[103.52659207900007,-0.51280258799994272,0],[103.52683305900007,-0.51276993099997981,0],[103.52698112300004,-0.51274811499996531,0],[103.52704624000006,-0.51263292799995952,0],[103.52709977800004,-0.51257344299995111,0],[103.52717711000008,-0.51253180099996598,0],[103.52727228900005,-0.51253180099996598,0],[103.52736151800008,-0.51258533899994063,0],[103.52760732000007,-0.51261015099993301,0],[103.52776695900008,-0.51256644299996879,0],[103.52785998300004,-0.5125429779999422,0],[103.52813611100004,-0.51247332699995241,0],[103.52833969300008,-0.51242646099996136,0],[103.52859110200006,-0.51235614499995563,0],[103.52884007000006,-0.51227904599994645,0],[103.52915280400003,-0.51217480099995782,0],[103.52941342700007,-0.51204646899992667,0],[103.52973844700006,-0.51188049099994259,0],[103.52976116400004,-0.51186704999997801,0],[103.52990218800005,-0.51178361799992445,0],[103.53004568500006,-0.51169044199997415,0],[103.53026215500006,-0.51158617299995512,0],[103.53046084300007,-0.5114886939999792,0],[103.53069510400007,-0.51136776199996348,0],[103.53075380000007,-0.51133031699993126,0],[103.53088275600004,-0.51124805099993864,0],[103.53088735200004,-0.51124553499994363,0],[103.53115442500007,-0.51109935099992754,0],[103.53139666000004,-0.51095619999995279,0],[103.53161007400007,-0.51081983299997091,0],[103.53178484700004,-0.51071678699997847,0],[103.53197556600009,-0.51061929799993777,0],[103.53221411800007,-0.51048232099992674,0],[103.53248517300005,-0.51034658399993305,0],[103.53275376800008,-0.51020466599993597,0],[103.53307755800006,-0.51003499799998053,0],[103.53328729100008,-0.50992269699997905,0],[103.53347984500004,-0.5098178089999692,0],[103.53376133000006,-0.50964750599996478,0],[103.53381608600006,-0.50961845999995603,0],[103.53401044100008,-0.50951535999996622,0],[103.53408818500009,-0.50947411899994677,0],[103.53438438300009,-0.50931493599995292,0],[103.53466279600008,-0.5091452449999565,0],[103.53482163100006,-0.50904404799996428,0],[103.53492548000008,-0.50899206599996205,0],[103.53494366700005,-0.50898296299993717,0],[103.53505343900008,-0.50892743799994378,0],[103.53515093400006,-0.50888918699996566,0],[103.53522268100005,-0.50889105499993548,0],[103.53526183900004,-0.50891817299992681,0],[103.53528153600007,-0.50893181499992579,0],[103.53532683900005,-0.50899206599996205,0],[103.53534466700006,-0.50901577899998074,0],[103.53538267300007,-0.50908059799996863,0],[103.53538633100004,-0.50915528799993126,0],[103.53536363500007,-0.50920343499996079,0],[103.53535381000006,-0.50926638899994714,0],[103.53537403400009,-0.50930281499995544,0],[103.53542247400009,-0.5093139339999766,0],[103.53548685800007,-0.50930037199992739,0],[103.53556168000006,-0.50925223699994149,0],[103.53559113500006,-0.50914978099996233,0],[103.53558931000003,-0.50907138499997018,0],[103.53555986300006,-0.50899206599996205,0],[103.53555928600008,-0.50899051199996848,0],[103.53552497100009,-0.50888927099992998,0],[103.53547529100007,-0.50879459699996232,0],[103.53543977600003,-0.50872691599994369,0],[103.53536311700009,-0.50858928799993919,0],[103.53530296000008,-0.5084680989999697,0],[103.53528178100004,-0.50836551199995483,0],[103.53496825900004,-0.50796283899995842,0],[103.53473269200003,-0.50761305899993658,0],[103.53468272300006,-0.50743459899996424,0],[103.53473269200003,-0.50730610799996612,0],[103.53481835300005,-0.50725613899993505,0],[103.53482549100005,-0.5071205109999255,0],[103.53483262900005,-0.5069706049999354,0],[103.53490401300007,-0.50680642099996476,0],[103.53510388800004,-0.50679214499996306,0],[103.53528234800007,-0.50679214499996306,0],[103.53538942300008,-0.50677786799997193,0],[103.53543225400006,-0.50670648399994889,0],[103.53541797700007,-0.50654943999995794,0],[103.53541797700007,-0.5064923319999366,0],[103.53548222200004,-0.50642094999994924,0],[103.53564640500008,-0.50639239499997757,0],[103.53580344900007,-0.50640667299995812,0],[103.53582486500005,-0.50652802499996596,0],[103.53589624800009,-0.50664223899997296,0],[103.53617464500007,-0.50684211299994786,0],[103.53640307400008,-0.50696346599994513,0],[103.53651728800008,-0.5069991589999745,0],[103.53658153300006,-0.50717047999995657,0],[103.53658867200005,-0.50730610799996612,0],[103.53656725600007,-0.50745601399995621,0],[103.53656011800007,-0.50757736699995348,0],[103.53659581000005,-0.50772727299994358,0],[103.53668940600005,-0.50781296199994586,0],[103.53691100500004,-0.50775104999996756,0],[103.53714082500005,-0.5076492009999356,0],[103.53743836500007,-0.5075143259999777,0],[103.53781455500007,-0.50737051699996982,0],[103.53810388000005,-0.50721498399997245,0],[103.53835218300009,-0.50705805699993789,0],[103.53868392600003,-0.50684263399995189,0],[103.53888957500004,-0.50670610699995677,0],[103.53894933000004,-0.50666643799996791,0],[103.53924414200009,-0.50648405199996205,0],[103.53947397000007,-0.50634503099996664,0],[103.53973594900003,-0.50618053699997745,0],[103.54007384700009,-0.50595753299995749,0],[103.54030698200006,-0.50578336299997773,0],[103.54036866700005,-0.50573727999994844,0],[103.54066211700007,-0.50553492499994945,0],[103.54074039800008,-0.5054821249999577,0],[103.54097129100006,-0.50532638799995766,0],[103.54123874800007,-0.50512953399993421,0],[103.54139403200008,-0.50500219699995341,0],[103.54152604900008,-0.50490377099993111,0],[103.54168199700007,-0.50482118499996886,0],[103.54187967600006,-0.50469729599996072,0],[103.54213549600007,-0.50455139499996449,0],[103.54236806500006,-0.50440961299995024,0],[103.54256984500006,-0.50430845399995405,0],[103.54280583200006,-0.5041494609999404,0],[103.54302188500009,-0.50402023799995277,0],[103.54329093500007,-0.503839500999959,0],[103.54331619600003,-0.50382253099996888,0],[103.54349664500006,-0.50369341799995482,0],[103.54371237100008,-0.50354090799993401,0],[103.54386737600004,-0.50339516099995762,0],[103.54390806000004,-0.50335690699995439,0],[103.54413341700007,-0.50316322699995908,0],[103.54429462200005,-0.50298971099994105,0],[103.54443098100006,-0.50280166499993584,0],[103.54454006700007,-0.50263863799995079,0],[103.54457817000008,-0.50257466099992598,0],[103.54467562500008,-0.50241102899997259,0],[103.54475905400005,-0.50223911499995211,0],[103.54478795300008,-0.50209462999993093,0],[103.54478557400006,-0.50196224599994821,0],[103.54474069500009,-0.50185648799993032,0],[103.54466615000007,-0.50174750599995832,0],[103.54452506200005,-0.50158521899993502,0],[103.54446334400006,-0.50149238199992396,0],[103.54444812400004,-0.50141649599993343,0],[103.54446657600005,-0.50138017899996612,0],[103.54451710100005,-0.50135112999993225,0],[103.54455800000005,-0.50129221599996754,0],[103.54458368100006,-0.50119293199992399,0],[103.54461016900007,-0.50110172599994485,0],[103.54464465200004,-0.50104845299995304,0],[103.54470880300005,-0.50103394099994603,0],[103.54478897500007,-0.50108642699996153,0],[103.54491885200008,-0.50119865899995375,0],[103.54507357000006,-0.50135609399995928,0],[103.54516577300006,-0.50140535999997837,0],[103.54525558100005,-0.50139326999993727,0],[103.54543600600005,-0.50132953999997198,0],[103.54561964900006,-0.50121979899995495,0],[103.54593641400004,-0.50105277599993769,0],[103.54618982300008,-0.50092852499994933,0],[103.54639511400006,-0.5008292829999732,0],[103.54656994400005,-0.50071711699996513,0],[103.54678005300008,-0.50057429099996398,0],[103.54700299900009,-0.50043226999997614,0],[103.54715857700006,-0.50031929499994021,0],[103.54729090000006,-0.50021519699993178,0],[103.54742163400005,-0.50007396199993082,0],[103.54746678200007,-0.50002051999996411,0],[103.54747771900009,-0.50000000199997885,0],[103.54752079000008,-0.49991925199992693,0],[103.54756289800008,-0.49984233999992966,0],[103.54761591200008,-0.49976670499995635,0],[103.54767485400004,-0.49969684899997446,0],[103.54774618700009,-0.499627630999953,0],[103.54779870200008,-0.49957444299997178,0],[103.54783784000006,-0.49951547399996343,0],[103.54786310900005,-0.49944881299995814,0],[103.54786905700007,-0.49941291799996179,0],[103.54788541500005,-0.49937766599992983,0],[103.54791661600007,-0.49934177499994803,0],[103.54795178200004,-0.49933152699992434,0],[103.54800774500006,-0.49932897999997294,0],[103.54806024800007,-0.49933347899997216,0],[103.54810679200006,-0.49934374599996545,0],[103.54815186600007,-0.49934503999998014,0],[103.54818802000005,-0.49933799299992643,0],[103.54823210200004,-0.49931043499992711,0],[103.54823351600004,-0.49930885099996658,0],[103.54826925200007,-0.49926877499996181,0],[103.54829799100008,-0.49923481199994058,0],[103.54831830100005,-0.49920724799994787,0],[103.54835347200009,-0.4991784129999246,0],[103.54857092400005,-0.49901820499997029,0],[103.54879530100004,-0.49886826199997358,0],[103.54895227400004,-0.49876672399994959,0],[103.54904098100008,-0.49870934299997316,0],[103.54908635700008,-0.49867492199996377,0],[103.54930202500009,-0.49851131999997733,0],[103.54942387700004,-0.4984260949999566,0],[103.54956355200005,-0.49835753399997884,0],[103.54965271100008,-0.49831845599993585,0],[103.54974483900008,-0.49825693599996157,0],[103.54981617000004,-0.49818900199994687,0],[103.54988848500005,-0.49814157999992403,0],[103.54997714700005,-0.49807621899992682,0],[103.55006928300008,-0.49801790299994764,0],[103.55016389500008,-0.49793844199996329,0],[103.55024909200006,-0.49785833499993259,0],[103.55032537700004,-0.49777630199997702,0],[103.55039126100007,-0.4977186219999794,0],[103.55054185300008,-0.49755711499994959,0],[103.55070184900006,-0.49740778899996485,0],[103.55089554000006,-0.49720014599995466,0],[103.55094260000004,-0.49715271799993843,0],[103.55101046500005,-0.49708093999993253,0],[103.55107833000005,-0.49700467399992476,0],[103.55112984900006,-0.49694634899992707,0],[103.55117542800008,-0.49689444499995261,0],[103.55121703600008,-0.49684380499996905,0],[103.55127896600004,-0.49675407899997026,0],[103.55135239700007,-0.49664124199995285,0],[103.55136864000008,-0.49661628099994459,0],[103.55145682600005,-0.49646181299993941,0],[103.55151231400004,-0.49637144599995509,0],[103.55156383500008,-0.49630542399995647,0],[103.55161336900005,-0.49624646399996664,0],[103.55167132700007,-0.49619712199995547,0],[103.55174066700005,-0.49615931499994304,0],[103.55179416800007,-0.49611701699996047,0],[103.55181745400006,-0.49607920599993349,0],[103.55182588100007,-0.49604074299998047,0],[103.55182044600008,-0.49599587299996983,0],[103.55179470200005,-0.49593624599992836,0],[103.55174865400005,-0.49587149599994973,0],[103.55170607700006,-0.49582981799994741,0],[103.55165507400005,-0.49579006599992681,0],[103.55160604400004,-0.49576121399996964,0],[103.55156395600005,-0.49574709399996664,0],[103.55151344000006,-0.49573875399994449,0],[103.55144757100004,-0.49572271299996373,0],[103.55138220800006,-0.49569962499992926,0],[103.55135239700007,-0.49568151899995883,0],[103.55131040700007,-0.49565601499995182,0],[103.55117224200006,-0.49559701499993025,0],[103.55117714700003,-0.49551468899994688,0],[103.55120689000006,-0.49545520399993848,0],[103.55142104200007,-0.49545520399993848,0],[103.55162329600006,-0.49550874099998055,0],[103.55184339600004,-0.49562771399996564,0],[103.55202780400003,-0.49573478999997178,0],[103.55221221300008,-0.4957823779999444,0],[103.55246800500004,-0.49581212199996116,0],[103.55264646400008,-0.49580617299994856,0],[103.55278923200007,-0.49575263599996333,0],[103.55290225600004,-0.49580022399993595,0],[103.55308666400003,-0.49580617299994856,0],[103.55312235600007,-0.49569314899997607,0],[103.55320563800007,-0.49561581699992985,0],[103.55336625100006,-0.49562176599994245,0],[103.55339599400008,-0.49553848499994047,0],[103.55340789200005,-0.49541951199995538,0],[103.55337814800004,-0.4952707939999641,0],[103.55336625100006,-0.49504474599996229,0],[103.55335435400008,-0.49472351799994385,0],[103.55324727800007,-0.49443798299995478,0],[103.55312235600007,-0.49418814099993824,0],[103.55293794800008,-0.49405726899993851,0],[103.55271189900009,-0.49390855299992609,0],[103.55252154200008,-0.49377173399994945,0],[103.55240256900004,-0.49355163399997082,0],[103.55242041500009,-0.49340291699996897,0],[103.55271784800004,-0.49332558499997958,0],[103.55297774200005,-0.49331893899994839,0],[103.55308129500008,-0.49337473999997883,0],[103.55320476500003,-0.49363065199997891,0],[103.55334753300008,-0.49367229199992835,0],[103.55340701900008,-0.4936960869999325,0],[103.55343676300004,-0.49376152199994294,0],[103.55343676300004,-0.49383290699995541,0],[103.55346055700005,-0.4939102389999448,0],[103.55352599200006,-0.49395187899995108,0],[103.55369255500005,-0.49397567399995523,0],[103.55376988700004,-0.49401731499995094,0],[103.55378178400008,-0.49410059599995293,0],[103.55380557900008,-0.49424336399994218,0],[103.55397809000004,-0.49432069499994213,0],[103.55409111400007,-0.49430284899995058,0],[103.55439387400008,-0.49432440699996505,0],[103.55448598800007,-0.49432726899993895,0],[103.55461174100009,-0.49432351399997287,0],[103.55495025000005,-0.49422895699996161,0],[103.55534653700005,-0.49404830899993613,0],[103.55559660300008,-0.49392818199993371,0],[103.55583203000003,-0.49382130999993024,0],[103.55620346400008,-0.49365105899994433,0],[103.55630821900007,-0.4936002429999462,0],[103.55637894400007,-0.49356593399994608,0],[103.55645645400006,-0.4935082299999749,0],[103.55652372000009,-0.49346187399993369,0],[103.55661292700006,-0.49340701099993112,0],[103.55671017800006,-0.49333701199992674,0],[103.55679645600009,-0.4932830889999309,0],[103.55690174700004,-0.49322065999996312,0],[103.55702239300007,-0.49314782499993726,0],[103.55731925200007,-0.49297188499997446,0],[103.55764245100005,-0.49271362099995031,0],[103.55785743800004,-0.49248940099994343,0],[103.55794664900009,-0.49241560999996636,0],[103.55803439900006,-0.49232383599996865,0],[103.55811629600004,-0.49225572399996054,0],[103.55820988900007,-0.49219802099997878,0],[103.55830713800003,-0.49213654099997939,0],[103.55845338000006,-0.49202301899993017,0],[103.55854404800004,-0.49194260699994175,0],[103.55862228900008,-0.49187165299997559,0],[103.55869542200008,-0.49178082799994627,0],[103.55875320400008,-0.49167674599993916,0],[103.55878246700007,-0.49158306999993329,0],[103.55883813900004,-0.49126308899997184,0],[103.55880244700006,-0.49116790999994464,0],[103.55871916600006,-0.49103703999998061,0],[103.55860019300007,-0.4909002199999577,0],[103.55857045000005,-0.49079909299996416,0],[103.55865266900008,-0.49067677399995091,0],[103.55880362200008,-0.49059133699995527,0],[103.55897698100006,-0.49047079299992902,0],[103.55921049500006,-0.49031517099996336,0],[103.55932607200003,-0.490211411999951,0],[103.55946642400005,-0.49008476499994913,0],[103.55964451700004,-0.48992454699993004,0],[103.55983322500003,-0.48973533199995245,0],[103.55999009000004,-0.48956442699994795,0],[103.56011746800004,-0.48943624899993665,0],[103.56023778700006,-0.48926227899994501,0],[103.56033096000004,-0.48914478399996142,0],[103.56045127300007,-0.48899065699993116,0],[103.56052912200005,-0.48886399799994251,0],[103.56062938400004,-0.48874496599995609,0],[103.56073080700008,-0.48866104699993684,0],[103.56083104900006,-0.48859544199996208,0],[103.56108343000005,-0.48844134399996619,0],[103.56135587700004,-0.48818804099994395,0],[103.56153515500006,-0.48798509599993167,0],[103.56170142400003,-0.48790209899993897,0],[103.56184419100003,-0.4877414859999476,0],[103.56195126700004,-0.48759871799995835,0],[103.56207618900004,-0.48746189899992487,0],[103.56210593200007,-0.48737861799997972,0],[103.56210593200007,-0.48727749099992934,0],[103.56209403500009,-0.48718826099997159,0],[103.56212377800006,-0.48709903199994642,0],[103.56223680200009,-0.48702764799998022,0],[103.56242568700009,-0.48676428799996074,0],[103.56279718500008,-0.48651100499995437,0],[103.56293831400006,-0.48640897599995014,0],[103.56299768000008,-0.48636605599995164,0],[103.56322765100003,-0.48619363699992846,0],[103.56341753600009,-0.48604715799996256,0],[103.56364397700008,-0.48586405699995794,0],[103.56385745000006,-0.48565348399995401,0],[103.56402611400006,-0.48547341899995899,0],[103.56417236700008,-0.48531014299993558,0],[103.56429856300008,-0.48516212099997347,0],[103.56444245800009,-0.48501715999992712,0],[103.56466064900007,-0.48480200299997023,0],[103.56487176200005,-0.48462500399995179,0],[103.56511119100009,-0.48437322099994162,0],[103.56520673900008,-0.48419772399995509,0],[103.56536579400006,-0.48407711599998038,0],[103.56550856100006,-0.48402357799994888,0],[103.56554425300004,-0.4839402969999469,0],[103.56559184200006,-0.48379157999994504,0],[103.56572866100004,-0.48369045399994093,0],[103.56586548100006,-0.48360717299993894,0],[103.56597255600008,-0.48347035299997287,0],[103.56612722100004,-0.48328594499997735,0],[103.56617860100005,-0.48316007999994781,0],[103.56639619800006,-0.48297621199992591,0],[103.56661379400003,-0.48279234299997142,0],[103.56681428400009,-0.4826550239999392,0],[103.56698527200007,-0.48253791099995169,0],[103.56683816900005,-0.48246687299996438,0],[103.56538498700007,-0.48176509999996142,0],[103.55496209100005,-0.47708057599993481,0],[103.54664753700007,-0.47039404599996715,0],[103.53038800000007,-0.46541663699997571,0],[103.52955327500007,-0.46516110899995056,0],[103.52234345000005,-0.46574254599994447,0],[103.51397075000006,-0.4648122459999513,0],[103.51045448800005,-0.46361338499997373,0],[103.50885410100005,-0.46306773599997086,0],[103.50648619800006,-0.46162030599992931,0],[103.48402672100008,-0.44789279799994119,0],[103.47716575800007,-0.44731097799996178,0],[103.47589215200009,-0.44701771399996915,0],[103.45949006100005,-0.4432409169999687,0],[103.45611772400008,-0.43917085399993994,0],[103.45312826400004,-0.43793989999994665,0],[103.44968232800005,-0.43652098499995873,0],[103.44623328700004,-0.43510079099996801,0],[103.44587891900005,-0.43504815699992605,0],[103.43623256200004,-0.43358905399992409,0],[103.43429578800004,-0.43280399699995087,0],[103.40873044200004,-0.42244127399993658,0],[103.38617079700003,-0.41329688699994449,0],[103.36087826700003,-0.40067969499995115,0],[103.33692304500005,-0.3832365709999408,0],[103.32992930700004,-0.37723640799993063,0],[103.32767728600004,-0.37530432299996619,0],[103.31632959400008,-0.36556875699994862,0],[103.31517964000005,-0.36460131099994442,0],[103.31363942300004,-0.3642192539999769,0],[103.31363738500005,-0.36422218199993495,0],[103.31358389700006,-0.36420548099994221,0]]]]},"properties":{"OBJECTID":1129,"NAMOBJ":"Tanah Merah","FCODE":"BA03070040","REMARK":null,"METADATA":"TASWIL1000020260612KECAMATAN_AR","SRS_ID":"4326","KDBBPS":null,"KDCBPS":null,"KDCPUM":"14.04.10","KDEBPS":null,"KDEPUM":null,"KDPBPS":null,"KDPKAB":"14.04","KDPPUM":"14","LUASWH":518.46045084705452,"TIPADM":3,"WADMKC":"Tanah Merah","WADMKD":null,"WADMKK":"Indragiri Hilir","WADMPR":"Riau","WIADKC":null,"WIADKK":null,"WIADPR":null,"WIADKD":null,"UUPP":null,"SHAPE_Length":1.2701330728757954,"SHAPE_Area":0.042121605314841777}}]}