{"type":"FeatureCollection","features":[{"type":"Feature","id":1940,"geometry":{"type":"Polygon","coordinates":[[[112.72566988600011,-7.1495651139999268,0],[112.72540033600001,-7.1494924969999261,0],[112.72513626800003,-7.149404853999954,0],[112.72506859400005,-7.1493841949999251,0],[112.7246323060001,-7.1492687719999708,0],[112.72461438300002,-7.1492654579999453,0],[112.72453983100002,-7.1492642889999729,0],[112.72448274400006,-7.1492627759999436,0],[112.72443339500001,-7.1492482079999604,0],[112.72436978100006,-7.1492271369999685,0],[112.72424254900011,-7.149183900999958,0],[112.72419453300006,-7.1492327099999784,0],[112.72412795000002,-7.1492963429999463,0],[112.7241066470001,-7.1493117209999468,0],[112.72406997700011,-7.149318960999949,0],[112.72400937200007,-7.1493269609999288,0],[112.72397498600003,-7.1493411849999688,0],[112.72388417700006,-7.1493802859999391,0],[112.72381986900007,-7.1494219309999494,0],[112.72381635200009,-7.1494263489999526,0],[112.72381551000001,-7.149436924999975,0],[112.72381338600007,-7.1495770019999441,0],[112.72375067600001,-7.1495737129999384,0],[112.72368973500011,-7.1495712989999447,0],[112.72350512200001,-7.1495694629999775,0],[112.72340623800005,-7.1495656359999771,0],[112.72333751000008,-7.1495630949999622,0],[112.72330804600006,-7.1495597069999803,0],[112.72326593900004,-7.1495507719999409,0],[112.72323013200003,-7.1495383129999368,0],[112.72319853300007,-7.1495265399999539,0],[112.72315222300006,-7.1495183199999701,0],[112.72301963400002,-7.1495020259999364,0],[112.7228927430001,-7.14948746999994,0],[112.7227792540001,-7.1494783959999495,0],[112.72273242300002,-7.1494730309999568,0],[112.72270144000004,-7.1494620659999555,0],[112.72266963300001,-7.1494431889999532,0],[112.72262742400005,-7.1494006069999614,0],[112.72228541600009,-7.1492912879999722,0],[112.7221376760001,-7.1493930379999711,0],[112.72167287600007,-7.1493141219999643,0],[112.72163578800007,-7.1493085719999385,0],[112.72159871300005,-7.1493065759999581,0],[112.72157305700011,-7.1493080939999345,0],[112.72154314500006,-7.1493153169999459,0],[112.72150185800001,-7.1493304049999438,0],[112.72147624900003,-7.149344722999956,0],[112.72146059400006,-7.149351893999949,0],[112.72143991700011,-7.1493505479999726,0],[112.72142562300007,-7.1493406459999278,0],[112.72140917800004,-7.1493271959999447,0],[112.72138915500011,-7.1493102049999493,0],[112.72133979200009,-7.1492627429999516,0],[112.72133049900003,-7.1492556669999772,0],[112.72131340200008,-7.1492585759999656,0],[112.7212948670001,-7.1492586459999643,0],[112.72128776700004,-7.1492657829999757,0],[112.72107383700006,-7.149805697999966,0],[112.72121198900004,-7.1498693859999776,0],[112.7212109080001,-7.1498877349999361,0],[112.72120982300009,-7.1499049359999276,0],[112.72120530800009,-7.1499267379999765,0],[112.72119738700007,-7.1499600159999659,0],[112.72117229200001,-7.150010555999927,0],[112.72112793200006,-7.150063351999961,0],[112.72086016800006,-7.1502975129999413,0],[112.7208136380001,-7.1503183509999531,0],[112.72066704400004,-7.1503544889999375,0],[112.72056987200006,-7.150373793999961,0],[112.72054732200002,-7.1503916649999724,0],[112.72035786900005,-7.1505670859999668,0],[112.7200840160001,-7.1509024579999618,0],[112.72004710300007,-7.1508812839999791,0],[112.71965805900004,-7.1506274179999423,0],[112.71956425600001,-7.1505711639999276,0],[112.71953379600006,-7.1505596079999805,0],[112.71949808600004,-7.1505521549999571,0],[112.71947408200003,-7.1505464089999577,0],[112.71942315300009,-7.1505366789999698,0],[112.71915482200006,-7.1505023069999538,0],[112.71907735600007,-7.1504946729999688,0],[112.71903896200001,-7.1504928359999553,0],[112.71896483300009,-7.1504924519999804,0],[112.71890195700007,-7.15049268599995,0],[112.71882522300007,-7.1505035369999632,0],[112.71879877800006,-7.1505115589999377,0],[112.71878289900008,-7.150512937999963,0],[112.71850218600002,-7.1503953479999609,0],[112.71848080500001,-7.1503847829999359,0],[112.71846157400012,-7.1503784679999285,0],[112.71842421000008,-7.1503743489999465,0],[112.71837723900001,-7.1503692009999327,0],[112.71834733300011,-7.1503618609999648,0],[112.71829499800003,-7.1503492819999792,0],[112.71821807700007,-7.1503250849999631,0],[112.71807168500004,-7.1502713399999607,0],[112.71773722900002,-7.1501491019999435,0],[112.7172204740001,-7.1500045099999738,0],[112.71684741400009,-7.1502822809999316,0],[112.71676774400009,-7.1504807869999354,0],[112.71670073400003,-7.1506102019999389,0],[112.71665685900007,-7.150663953999981,0],[112.71663905000003,-7.1506901279999511,0],[112.71660058100008,-7.1507163789999595,0],[112.71655242800011,-7.1507316729999388,0],[112.71651527100005,-7.1507400569999504,0],[112.71647536300009,-7.150749823999945,0],[112.71641614000009,-7.1507514189999597,0],[112.71616853600005,-7.1507235219999643,0],[112.71613461900006,-7.1507203739999454,0],[112.71595728600005,-7.1506806639999354,0],[112.71588726400012,-7.1506743779999624,0],[112.71582926800011,-7.1506669569999417,0],[112.71580187900008,-7.1506550559999482,0],[112.71575037800005,-7.1506290619999504,0],[112.71569781100004,-7.1506107089999773,0],[112.71562660500001,-7.1505804229999512,0],[112.71561015900011,-7.1505695729999275,0],[112.71555209400003,-7.1505436029999601,0],[112.71551485000009,-7.1505284659999688,0],[112.7154820180001,-7.1505231329999788,0],[112.71545467500005,-7.1505232349999801,0],[112.71542624300002,-7.1505244319999406,0],[112.71535848500002,-7.150538868999945,0],[112.71522438200009,-7.1505842729999358,0],[112.71508577400004,-7.1505599319999646,0],[112.71500276900008,-7.1506012169999735,0],[112.71490680400007,-7.1506467959999327,0],[112.71490719700012,-7.1507518939999386,0],[112.71488825500001,-7.1508592099999646,0],[112.71486489400002,-7.150934369999959,0],[112.71484839200002,-7.1510010969999485,0],[112.71484099600002,-7.1510404319999452,0],[112.71484119700006,-7.1510939579999331,0],[112.71483626700001,-7.1511207409999429,0],[112.71479356900011,-7.1511317729999746,0],[112.71475088800003,-7.1511469849999685,0],[112.71466754200003,-7.1512613679999504,0],[112.71457051600009,-7.1513652899999443,0],[112.71449979200008,-7.151423670999975,0],[112.71443113400005,-7.1514683109999737,0],[112.71437937700011,-7.1515023179999275,0],[112.71431804800011,-7.1515377049999529,0],[112.71426388500004,-7.1515524239999309,0],[112.71423415600009,-7.1515591329999779,0],[112.71421186100008,-7.1516087059999336,0],[112.71419554000011,-7.151664855999968,0],[112.71416604100011,-7.1517862099999547,0],[112.71414888000004,-7.1518409309999811,0],[112.71408232700003,-7.1519038329999489,0],[112.71399845900009,-7.1519801309999593,0],[112.7139598870001,-7.1520242659999553,0],[112.71389830400005,-7.1521548749999511,0],[112.71386432200006,-7.1522686729999805,0],[112.71386438800005,-7.1522864349999509,0],[112.71398168300004,-7.1522421859999668,0],[112.71395815700009,-7.1522967429999653,0],[112.71390276000011,-7.1523952289999784,0],[112.71384609000006,-7.1524700389999794,0],[112.7137310060001,-7.1526078769999799,0],[112.71364708600004,-7.1526973199999588,0],[112.71358157700001,-7.1527530599999523,0],[112.71351283500007,-7.1528458079999382,0],[112.71343063800009,-7.1529453349999699,0],[112.7133719630001,-7.1530262739999557,0],[112.71329766100007,-7.1531327159999591,0],[112.71318282600009,-7.1532436809999353,0],[112.71307994200004,-7.1533486269999571,0],[112.71294930100009,-7.1534863629999563,0],[112.71286295500011,-7.1535746779999272,0],[112.71278259700011,-7.1536659539999619,0],[112.71270664400004,-7.1537363339999729,0],[112.71264264700005,-7.1538066689999482,0],[112.71255328000007,-7.1539281699999719,0],[112.71248729000001,-7.154030420999959,0],[112.71242662800012,-7.1541366269999571,0],[112.71238177200007,-7.1542109799999594,0],[112.71235020600011,-7.1542892569999594,0],[112.71233188000008,-7.1543412829999511,0],[112.71229698200011,-7.1544684969999253,0],[112.71226922500011,-7.1546133339999756,0],[112.7122458130001,-7.1547237299999438,0],[112.71222836800007,-7.1547813629999268,0],[112.71219317600003,-7.1548143889999665,0],[112.7121216380001,-7.154887495999958,0],[112.71205007100002,-7.1549523799999406,0],[112.71199968300004,-7.1550148359999639,0],[112.71195756200007,-7.1550843079999709,0],[112.71175718800009,-7.155454094999925,0],[112.71170823700004,-7.1555657149999661,0],[112.71164987700001,-7.1556750229999579,0],[112.71161026900006,-7.1557701839999481,0],[112.71160104100011,-7.1558171409999431,0],[112.71158861700007,-7.1560152489999496,0],[112.71159084900012,-7.1560537899999304,0],[112.71167347300002,-7.15609307699998,0],[112.71178649000001,-7.1561635079999633,0],[112.71185869300007,-7.1562080429999355,0],[112.71235024900011,-7.1565145229999416,0],[112.71253458300009,-7.1566410989999554,0],[112.71264016600003,-7.1567235739999546,0],[112.71276431000001,-7.1568322699999385,0],[112.7128026370001,-7.1568676169999321,0],[112.71273844600012,-7.1569598639999299,0],[112.71265338400008,-7.1571060799999486,0],[112.71261542500008,-7.1571693139999297,0],[112.71252606600001,-7.1573373639999431,0],[112.71251106200009,-7.1573922929999299,0],[112.71238283500008,-7.1579159199999367,0],[112.71235418900005,-7.1580363229999762,0],[112.71234293700002,-7.1580840689999263,0],[112.71224557200003,-7.1584820129999684,0],[112.7122267420001,-7.1585778169999799,0],[112.71218775300008,-7.1588077249999742,0],[112.71214298200005,-7.1590700559999618,0],[112.71208013900002,-7.1590990299999362,0],[112.71204329200009,-7.1591205039999295,0],[112.71201231800001,-7.1591535929999282,0],[112.71199568600002,-7.1592105529999799,0],[112.71197965200008,-7.159253931999956,0],[112.71189691500001,-7.159470841999962,0],[112.71187324300001,-7.1595379629999343,0],[112.71184325400009,-7.1596381669999687,0],[112.71182789200009,-7.1597135199999684,0],[112.7118204090001,-7.1597997229999351,0],[112.71186231200011,-7.1598591079999778,0],[112.71191562000001,-7.1599086629999533,0],[112.71196564400009,-7.1599541529999442,0],[112.71188043200004,-7.160160173999941,0],[112.71184153600007,-7.1602421849999587,0],[112.71179156100004,-7.1602735239999333,0],[112.71161095000002,-7.1603991319999523,0],[112.71152325000003,-7.1604784939999604,0],[112.71141657900012,-7.1605828089999477,0],[112.71133045700003,-7.160691437999958,0],[112.71124875900011,-7.1608073679999507,0],[112.71106381400011,-7.1607656119999774,0],[112.71102420600005,-7.1607628309999427,0],[112.7109848340001,-7.160822985999971,0],[112.71091930000011,-7.1609302229999798,0],[112.71088281900006,-7.1609639709999442,0],[112.71068755500005,-7.1608258689999502,0],[112.71059212800003,-7.1607590019999634,0],[112.71049292700002,-7.1608587439999383,0],[112.71037041400007,-7.1609892559999366,0],[112.71025660800001,-7.1610992819999524,0],[112.71023419300002,-7.1611193849999495,0],[112.71001577800007,-7.1613458389999778,0],[112.70983114400008,-7.1615324269999405,0],[112.70945527700007,-7.1619919739999318,0],[112.70927146600002,-7.1621930819999307,0],[112.70926913800008,-7.1621954209999785,0],[112.70926681100002,-7.162197760999959,0],[112.70925399300006,-7.1622059649999414,0],[112.70913982400009,-7.1622476859999438,0],[112.70911758000011,-7.162252394999939,0],[112.70910740800002,-7.1622607609999704,0],[112.70909540200012,-7.1622746869999787,0],[112.7090806650001,-7.1623024979999741,0],[112.70892755500006,-7.1630548869999302,0],[112.70869697600006,-7.1633182839999563,0],[112.70832052200001,-7.1637566599999332,0],[112.70786437800007,-7.1641887769999357,0],[112.70736222900007,-7.1648943869999471,0],[112.70704828200007,-7.165117205999934,0],[112.70583290400009,-7.1660524579999674,0],[112.70498994400009,-7.1667011269999534,0],[112.70495692100008,-7.1667306589999384,0],[112.70494022300011,-7.1667455909999376,0],[112.70504187200004,-7.1667925069999683,0],[112.70510373700006,-7.1668353369999522,0],[112.70516084500002,-7.1668781669999362,0],[112.70521795200011,-7.1669209979999664,0],[112.70527505900009,-7.1669781049999415,0],[112.70532740700003,-7.1670256939999604,0],[112.70537499600005,-7.1670732829999793,0],[112.7054273440001,-7.1671113549999745,0],[112.70554631700008,-7.1671541849999585,0],[112.70559315600008,-7.1671658949999255,0],[112.70560342400006,-7.1671684619999496,0],[112.70567956700006,-7.1671874969999294,0],[112.70572715600008,-7.1672208099999466,0],[112.70576522800002,-7.1672541219999744,0],[112.70576852200008,-7.1672596109999631,0],[112.70579378100001,-7.1673017109999364,0],[112.70581757600007,-7.1673350239999536,0],[112.70586516500009,-7.1673778539999375,0],[112.70592227200007,-7.1674064079999766,0],[112.70597462000001,-7.1674254429999564,0],[112.70604124500005,-7.1674492379999606,0],[112.70607455800007,-7.1674777919999428,0],[112.70614594100005,-7.1675253809999617,0],[112.70620780700006,-7.1675586929999326,0],[112.70625063800003,-7.1675777289999587,0],[112.70635533400002,-7.1675824879999368,0],[112.70640292300004,-7.1675920059999498,0],[112.70647906600004,-7.1675967649999279,0],[112.70655520900004,-7.1676110409999296,0],[112.70659328000011,-7.1676300769999557,0],[112.70663135100006,-7.1676729069999396,0],[112.70667894100006,-7.167720496999948,0],[112.70672653000008,-7.1677538089999757,0],[112.70684074400003,-7.1677966389999597,0],[112.70693116400003,-7.1678109159999508,0],[112.70700730600004,-7.1678061569999727,0],[112.70711676200006,-7.1677966389999597,0],[112.70717862700008,-7.1677918799999816,0],[112.70724049300009,-7.1677918799999816,0],[112.70728808300009,-7.1677966389999597,0],[112.70732139500001,-7.1678204339999638,0],[112.70733567200011,-7.1678537459999347,0],[112.70735946700006,-7.167896576999965,0],[112.70741657400004,-7.1679203709999797,0],[112.70748319900008,-7.1679298889999359,0],[112.70756410000001,-7.1679346479999708,0],[112.70763072500006,-7.1679108529999667,0],[112.70767355500004,-7.1679013359999431,0],[112.7076973500001,-7.1679013359999431,0],[112.70773542100005,-7.1679060939999317,0],[112.70781156400005,-7.1679489249999619,0],[112.70784487700007,-7.1679822369999329,0],[112.70787343000006,-7.1680345849999298,0],[112.70788294800002,-7.168067897999947,0],[112.70791150100001,-7.1680916919999618,0],[112.70794481400003,-7.1681012099999748,0],[112.70797336700002,-7.1680964509999399,0],[112.70802571600007,-7.1680821749999382,0],[112.70807806400001,-7.1680821749999382,0],[112.70814944800009,-7.1680964509999399,0],[112.7082113140001,-7.168125004999979,0],[112.70830649200002,-7.1681440409999482,0],[112.7083778760001,-7.168163075999928,0],[112.708425465,-7.168182111999954,0],[112.70846353600007,-7.1682059069999582,0],[112.70850636700004,-7.1682534959999771,0],[112.70856823300005,-7.168286807999948,0],[112.7086348580001,-7.1683058439999741,0],[112.70868720600004,-7.1683296389999782,0],[112.70875859000012,-7.168358191999971,0],[112.70882997300009,-7.1683867459999533,0],[112.7088775630001,-7.1683772279999403,0],[112.70891087500002,-7.168339155999945,0],[112.70891087500002,-7.1683010849999391,0],[112.70890611600009,-7.1682630139999333,0],[112.70891087500002,-7.168215423999925,0],[112.70893467000008,-7.1681868709999321,0],[112.70897274100003,-7.168163075999928,0],[112.70903936600007,-7.1681487999999263,0],[112.70912026800011,-7.1681392819999701,0],[112.70915519500011,-7.1681373419999659,0],[112.70920592800007,-7.1681345229999351,0],[112.70927731200004,-7.1681392819999701,0],[112.70936535200008,-7.1681620059999318,0],[112.70941640300009,-7.1681898509999655,0],[112.70943078700009,-7.1681976969999255,0],[112.70946350500003,-7.1682214919999296,0],[112.70949027400002,-7.1682452869999338,0],[112.70951109400005,-7.1682750299999611,0],[112.70952596600011,-7.1682958499999359,0],[112.70955868300007,-7.1683107219999442,0],[112.70959140100001,-7.1683136959999274,0],[112.70962411900007,-7.1683107219999442,0],[112.7096449390001,-7.1683107219999442,0],[112.70967765600005,-7.1683107219999442,0],[112.70970740000007,-7.1683285679999358,0],[112.70975796300002,-7.1683583109999631,0],[112.70980852700006,-7.1683791309999378,0],[112.70984421900005,-7.1683791309999378,0],[112.709868013,-7.1683702079999421,0],[112.70988288500007,-7.1683493879999673,0],[112.7099037050001,-7.1683285679999358,0],[112.70993047400009,-7.1683255929999632,0],[112.70995426900004,-7.1683374909999316,0],[112.70998103800002,-7.1683523619999505,0],[112.70999888400002,-7.1683791309999378,0],[112.71001970400005,-7.1684445669999377,0],[112.71001970400005,-7.1685100019999481,0],[112.71000780700001,-7.1685427189999587,0],[112.71000185800006,-7.1685784109999418,0],[112.71001078100005,-7.1686081539999691,0],[112.71003755000004,-7.1686230259999775,0],[112.71006431900003,-7.1686111289999417,0],[112.7100791900001,-7.1685873339999375,0],[112.71008513900006,-7.1685486679999713,0],[112.71009703600009,-7.1685218989999271,0],[112.71012380500008,-7.1685040529999355,0],[112.71015057400007,-7.1685070269999756,0],[112.71017436900001,-7.1685129759999313,0],[112.71019816400008,-7.1685456939999312,0],[112.71021600900008,-7.1686051799999291,0],[112.7102368300001,-7.1686676409999563,0],[112.71027847000005,-7.168724152999971,0],[112.71030821400007,-7.1687538959999415,0],[112.71035580300008,-7.1687747169999625,0],[112.71042123800009,-7.168804459999933,0],[112.71046882700011,-7.1688252799999646,0],[112.71059077500001,-7.1688579979999645,0],[112.71063836400003,-7.1688639469999771,0],[112.71067405600002,-7.1688550239999813,0],[112.71069785000009,-7.1688401519999729,0],[112.71071569600008,-7.1688252799999646,0],[112.7107454400001,-7.168804459999933,0],[112.71077815700005,-7.1687955369999372,0],[112.7108197980001,-7.1687955369999372,0],[112.71083251000005,-7.1687978479999401,0],[112.71085251500006,-7.1688014859999498,0],[112.71089118200007,-7.1688104089999456,0],[112.7109209250001,-7.1688252799999646,0],[112.71092148100001,-7.1688257349999276,0],[112.71095364200005,-7.1688520489999519,0],[112.71099230900006,-7.1688847669999518,0],[112.71103394900001,-7.1689055869999265,0],[112.71107559000006,-7.1689174839999623,0],[112.7111707680001,-7.1689442529999496,0],[112.71121835700001,-7.1689561509999749,0],[112.7112718950001,-7.1689650739999706,0],[112.71132245900003,-7.1689769709999496,0],[112.71135815100001,-7.1689977909999811,0],[112.71139681700004,-7.1690156369999727,0],[112.71142953500009,-7.1690275339999516,0],[112.71148060600001,-7.1690358069999434,0],[112.71151332300008,-7.1690268839999476,0],[112.71154901500006,-7.1690328329999602,0],[112.71156983600008,-7.169041755999956,0],[112.71159660400008,-7.1690506789999517,0],[112.71161445000007,-7.1690566269999749,0],[112.71164716800001,-7.1690596019999475,0],[112.71165774600001,-7.1690580909999539,0],[112.71168880900007,-7.1690536529999349,0],[112.71170665500006,-7.1690506789999517,0],[112.71173044900002,-7.1690387809999265,0],[112.71174532100008,-7.1690298579999308,0],[112.71176911500004,-7.1690268839999476,0],[112.71178696100003,-7.1690268839999476,0],[112.7118018330001,-7.1690387809999265,0],[112.71181075600009,-7.1690536529999349,0],[112.71181075600009,-7.1690804219999791,0],[112.71181373000002,-7.1691071909999664,0],[112.7118165920001,-7.1691148219999263,0],[112.71182265300001,-7.1691309849999811,0],[112.71184644800007,-7.1691518059999453,0],[112.71187024200003,-7.1691666769999642,0],[112.71192675500004,-7.1691874979999284,0],[112.71195649800006,-7.1691874979999284,0],[112.71198326700005,-7.1691815489999726,0],[112.71200408700008,-7.1691607289999411,0],[112.71201055100005,-7.1691548039999589,0],[112.71203977900007,-7.1691280109999411,0],[112.71208439400004,-7.1691042169999264,0],[112.71212603300012,-7.169102134999946,0],[112.71216300200001,-7.1691108029999668,0],[112.71217362400012,-7.1691161139999622,0],[112.71218972100007,-7.1691250569999738,0],[112.7122003930001,-7.1691309849999811,0],[112.71230746800006,-7.16917559999996,0],[112.71236695500011,-7.1692023689999473,0],[112.71241454400001,-7.1692142669999726,0],[112.71245618500006,-7.1692202149999389,0],[112.71249485100009,-7.1692202149999389,0],[112.71255731200006,-7.1692231899999683,0],[112.71259597800008,-7.1692350869999473,0],[112.71262572100011,-7.1692499589999557,0],[112.71266736200005,-7.1692767269999536,0],[112.71270305400003,-7.1692945729999451,0],[112.71274172000005,-7.1693034959999409,0],[112.7127922840001,-7.1693124189999367,0],[112.71283689900008,-7.1693153939999661,0],[112.71286961600003,-7.1693243169999619,0],[112.7129005490001,-7.1693304439999679,0],[112.71295408700007,-7.1693589969999607,0],[112.71300048600006,-7.1693839819999425,0],[112.71304688600003,-7.1693982579999442,0],[112.71308971600001,-7.1694196739999256,0],[112.71311827000011,-7.169458934999966,0],[112.71315039300009,-7.1694910569999593,0],[112.71321106900007,-7.1695196109999415,0],[112.71327531400004,-7.1695374569999331,0],[112.71333599000002,-7.1695481639999343,0],[112.71338239000011,-7.1695481639999343,0],[112.71340174200009,-7.1695490859999609,0],[112.71343771200009,-7.1695303779999335,0],[112.71346436200008,-7.1695132459999513,0],[112.71349672300005,-7.1695018239999513,0],[112.7135100480001,-7.1695018239999513,0],[112.71351766200007,-7.1695094389999667,0],[112.71352527700003,-7.1695246669999619,0],[112.71352527700003,-7.1695379919999596,0],[112.71351766200007,-7.1695532209999442,0],[112.7135085110001,-7.1695750299999759,0],[112.71350433700002,-7.1696122309999737,0],[112.71350243400002,-7.1696312669999429,0],[112.71350814400012,-7.1696483989999251,0],[112.71351575900007,-7.1696541099999536,0],[112.71353098700001,-7.1696541099999536,0],[112.71354621600005,-7.1696407849999559,0],[112.71356715500008,-7.1696236529999737,0],[112.7135880940001,-7.1696122309999737,0],[112.71359951600004,-7.1696122309999737,0],[112.71360903400011,-7.1696236529999737,0],[112.7136128410001,-7.1696350739999275,0],[112.71361664800008,-7.1696541099999536,0],[112.7136429410001,-7.1696945009999808,0],[112.71369703700009,-7.1697315139999773,0],[112.71372515100006,-7.1697340599999393,0],[112.7137422830001,-7.1697283489999677,0],[112.71375560800004,-7.1697150239999701,0],[112.7137689330001,-7.1697131209999725,0],[112.71377654800006,-7.1697207349999417,0],[112.71378035500004,-7.1697378669999807,0],[112.71378035500004,-7.1697511919999783,0],[112.71378796900001,-7.169764516999976,0],[112.71380749800005,-7.1697915299999408,0],[112.71382604000007,-7.1698235279999381,0],[112.7138450760001,-7.1698349489999487,0],[112.71385840100004,-7.1698425629999747,0],[112.71387934000006,-7.1698444669999617,0],[112.71391387200003,-7.169844034999926,0],[112.71396059900007,-7.1698729609999532,0],[112.71402127500005,-7.1699193599999376,0],[112.71408552100002,-7.1699657599999682,0],[112.71411407400001,-7.1700228669999433,0],[112.71413192000011,-7.170054989999926,0],[112.7141711810001,-7.1700621279999268,0],[112.71420687300008,-7.1700442819999353,0],[112.71422828800007,-7.1700192979999429,0],[112.71424256100011,-7.1700154919999477,0],[112.71428182600005,-7.1700050209999517,0],[112.71432822700001,-7.1700157299999319,0],[112.71438176400011,-7.1700442819999353,0],[112.7144103170001,-7.1700978199999668,0],[112.71445701400012,-7.1701144759999806,0],[112.7144855680001,-7.1701180449999811,0],[112.71453910500009,-7.1701144759999806,0],[112.71457479700007,-7.1701001989999327,0],[112.71467473500002,-7.1700894919999314,0],[112.71476396500009,-7.170085922999931,0],[112.71482107200006,-7.170085922999931,0],[112.71487460900005,-7.1700930609999318,0],[112.71494956200002,-7.1701216149999709,0],[112.7149888240001,-7.1701430299999629,0],[112.71503165400009,-7.1701608759999544,0],[112.71507091500007,-7.1701751519999561,0],[112.71509946900005,-7.1701929979999477,0],[112.71512445300004,-7.1702215519999299,0],[112.71515657600003,-7.1702643819999707,0],[112.71518512900002,-7.1703036429999543,0],[112.7152636510001,-7.1703429039999378,0],[112.71533146600007,-7.170364319999976,0],[112.71539214200004,-7.1703785959999777,0],[112.71542783400002,-7.1703928729999689,0],[112.71544211100002,-7.1704357029999528,0],[112.71545281800002,-7.1704821029999266,0],[112.71548137200011,-7.1705534869999497,0],[112.7155027870001,-7.1705820399999425,0],[112.71555632500008,-7.1706177319999256,0],[112.7156073000001,-7.1706250139999383,0],[112.71563127800005,-7.1706284399999731,0],[112.71565626200004,-7.1706284399999731,0],[112.71569909300001,-7.1706320089999736,0],[112.715727646,-7.1706427169999643,0],[112.71573478500011,-7.1706748389999575,0],[112.71573486200009,-7.1706756079999536,0],[112.71573835400011,-7.1707105309999406,0],[112.71578475300009,-7.1707604999999717,0],[112.71584543000006,-7.1707997609999552,0],[112.71589539800004,-7.1708211759999472,0],[112.71596678200001,-7.1708532989999298,0],[112.7160238890001,-7.1708711449999782,0],[112.71607385800007,-7.1708889909999698,0],[112.71611311900006,-7.1709104059999618,0],[112.71614881100004,-7.1709246829999529,0],[112.71618807200002,-7.1709175439999626,0],[112.71621250200008,-7.1708968299999469,0],[112.71622477900007,-7.1708864209999774,0],[112.71624619400006,-7.1708578669999383,0],[112.71627712700001,-7.1708316929999683,0],[112.71629854200012,-7.1707936219999624,0],[112.71632947500007,-7.1707484119999663,0],[112.71635802900005,-7.1707531709999444,0],[112.71644844800005,-7.1707579299999793,0],[112.71660073400005,-7.1708197959999325,0],[112.71661501100004,-7.1708459699999594,0],[112.71661739000001,-7.1708697649999635,0],[112.71661977000008,-7.1709102159999816,0],[112.71661739000001,-7.1709506659999533,0],[112.71661501100004,-7.1709792199999356,0],[112.71661592900011,-7.1710124589999396,0],[112.7165983540001,-7.1710625009999376,0],[112.7165840780001,-7.1711077109999337,0],[112.71657456000003,-7.1711505409999745,0],[112.71653648800009,-7.1712599959999466,0],[112.71651983200002,-7.1713361389999477,0],[112.71652697100001,-7.1713837279999666,0],[112.71653886800004,-7.1713980049999577,0],[112.71656504200007,-7.1713861079999788,0],[112.71657456000003,-7.1713527949999616,0],[112.7165840780001,-7.1713147239999557,0],[112.7165912160001,-7.1712528579999457,0],[112.7165983540001,-7.1712052689999268,0],[112.71661263100009,-7.1711648179999656,0],[112.71663880500012,-7.1711148489999346,0],[112.7166673590001,-7.1710577419999595,0],[112.71667732200001,-7.1710405319999495,0],[112.71669353300001,-7.1710125319999634,0],[112.71671256900004,-7.1709744609999575,0],[112.7167435020001,-7.1709387689999744,0],[112.71676491700009,-7.1709125949999475,0],[112.71680298800004,-7.1708935589999783,0],[112.71683154200002,-7.1708650059999286,0],[112.71686485400005,-7.1708435909999366,0],[112.71689578700011,-7.1708340729999804,0],[112.71691958200006,-7.1708364519999463,0],[112.71694099700005,-7.1708459699999594,0],[112.71696003300008,-7.1708673849999514,0],[112.71696479100001,-7.1708911799999555,0],[112.71692910000002,-7.1709697019999794,0],[112.71694813500005,-7.1709815989999584,0],[112.71697430900008,-7.1709268719999386,0],[112.71700048300011,-7.1709387689999744,0],[112.71699096600003,-7.1709768399999803,0],[112.71700048300011,-7.1709911169999714,0],[112.71701714000005,-7.1710006349999276,0],[112.71702427800005,-7.1710149119999755,0],[112.71702189900009,-7.1710387059999334,0],[112.71700286300006,-7.1710601219999717,0],[112.71696955000004,-7.1710934339999426,0],[112.7169386170001,-7.1711410229999615,0],[112.71693069900005,-7.1711563929999329,0],[112.71689816700007,-7.1712195449999285,0],[112.71668639500001,-7.1716264329999717,0],[112.71673636300011,-7.1716407099999628,0],[112.71677443500005,-7.1715669469999739,0],[112.71689578700011,-7.1713361389999477,0],[112.71690768400003,-7.1713075859999549,0],[112.71693623800002,-7.1712861699999735,0],[112.71695765300001,-7.1712885499999288,0],[112.71698382700004,-7.1713052059999427,0],[112.71699334500011,-7.1713266209999347,0],[112.71699334500011,-7.1713527949999616,0],[112.71699096600003,-7.1713694519999649,0],[112.717013769,-7.1713840459999574,0],[112.7170565990001,-7.1713911839999582,0],[112.71708277300002,-7.1713959429999363,0],[112.71711013700008,-7.1713971329999708,0],[112.71713750100002,-7.1714054609999494,0],[112.71718984900008,-7.1714149789999624,0],[112.7172338690001,-7.1714173579999283,0],[112.71728740700007,-7.1714411529999325,0],[112.71732666800006,-7.1714423419999775,0],[112.71735998000008,-7.1714423419999775,0],[112.7173968620001,-7.1714435319999552,0],[112.71742779500005,-7.1714530499999682,0],[112.71744088200001,-7.1714685159999476,0],[112.71744207200004,-7.1714875519999737,0],[112.71745396900008,-7.1715125359999661,0],[112.71747181500007,-7.1715446589999488,0],[112.71747741200011,-7.1715541739999367,0],[112.71749273000012,-7.1715662379999685,0],[112.71750750700005,-7.1715684539999529,0],[112.71752654300008,-7.1715601259999744,0],[112.71753986800002,-7.1715534629999524,0],[112.71755775200006,-7.1715511939999601,0],[112.71756818300003,-7.1715553669999395,0],[112.71759435700005,-7.171573212999931,0],[112.71761696200008,-7.1715839199999323,0],[112.71764075700003,-7.1715874889999327,0],[112.71766337500003,-7.1715866519999736,0],[112.71767671500004,-7.1715901359999634,0],[112.71768477700004,-7.1715981969999802,0],[112.71769548400005,-7.1716208019999499,0],[112.7176975110001,-7.1716276939999375,0],[112.71771150900008,-7.1716472649999332,0],[112.71772641700011,-7.171656493999933,0],[112.71774902200002,-7.1716529249999326,0],[112.71776210900009,-7.1716410269999642,0],[112.71777400600001,-7.171625560999928,0],[112.71780256000011,-7.1716208019999499,0],[112.71781921600007,-7.1716279399999507,0],[112.71782516500002,-7.1716410269999642,0],[112.71782159600002,-7.1716517349999549,0],[112.71780493900008,-7.1716862369999603,0],[112.71778590400004,-7.1717147909999426,0],[112.71776924800008,-7.1717445339999699,0],[112.71775497100009,-7.1717968819999669,0],[112.71773474500003,-7.1718468509999411,0],[112.71768239700009,-7.1719527369999696,0],[112.71763072300007,-7.1720425219999697,0],[112.71752507500003,-7.1722452519999251,0],[112.71744940800011,-7.172383735999972,0],[112.71744512500004,-7.1724022959999729,0],[112.71745797400001,-7.1724094349999632,0],[112.7174708230001,-7.1724094349999632,0],[112.71748652800011,-7.172399440999925,0],[112.71751079800003,-7.172388018999925,0],[112.71753078600011,-7.1723808809999809,0],[112.71755648400006,-7.1723794529999623,0],[112.71758218200011,-7.1723823089999428,0],[112.71761501900005,-7.172392302999981,0],[112.71763786200006,-7.1724037239999348,0],[112.7176621320001,-7.1724251389999267,0],[112.71768069200004,-7.1724422709999658,0],[112.71770924500004,-7.1724565479999569,0],[112.71773779900002,-7.1724651139999764,0],[112.71777063600007,-7.1724693969999294,0],[112.71783916400011,-7.1724779629999489,0],[112.71788913300009,-7.1724893849999489,0],[112.71792768000012,-7.172513654999932,0],[112.71796051700005,-7.1725436359999435,0],[112.71799906400008,-7.1725821829999745,0],[112.71803475600007,-7.1726135919999479,0],[112.71807615800003,-7.1726378629999772,0],[112.71810899500008,-7.1726535669999407,0],[112.71814040400011,-7.1726735549999603,0],[112.71815182500006,-7.1727021079999531,0],[112.71815039800003,-7.172732089999954,0],[112.71814040400011,-7.1727606429999469,0],[112.7181246990001,-7.1728034729999308,0],[112.71809900100004,-7.1728577249999717,0],[112.71807615800003,-7.1728991279999263,0],[112.71806188200003,-7.1729462409999769,0],[112.71806045400001,-7.1729790779999689,0],[112.71804332200009,-7.173036184999944,0],[112.71799335300011,-7.1731404049999696,0],[112.71790340900009,-7.1733202919999712,0],[112.71782774300004,-7.1734616319999418,0],[112.71775207600001,-7.1736115379999319,0],[112.71765927700005,-7.1737828599999602,0],[112.71769782400008,-7.1737999919999424,0],[112.71771495600001,-7.1737999919999424,0],[112.71772352200003,-7.1737957089999327,0],[112.71772923300011,-7.1737814319999416,0],[112.71774065400007,-7.1737728659999789,0],[112.71776064200003,-7.1737600169999496,0],[112.71777349100012,-7.17374002899993,0],[112.71778348500004,-7.1737114759999372,0],[112.71779776100004,-7.1736843499999736,0],[112.71781774900001,-7.1736572239999532,0],[112.71784344700006,-7.173618676999979,0],[112.71788342200011,-7.1735744189999764,0],[112.71789912600002,-7.1735629969999763,0],[112.71792054200012,-7.1735558589999755,0],[112.71793481800012,-7.173547292999956,0],[112.71794909500011,-7.1735344439999267,0],[112.71796051700005,-7.1735158839999258,0],[112.71797336600002,-7.1734859029999711,0],[112.71799049800006,-7.1734516389999499,0],[112.71801048500004,-7.1734188019999579,0],[112.71803475600007,-7.1733845379999366,0],[112.7180733030001,-7.1733102989999793,0],[112.71809186300004,-7.1732788899999491,0],[112.71810756700006,-7.1732603299999482,0],[112.71823891300005,-7.1729947819999325,0],[112.71832885700007,-7.1728091839999593,0],[112.71834741700002,-7.1727792029999478,0],[112.71837026000003,-7.1727406559999736,0],[112.71839167500002,-7.1727092469999434,0],[112.71840452400011,-7.1726878319999514,0],[112.71842226500007,-7.1726650499999778,0],[112.71844735400009,-7.172645000999978,0],[112.7184773350001,-7.1726435739999488,0],[112.71849018500006,-7.172645000999978,0],[112.71850874400002,-7.1726521399999683,0],[112.7185358700001,-7.1726706989999798,0],[112.71857584500003,-7.1726949699999523,0],[112.71860868200008,-7.1727178129999629,0],[112.71864437400006,-7.1727263789999256,0],[112.71867721000001,-7.1727335169999265,0],[112.71874716600007,-7.1727563599999371,0],[112.71876858200005,-7.1727649259999566,0],[112.71879428000011,-7.1727820579999388,0],[112.71881712300001,-7.1728034729999308,0],[112.71889278900005,-7.1728391649999708,0],[112.71908932100007,-7.1729628089999551,0],[112.71911265200004,-7.1729809809999665,0],[112.71913739800004,-7.1730019199999333,0],[112.7191507230001,-7.1730152449999309,0],[112.71915928900012,-7.1730257149999375,0],[112.71916404800004,-7.1730399919999286,0],[112.71915681700011,-7.1730806319999374,0],[112.71914191500002,-7.1731102639999449,0],[112.71895743800007,-7.1734915929999374,0],[112.71895740900004,-7.1734916529999282,0],[112.71885567000004,-7.1737071929999274,0],[112.71879570700003,-7.1738337799999385,0],[112.71868625200011,-7.1740584009999679,0],[112.71857381600012,-7.1742968579999342,0],[112.71855780500005,-7.1743360219999772,0],[112.71858607100012,-7.174348580999947,0],[112.71861486800003,-7.1743620199999327,0],[112.71870528800002,-7.17416785599994,0],[112.71875179100005,-7.17407069799998,0],[112.718811888,-7.1739451389999545,0],[112.71883663400001,-7.1738965979999421,0],[112.71884805600007,-7.1738880319999794,0],[112.71885947700002,-7.173887079999929,0],[112.71887660900006,-7.1738880319999794,0],[112.71890135500007,-7.1738946939999551,0],[112.71892800500007,-7.1739023079999811,0],[112.71897654600002,-7.1739184889999592,0],[112.71905744800006,-7.1739546569999675,0],[112.71915259400009,-7.1740038469999377,0],[112.71940146700001,-7.1734728169999471,0],[112.71966885400002,-7.1729022809999492,0],[112.71980509100001,-7.172611581999945,0],[112.71983116300009,-7.1725723839999773,0],[112.71992446200011,-7.1724321089999421,0],[112.71994471300002,-7.1724048699999798,0],[112.7200484980001,-7.1722652819999553,0],[112.72017257800007,-7.1720983959999671,0],[112.72032374900004,-7.1718950729999733,0],[112.72072812800002,-7.1713511839999455,0],[112.7210002700001,-7.1710997929999394,0],[112.72112637200007,-7.1710095509999405,0],[112.72123656000008,-7.17092846099996,0],[112.72182499700011,-7.1705164269999386,0],[112.72187774000008,-7.1704738969999653,0],[112.72175061500002,-7.1698508439999387,0],[112.72187348000011,-7.1698296769999388,0],[112.72193728000002,-7.1698119169999472,0],[112.7219961940001,-7.1697686929999804,0],[112.72205715000007,-7.1695799479999778,0],[112.72210734600003,-7.1694192829999679,0],[112.722209152,-7.169251150999969,0],[112.72236188500005,-7.1690726689999451,0],[112.72257771300008,-7.1688057159999516,0],[112.72261970300008,-7.1687229189999471,0],[112.72265817000005,-7.1686401369999544,0],[112.72271927800011,-7.1684851789999584,0],[112.72278274000007,-7.1683248099999446,0],[112.7228136550001,-7.1682609809999462,0],[112.72284000900004,-7.1682266979999554,0],[112.72285240200006,-7.1682080019999717,0],[112.72287403400003,-7.168161300999941,0],[112.72288478200005,-7.1681193039999584,0],[112.72289397600002,-7.1680788659999735,0],[112.72291405100009,-7.1680321709999362,0],[112.72292625000011,-7.1679621979999411,0],[112.72295091100011,-7.167892176999942,0],[112.72314817400002,-7.1673147739999763,0],[112.72343498900011,-7.1668920339999431,0],[112.72372379600006,-7.1663898449999692,0],[112.72381076900001,-7.1662271849999684,0],[112.72393205700007,-7.1660271539999485,0],[112.72410844100011,-7.165749089999963,0],[112.72432189000006,-7.1654101699999728,0],[112.72433360700006,-7.1653871389999608,0],[112.72445270100002,-7.1649782739999637,0],[112.72445173400001,-7.1649620059999393,0],[112.72444613900007,-7.1649195419999501,0],[112.72444682700007,-7.1648616859999379,0],[112.72444842600009,-7.1648047319999364,0],[112.72446331800006,-7.1647220889999517,0],[112.72447447400009,-7.1646893179999438,0],[112.72451005000005,-7.1646073619999697,0],[112.72454643600008,-7.1644681279999531,0],[112.72459882600003,-7.1641383089999522,0],[112.72460637400002,-7.1640232109999715,0],[112.72460421800008,-7.1638098559999435,0],[112.72460388200011,-7.1637206019999553,0],[112.72461515000009,-7.1636607859999799,0],[112.72462603700001,-7.1636097929999778,0],[112.72469975600006,-7.1633981839999592,0],[112.7247208550001,-7.1633215909999421,0],[112.72473241400007,-7.1632575419999398,0],[112.72474847500007,-7.1631260499999598,0],[112.72478373200011,-7.1628446399999461,0],[112.72480399200003,-7.1627079939999589,0],[112.72485272400002,-7.162462320999964,0],[112.72486828500007,-7.1624136489999728,0],[112.72489122500008,-7.1623335369999381,0],[112.72498993800002,-7.1620502039999678,0],[112.72513056700006,-7.1616060759999414,0],[112.72515227000008,-7.1613714809999465,0],[112.72515879300011,-7.1612716659999478,0],[112.72517157000004,-7.1609983169999509,0],[112.72518288700007,-7.1608941259999597,0],[112.72524744500004,-7.160714248999966,0],[112.7252517820001,-7.1607079479999811,0],[112.72525515700011,-7.1607035849999647,0],[112.72528128200008,-7.160693336999941,0],[112.72533692800005,-7.1606737949999797,0],[112.72534415600001,-7.1606631349999361,0],[112.72535183200011,-7.1606432879999602,0],[112.72536311900001,-7.160533576999967,0],[112.7253718180001,-7.160357620999946,0],[112.72536800400007,-7.1601752439999586,0],[112.72536149300004,-7.1601234569999406,0],[112.72535018200006,-7.1601017949999459,0],[112.72533601700002,-7.1600675429999683,0],[112.72527881600001,-7.15997116799997,0],[112.72527474900005,-7.1599621299999399,0],[112.72527368900001,-7.159948050999958,0],[112.72527964700009,-7.1599238879999803,0],[112.72531062900009,-7.1598503419999702,0],[112.72543542300002,-7.1596275319999449,0],[112.72556065500009,-7.1593172809999714,0],[112.72560357200007,-7.1592354769999815,0],[112.72567125,-7.1591031629999407,0],[112.7257053300001,-7.1590501209999502,0],[112.72581523400004,-7.158886587999973,0],[112.72588397700008,-7.1587739319999741,0],[112.72607541700006,-7.158368343999939,0],[112.72613450800009,-7.1582004209999468,0],[112.72629495100011,-7.1577385519999552,0],[112.72622436000006,-7.1576951439999448,0],[112.72629729400001,-7.1575103939999281,0],[112.72648192000008,-7.1570228319999387,0],[112.72667725600002,-7.1564228709999611,0],[112.72637497900007,-7.156281111999931,0],[112.72638106200009,-7.1562361799999508,0],[112.72638715000005,-7.156192492999935,0],[112.7264007120001,-7.1561406719999354,0],[112.72643658900006,-7.1560495509999669,0],[112.72653409600002,-7.1558679549999624,0],[112.72657615900005,-7.1557711739999377,0],[112.72662137700001,-7.155662399999926,0],[112.72669090900001,-7.1554501249999589,0],[112.72674552700005,-7.1553228939999372,0],[112.72683022300009,-7.1551475159999427,0],[112.72685196500004,-7.1551103749999356,0],[112.7268777700001,-7.1550706819999732,0],[112.72695771300005,-7.1549769529999594,0],[112.72698061500012,-7.1549422009999262,0],[112.72704553600011,-7.1548166169999377,0],[112.72715023500007,-7.1546023349999359,0],[112.72731838700008,-7.1543718449999574,0],[112.72742024500008,-7.1543989199999487,0],[112.72780882100005,-7.1540119959999515,0],[112.72807555100007,-7.1537527269999259,0],[112.72825668000007,-7.1537973449999299,0],[112.72856615100011,-7.1538963589999298,0],[112.72879320400011,-7.1539995199999566,0],[112.72879394800009,-7.1539965039999629,0],[112.72891631800007,-7.15378336699996,0],[112.72897246100001,-7.1535905259999595,0],[112.72937372300009,-7.1536366379999663,0],[112.72943145000011,-7.1535621789999482,0],[112.73047618600003,-7.1538042719999453,0],[112.73058515000002,-7.153543610999975,0],[112.73099140700003,-7.1536691309999583,0],[112.73107208500005,-7.1534654269999578,0],[112.73138162700002,-7.1526151479999385,0],[112.73141219700005,-7.1525043439999649,0],[112.73144493300003,-7.1524374079999689,0],[112.73147580500006,-7.1524073759999283,0],[112.73152471500009,-7.1523882449999405,0],[112.7318952060001,-7.1525870489999761,0],[112.73243420300003,-7.1517269759999635,0],[112.73239124200006,-7.1517090149999376,0],[112.732661312,-7.1511050489999661,0],[112.73298399000009,-7.1512393739999425,0],[112.73331975600001,-7.1513389909999319,0],[112.7337180180001,-7.1505056539999714,0],[112.73411203900002,-7.1505638839999506,0],[112.73411939000005,-7.1505638559999625,0],[112.73412673300004,-7.1505617349999397,0],[112.73413301200003,-7.1505554239999469,0],[112.73414554100009,-7.150536519999946,0],[112.73415804100011,-7.150509235999948,0],[112.7341653310001,-7.1504934929999422,0],[112.73418518500011,-7.1504672269999787,0],[112.73419251700011,-7.1504619619999517,0],[112.73421661000009,-7.1504461569999762,0],[112.73423338400005,-7.1504387609999753,0],[112.73425434500007,-7.1504271579999568,0],[112.73427943900003,-7.1503987779999534,0],[112.73430750600005,-7.1503173549999701,0],[112.7343097370001,-7.1503105689999416,0],[112.73434625200002,-7.1501990829999613,0],[112.73387027600006,-7.1500927619999288,0],[112.73342048400002,-7.1499463429999537,0],[112.73307008600011,-7.1498071509999477,0],[112.73299277900003,-7.1497700719999671,0],[112.73291540700006,-7.1499937829999567,0],[112.73283744600008,-7.1502257859999645,0],[112.73282995800002,-7.1502728319999278,0],[112.73283064200007,-7.1502755159999651,0],[112.73266215000001,-7.150397689999977,0],[112.73265347500001,-7.1504178679999768,0],[112.7325860520001,-7.1506044659999475,0],[112.73251670600007,-7.150796191999973,0],[112.73251368500007,-7.15080304199995,0],[112.73250759200005,-7.1508030639999447,0],[112.73246491400005,-7.1507956279999689,0],[112.73240167800009,-7.1507897859999616,0],[112.73225230100002,-7.1507629969999584,0],[112.73216391800008,-7.1507534509999573,0],[112.73191628800009,-7.1507255099999725,0],[112.73171188800006,-7.1506805479999684,0],[112.731528174,-7.1506373949999329,0],[112.73135911800011,-7.150596764999932,0],[112.7312263340001,-7.1505766329999574,0],[112.73107274000006,-7.1505577749999816,0],[112.73096732200008,-7.150547248999942,0],[112.73090914200009,-7.150542689999952,0],[112.730863967,-7.1505394469999715,0],[112.7308269780001,-7.150529345999928,0],[112.73079750400007,-7.1505158039999515,0],[112.73066808900001,-7.1504011289999312,0],[112.73066259600012,-7.150385430999961,0],[112.73064944900011,-7.1503572929999564,0],[112.73063684400006,-7.150328611999953,0],[112.73063350000007,-7.1503063999999767,0],[112.73062687800007,-7.150249022999958,0],[112.73062682300008,-7.1502343039999801,0],[112.73062242900005,-7.1502104009999812,0],[112.73061069300002,-7.1501957269999252,0],[112.73060266800007,-7.1501871699999811,0],[112.73059710300004,-7.1501786039999615,0],[112.73058661200002,-7.1501682169999299,0],[112.73056688600002,-7.1501541849999626,0],[112.73053114400011,-7.1501316269999506,0],[112.73044429600009,-7.150088407999931,0],[112.73036668600002,-7.1500494479999475,0],[112.73030695000011,-7.1500239989999272,0],[112.73022237800001,-7.1499926619999314,0],[112.73019745700003,-7.1499864239999624,0],[112.73013975800006,-7.1499613169999634,0],[112.73009620500011,-7.1499332339999455,0],[112.73000670400006,-7.1498687379999524,0],[112.72995735100005,-7.1498360529999445,0],[112.72994841500008,-7.1498302849999504,0],[112.72990609700003,-7.1498130429999378,0],[112.7298816440001,-7.1498046259999342,0],[112.72986650600001,-7.1497996559999706,0],[112.72975016500004,-7.1497861709999597,0],[112.72941585300009,-7.1497368129999472,0],[112.72925261900002,-7.1497168599999554,0],[112.72921355200003,-7.149708693999969,0],[112.72913275900009,-7.1496849319999569,0],[112.72908357100005,-7.1496676139999522,0],[112.72899546400004,-7.1496515719999252,0],[112.72882597600005,-7.149620443999936,0],[112.7286609140001,-7.1495906229999378,0],[112.72852492300001,-7.1495554609999772,0],[112.72831459700001,-7.1495098259999281,0],[112.72830407600009,-7.1495063719999621,0],[112.72827353200012,-7.1495004959999733,0],[112.72822548200008,-7.1494966839999279,0],[112.72810963000006,-7.1494922539999379,0],[112.72798698400004,-7.1494854699999451,0],[112.72786592200009,-7.1494714379999778,0],[112.72771980700008,-7.1494454279999786,0],[112.72762050300003,-7.1494248749999656,0],[112.72758016400007,-7.1494242229999259,0],[112.7275374300001,-7.1494300159999398,0],[112.72750604000009,-7.1494494489999738,0],[112.72745649700005,-7.1494897809999429,0],[112.72743019400002,-7.1495344989999694,0],[112.72738580700002,-7.1496248149999815,0],[112.72730990100001,-7.1497987659999467,0],[112.72729684900003,-7.1498224139999706,0],[112.72728480900003,-7.1498360929999762,0],[112.72726540600001,-7.1498482269999499,0],[112.72723811900005,-7.1498609139999303,0],[112.72721448600009,-7.1498667709999495,0],[112.7271913730001,-7.1498710529999698,0],[112.72717928300005,-7.1498710979999487,0],[112.7271403850001,-7.1498712439999395,0],[112.72708570800012,-7.1498693519999392,0],[112.72704259300008,-7.1498663669999587,0],[112.72699947300009,-7.1498623339999767,0],[112.72692584700008,-7.1498536949999334,0],[112.72669709700006,-7.1497973869999782,0],[112.72656842700007,-7.1497683049999523,0],[112.72651996200011,-7.1497559939999746,0],[112.72641422400011,-7.149720163999973,0],[112.72620360500002,-7.1496419049999531,0],[112.72619602100008,-7.1496394139999779,0],[112.72611519500003,-7.1496334189999402,0],[112.72607771900005,-7.1496281019999515,0],[112.72599980700011,-7.1496136989999286,0],[112.72591491300011,-7.1495848669999305,0],[112.72579127000006,-7.1495856629999253,0],[112.72573877900004,-7.1495791909999298,0],[112.72566988600011,-7.1495651139999268,0]]]},"properties":{"OBJECTID":1940,"NAMOBJ":"Banyuajuh","FCODE":"BA03070040","REMARK":"Batas Indikatif | - | Hasil Sinkronisasi Data Pemerintah Daerah Tahun 2019","METADATA":"TASWIL1000020260612DESAKEL_AR","SRS_ID":"4326","KDBBPS":"","KDCBPS":"","KDCPUM":"35.26.04","KDEBPS":"","KDEPUM":"35.26.04.2002","KDPBPS":"","KDPKAB":"35.26","KDPPUM":"35","LUASWH":3.9365946523258928,"TIPADM":1,"WADMKC":"Kamal","WADMKD":"Banyuajuh","WADMKK":"Bangkalan","WADMPR":"Jawa Timur","WIADKC":" ","WIADKK":" ","WIADPR":" ","WIADKD":" ","UUPP":"","Status":"Batas Indikatif","SHAPE_Length":0.1037822678950847,"SHAPE_Area":0.00032225898792759798}}]}