{"type":"FeatureCollection","features":[{"type":"Feature","id":3817,"geometry":{"type":"Polygon","coordinates":[[[112.08879896200006,-7.5683321959999716,0],[112.08874500900004,-7.5683126079999283,0],[112.08865279100007,-7.5682951479999474,0],[112.08842808700001,-7.5682526039999516,0],[112.08842138500006,-7.5682737589999647,0],[112.08841373000007,-7.5682979179999279,0],[112.08827929100005,-7.5683133849999535,0],[112.08806513900004,-7.5688987319999796,0],[112.08798661700007,-7.5688915939999788,0],[112.08794021800009,-7.569080759999963,0],[112.08831414500003,-7.5692075069999305,0],[112.08817933500006,-7.5695707039999434,0],[112.08808375400008,-7.5697078179999266,0],[112.08807419700008,-7.5697371479999447,0],[112.08802291300003,-7.5698945289999529,0],[112.08797981900011,-7.5700267779999422,0],[112.0878768450001,-7.5703427849999798,0],[112.08780179000007,-7.5705731129999663,0],[112.08778909400007,-7.5706120769999643,0],[112.08774270700007,-7.570754428999976,0],[112.08765104400004,-7.5710357259999341,0],[112.08764576100009,-7.5710519389999718,0],[112.087551684,-7.5713406429999281,0],[112.08753570900001,-7.5713745609999705,0],[112.08725374300002,-7.5713210239999285,0],[112.08713239100007,-7.5713281619999293,0],[112.08710383700009,-7.5713531459999786,0],[112.08695036200004,-7.5716565269999592,0],[112.08672193400002,-7.5718599709999808,0],[112.08661842600009,-7.572116952999977,0],[112.08637572200007,-7.5720883999999273,0],[112.08634716900008,-7.5721562139999605,0],[112.0860616330001,-7.5720872089999602,0],[112.08539747300006,-7.5718657289999669,0],[112.08527263000008,-7.5718240969999329,0],[112.08527000600009,-7.5718232219999777,0],[112.08524994400011,-7.5718168419999756,0],[112.08509779500002,-7.5721029319999502,0],[112.08492331400009,-7.5724310169999285,0],[112.08472639200011,-7.5727921379999543,0],[112.08467504900011,-7.5728862929999536,0],[112.08460826100008,-7.5730300359999774,0],[112.08444503500004,-7.5729682259999436,0],[112.08428659300012,-7.5729016179999462,0],[112.08405313000003,-7.5728174669999362,0],[112.08397780500002,-7.5727941269999519,0],[112.08363077600006,-7.5726865959999259,0],[112.08353559700004,-7.5726687499999343,0],[112.08335713800011,-7.5731327439999632,0],[112.083690262,-7.5732695639999292,0],[112.08361293000007,-7.573549150999952,0],[112.08363672500002,-7.5735788939999793,0],[112.08362482700011,-7.573787096999979,0],[112.08413046200008,-7.5740607349999323,0],[112.08441597600006,-7.5741915989999598,0],[112.08433822200004,-7.5744531019999499,0],[112.08433564900008,-7.5744617539999695,0],[112.08429883000008,-7.57458558299993,0],[112.08421605400008,-7.5748639779999394,0],[112.08433552800011,-7.5749574619999294,0],[112.08431703300005,-7.5750385959999562,0],[112.08451285800004,-7.5751048839999271,0],[112.08449937000012,-7.5751460159999624,0],[112.08433009600003,-7.5756621959999393,0],[112.08436133500004,-7.5756744889999368,0],[112.08450533200005,-7.5757311549999713,0],[112.08441739200009,-7.5760472419999587,0],[112.0846138600001,-7.5762062789999618,0],[112.08472978100008,-7.5763001149999809,0],[112.0843906660001,-7.5766263919999801,0],[112.08440559200005,-7.5766973559999542,0],[112.08441468000001,-7.5767405609999514,0],[112.08448344400006,-7.5770674769999573,0],[112.08487290000005,-7.5771884559999307,0],[112.08490323600006,-7.5771978789999253,0],[112.08483986100009,-7.5774523999999701,0],[112.08485141100005,-7.5774575189999496,0],[112.08552172900011,-7.577754595999977,0],[112.08597544100007,-7.5779556749999415,0],[112.08591284100009,-7.5781135469999299,0],[112.08698356800005,-7.5785293089999755,0],[112.08691767100004,-7.5786414329999729,0],[112.08715063500006,-7.5788067229999569,0],[112.08714708600007,-7.5788108169999759,0],[112.08699909100005,-7.5789815359999579,0],[112.08680576900008,-7.5793473889999632,0],[112.08679646400003,-7.5793652799999336,0],[112.08679290000009,-7.5793782109999484,0],[112.08679293700004,-7.57939328599997,0],[112.08680402800007,-7.5794053139999278,0],[112.08715900900006,-7.5795657479999363,0],[112.0870444090001,-7.5797399529999439,0],[112.08634474600001,-7.5808651239999563,0],[112.08616010900005,-7.5811620499999322,0],[112.08617903700008,-7.5811929829999372,0],[112.0869482920001,-7.581479857999966,0],[112.0869089250001,-7.5816350759999409,0],[112.08687040300003,-7.5817869669999709,0],[112.08665872800009,-7.5826215909999632,0],[112.08663167700001,-7.582728245999931,0],[112.08681638900009,-7.5827493209999375,0],[112.08658081500005,-7.5834845409999616,0],[112.08654053300006,-7.583678468999949,0],[112.08679648400005,-7.5837507129999722,0],[112.08709733500007,-7.5838356289999638,0],[112.08708497800001,-7.5839841179999326,0],[112.08707548500001,-7.5840981879999276,0],[112.0870650280001,-7.5842238429999611,0],[112.08706456800007,-7.5842293529999552,0],[112.087064424,-7.5843674209999676,0],[112.087064123,-7.5846555649999345,0],[112.08708744500007,-7.5851495519999617,0],[112.08707631100003,-7.5851917359999561,0],[112.08703436700011,-7.585350645999938,0],[112.08696432800002,-7.585733194999932,0],[112.08692426100004,-7.586013267999931,0],[112.08709104700006,-7.586037264999959,0],[112.08710436100012,-7.5860368839999524,0],[112.08707178100008,-7.5861549889999651,0],[112.08701555900006,-7.5863665969999374,0],[112.08691763900003,-7.5863366899999392,0],[112.08639752600004,-7.5870354809999299,0],[112.08655395800008,-7.5871507179999753,0],[112.08626227500008,-7.5875079949999531,0],[112.08592015000011,-7.5872366729999499,0],[112.08584272700011,-7.5871752729999571,0],[112.08579531200007,-7.5872358449999524,0],[112.08535273400003,-7.5878571649999458,0],[112.08532880200005,-7.5878441809999799,0],[112.08468637400006,-7.587480859999971,0],[112.0846279540001,-7.5874716229999422,0],[112.08404000500002,-7.5872052449999501,0],[112.08396423500005,-7.5873591809999539,0],[112.08350703700012,-7.5871267699999407,0],[112.08317397600001,-7.5877059369999529,0],[112.08364664200008,-7.5882247409999763,0],[112.0831450710001,-7.5890443749999577,0],[112.08340039500001,-7.5892501299999253,0],[112.0830628110001,-7.5897146029999476,0],[112.08243684100012,-7.5894443879999471,0],[112.08201437900004,-7.5893652349999456,0],[112.08146039600001,-7.5892804469999646,0],[112.08114848600007,-7.5892705279999291,0],[112.08115470900009,-7.5893041999999582,0],[112.08121404300005,-7.5898995459999696,0],[112.08123041900001,-7.5900638649999337,0],[112.08101332500007,-7.5899984819999418,0],[112.0804708070001,-7.5898176429999467,0],[112.08048508400009,-7.5897462589999805,0],[112.07991877200004,-7.5895321069999682,0],[112.07980455800009,-7.5899604099999465,0],[112.07958564800003,-7.5899033029999714,0],[112.07916686300007,-7.5897367409999674,0],[112.07921445200009,-7.5896272859999385,0],[112.07907644300008,-7.5895654199999285,0],[112.0793667370001,-7.5887992329999747,0],[112.07899078300011,-7.5886279119999358,0],[112.07881946100008,-7.5889705549999462,0],[112.07838164100008,-7.5888325459999351,0],[112.07803423900009,-7.5886992959999588,0],[112.07777249900005,-7.5891275989999372,0],[112.07766780200006,-7.5890895279999313,0],[112.07746792800003,-7.5893798219999553,0],[112.07728221100001,-7.5897458619999725,0],[112.07721677500001,-7.5897339649999367,0],[112.07690447100003,-7.5904269829999294,0],[112.0768271390001,-7.5904121109999778,0],[112.07662488500011,-7.5910307709999643,0],[112.07663678200004,-7.5911705649999703,0],[112.07652852600006,-7.5914803099999517,0],[112.07651082700011,-7.5915520879999576,0],[112.07650763100003,-7.5915736339999285,0],[112.07649657600007,-7.5915717269999732,0],[112.07643417500003,-7.5915527379999617,0],[112.07612719200006,-7.5915487119999625,0],[112.07602163500007,-7.5915346159999331,0],[112.07604873600008,-7.592788450999933,0],[112.0759720210001,-7.5927806969999665,0],[112.07566694700006,-7.5927728369999272,0],[112.07533881100005,-7.592749241999968,0],[112.07536676400002,-7.592996123999967,0],[112.0754119610001,-7.5936050799999748,0],[112.07542669300005,-7.5938494899999682,0],[112.07543907700006,-7.5940549439999359,0],[112.07549199100004,-7.5949328239999545,0],[112.07553420600004,-7.5955272699999341,0],[112.07553871400012,-7.5955862359999742,0],[112.07561246100011,-7.5955758869999386,0],[112.07561573600003,-7.5956061209999461,0],[112.0756195460001,-7.5956412869999781,0],[112.07553795600006,-7.5956581369999299,0],[112.07558202000007,-7.5958018609999272,0],[112.07556840600012,-7.5972138029999314,0],[112.07556676900003,-7.5973836349999715,0],[112.07531986200001,-7.598022761999971,0],[112.07520396200005,-7.5982319609999536,0],[112.07510922900008,-7.5983515869999678,0],[112.07499156600011,-7.5985001719999445,0],[112.07485787200005,-7.5988566499999592,0],[112.07573732600008,-7.5991746709999575,0],[112.07557313500001,-7.5994199509999589,0],[112.07542582600001,-7.5995906939999713,0],[112.07516925700008,-7.5998019079999608,0],[112.07519730200011,-7.5998061979999534,0],[112.07530088600004,-7.5998220429999606,0],[112.07526581800005,-7.6001897839999515,0],[112.07520886100008,-7.6006471789999637,0],[112.07517973200004,-7.6008810989999347,0],[112.07515888600005,-7.6010485129999665,0],[112.07511882800009,-7.601288125999929,0],[112.07503364000002,-7.6017501749999496,0],[112.07495546100006,-7.6021380249999311,0],[112.07489144600004,-7.6024349079999638,0],[112.07485134800004,-7.6027054099999418,0],[112.07481375700002,-7.6030963979999342,0],[112.07472229900009,-7.6031121869999652,0],[112.07463084000005,-7.6036072439999316,0],[112.0745501020001,-7.6036929669999722,0],[112.07456750200004,-7.6042440609999744,0],[112.07457614200007,-7.6045176849999621,0],[112.07455884400008,-7.6048513059999436,0],[112.0747207710001,-7.6060977919999573,0],[112.07468576600002,-7.6061052719999793,0],[112.07435506600007,-7.6061814679999316,0],[112.07404497900006,-7.6062529149999705,0],[112.07131635600001,-7.6068816049999555,0],[112.07115218900003,-7.6069194279999692,0],[112.07115109200004,-7.6070171439999399,0],[112.07113268300009,-7.6073858759999666,0],[112.07107639200001,-7.6076288399999612,0],[112.07103346400004,-7.6078141239999582,0],[112.07090524600005,-7.6083675379999249,0],[112.07085936100009,-7.6087583439999662,0],[112.07083042000011,-7.6090048369999295,0],[112.07082304200003,-7.609067677999974,0],[112.07082921500012,-7.6091394509999759,0],[112.07092520700007,-7.6091631429999325,0],[112.07115910200002,-7.6091864939999709,0],[112.07103534300006,-7.6100542429999791,0],[112.07143719400005,-7.6101070909999748,0],[112.071416279,-7.6102970519999644,0],[112.07137855800011,-7.6106396659999405,0],[112.07153862200005,-7.6106481449999706,0],[112.07155984000008,-7.6106492689999641,0],[112.07181134900009,-7.6106625929999723,0],[112.07177550900008,-7.6116162039999722,0],[112.07188587900009,-7.6116350739999348,0],[112.07180630500011,-7.6124199699999622,0],[112.07180626700006,-7.6124203419999503,0],[112.07167072200002,-7.6124065079999355,0],[112.0716671460001,-7.6124061429999301,0],[112.07166481900003,-7.6124465159999772,0],[112.07164255900011,-7.6126489199999696,0],[112.0716509020001,-7.6126494379999485,0],[112.07161685300002,-7.6128759129999253,0],[112.07158502900006,-7.6130875859999492,0],[112.07183493700006,-7.6131106689999797,0],[112.07183320400009,-7.6131222509999361,0],[112.07192033300009,-7.6131326339999532,0],[112.07192136200001,-7.6131327569999598,0],[112.07202758300002,-7.6131454149999627,0],[112.07202992600003,-7.613145693999968,0],[112.07295095400002,-7.6132111929999269,0],[112.07291421600007,-7.6136606869999355,0],[112.07290915500005,-7.613722609999968,0],[112.07290318900004,-7.6138025929999458,0],[112.07288800200001,-7.6139115479999759,0],[112.07284823800001,-7.6141968209999504,0],[112.07301140800007,-7.6142299179999782,0],[112.07299482000008,-7.614330764999977,0],[112.07296888100007,-7.6144884619999402,0],[112.07357830800004,-7.6145874559999811,0],[112.07358340200005,-7.614707090999957,0],[112.07379461100004,-7.6147687839999776,0],[112.07397198100011,-7.6147252709999407,0],[112.07427431500003,-7.6147819519999302,0],[112.074542941,-7.6147860719999585,0],[112.0745476300001,-7.6147429869999428,0],[112.07490777400005,-7.6147611639999582,0],[112.07498237400011,-7.6151053789999423,0],[112.07492357300009,-7.6155697559999567,0],[112.07490976800011,-7.6157145839999316,0],[112.07490001100007,-7.6158169519999319,0],[112.07489837000003,-7.6159369239999251,0],[112.07488990800005,-7.6163214089999656,0],[112.07503207200011,-7.6163529529999323,0],[112.07504194100011,-7.6164630039999679,0],[112.07503753800006,-7.6166209489999801,0],[112.07501885200008,-7.6168220029999816,0],[112.07504318200006,-7.616960732999928,0],[112.07506755800011,-7.6171186069999521,0],[112.07511115800003,-7.61729078999997,0],[112.0751398970001,-7.6173541949999617,0],[112.07519066500004,-7.6174661989999777,0],[112.07523175600011,-7.617563286999939,0],[112.07525607300011,-7.6176972309999655,0],[112.07520863200011,-7.6179079269999761,0],[112.07507465800006,-7.6180422639999392,0],[112.0750364270001,-7.6180997899999738,0],[112.07499978300007,-7.6183295429999589,0],[112.0749514470001,-7.6186455919999503,0],[112.0745240760001,-7.6189046279999388,0],[112.0744778720001,-7.6191684289999557,0],[112.07407552500001,-7.6190908189999504,0],[112.07150205300002,-7.6188402249999285,0],[112.07117351400007,-7.6188237439999398,0],[112.07116665300009,-7.6188233999999397,0],[112.0707809160001,-7.618804048999948,0],[112.07058445500002,-7.6187941929999283,0],[112.07058066200011,-7.6187940029999481,0],[112.07053683200002,-7.618792295999981,0],[112.07046367400005,-7.6187894469999264,0],[112.07036056600009,-7.6187854299999458,0],[112.07027227600008,-7.6189864509999552,0],[112.07023137200008,-7.6190933259999269,0],[112.07020892700007,-7.6191519699999617,0],[112.07016229200008,-7.6192738199999326,0],[112.07013455200001,-7.6193586239999718,0],[112.06994300500003,-7.6196572469999637,0],[112.06974788900004,-7.6197857379999618,0],[112.06980975500005,-7.6198999509999794,0],[112.06977198100003,-7.6200189249999539,0],[112.06976127400003,-7.6202295069999764,0],[112.0698011290001,-7.6204080139999633,0],[112.06979449800008,-7.6204280899999617,0],[112.06978732800007,-7.6204381579999563,0],[112.06978158600009,-7.6204439159999424,0],[112.06975544800002,-7.6204491709999616,0],[112.06949971900008,-7.6204289769999605,0],[112.06940842400002,-7.6204549349999411,0],[112.06932599700008,-7.6204857689999699,0],[112.0692704920001,-7.6205414219999739,0],[112.06920091100005,-7.6206352059999745,0],[112.06888563200005,-7.6210575599999402,0],[112.06873691600003,-7.6216048359999604,0],[112.06861199400009,-7.6222829819999447,0],[112.06852276500001,-7.6225744659999464,0],[112.06846327800008,-7.6228837959999396,0],[112.06844536000006,-7.6229721599999607,0],[112.06844064400002,-7.6230047159999685,0],[112.06843302400011,-7.6230267489999619,0],[112.06842828600008,-7.6230506909999463,0],[112.06841298900008,-7.6230717859999686,0],[112.06840149600009,-7.6230794719999722,0],[112.06836344700002,-7.6231016979999708,0],[112.06832330400005,-7.6231118849999575,0],[112.06829709400006,-7.6231234009999298,0],[112.06829110700005,-7.6231267059999368,0],[112.06828662500004,-7.6231329989999495,0],[112.06828274200006,-7.6231389899999726,0],[112.06827827000006,-7.6231491719999553,0],[112.06826903800004,-7.6231728119999502,0],[112.06826801800003,-7.6231777529999363,0],[112.0682019730001,-7.62349781599994,0],[112.06813059000001,-7.6236822239999356,0],[112.0681186920001,-7.6238071459999333,0],[112.06802351400006,-7.6240272459999687,0],[112.06797592500004,-7.6241462189999538,0],[112.06795807800006,-7.6242651919999389,0],[112.06786290000002,-7.6243901139999366,0],[112.06783910600006,-7.6245983169999363,0],[112.06767254300007,-7.6251039519999608,0],[112.06732157200008,-7.6260557369999447,0],[112.06741318200011,-7.6265506639999785,0],[112.06742315400004,-7.626795374999972,0],[112.06742961200007,-7.6269820099999492,0],[112.06741108200004,-7.6270610989999454,0],[112.06739875900007,-7.6271136979999596,0],[112.06742266200001,-7.6274164789999759,0],[112.06743594500006,-7.6278241119999279,0],[112.06743663900011,-7.6281762249999474,0],[112.06743717600011,-7.6282121739999411,0],[112.06744028100002,-7.6284197709999262,0],[112.06766592200006,-7.6284957889999419,0],[112.06788699200001,-7.6286627499999327,0],[112.06804355500003,-7.6287289019999776,0],[112.06813298300005,-7.6287666879999279,0],[112.06815633600002,-7.6287292539999498,0],[112.06823408100001,-7.6287519639999459,0],[112.06836233800004,-7.6288163269999814,0],[112.0683429930001,-7.6288554229999477,0],[112.06840232500008,-7.6288804919999507,0],[112.06874978200005,-7.629027300999951,0],[112.06864578800003,-7.6292413129999659,0],[112.06803611300006,-7.6304959749999739,0],[112.06796359700002,-7.6306452089999652,0],[112.06766379800001,-7.6304009929999665,0],[112.06755343200007,-7.6303110899999638,0],[112.06715695000003,-7.6300131439999745,0],[112.06670872800009,-7.6296820789999629,0],[112.06670815700011,-7.6296826379999629,0],[112.06624928700001,-7.6293420559999277,0],[112.06525040300005,-7.6286006609999504,0],[112.06506299000011,-7.6284654419999356,0],[112.06502045700006,-7.628432524999937,0],[112.06493256100009,-7.6283867969999619,0],[112.06491670300011,-7.628375349999942,0],[112.06487349600002,-7.6283610979999708,0],[112.06480053500002,-7.6283356089999756,0],[112.06469779500003,-7.6283062529999484,0],[112.06461813600004,-7.6282937669999455,0],[112.06439267500002,-7.6282651719999421,0],[112.06434044800005,-7.6282929449999415,0],[112.06430268000008,-7.628315377999968,0],[112.06427681900004,-7.6283326699999634,0],[112.06425960400009,-7.6283542489999263,0],[112.06425100100012,-7.6283671919999279,0],[112.06424961200003,-7.6283872969999607,0],[112.06424509800001,-7.6284405919999472,0],[112.06425077100005,-7.6284545049999792,0],[112.06425842700003,-7.6284732829999484,0],[112.06440316300007,-7.62861801899993,0],[112.06444041500004,-7.6286830589999681,0],[112.06445488600002,-7.6287153269999521,0],[112.06444902500004,-7.6287703799999349,0],[112.06444290000002,-7.6287836529999709,0],[112.06442792500002,-7.6288161039999522,0],[112.06442831800007,-7.6288192479999566,0],[112.06440993300009,-7.6288593059999812,0],[112.06439902800003,-7.6288830689999259,0],[112.06439066100006,-7.6288958679999723,0],[112.06436070700011,-7.6289416929999447,0],[112.06430326600002,-7.6289908899999546,0],[112.06424342900004,-7.6289868279999382,0],[112.06417727000007,-7.6290061239999432,0],[112.06417164900006,-7.6290077639999367,0],[112.06413455600011,-7.6290326019999384,0],[112.06410573200003,-7.6290998599999398,0],[112.06409711900005,-7.6293302389999553,0],[112.064093662,-7.6293707019999601,0],[112.06409362200009,-7.6293711659999417,0],[112.06407496300005,-7.6293905949999612,0],[112.06402110100009,-7.6294323649999569,0],[112.06400315800011,-7.6294463089999454,0],[112.06396364900002,-7.6294770149999636,0],[112.06392478300006,-7.6294735179999407,0],[112.06389098700004,-7.6294815009999297,0],[112.06389003200002,-7.6294816769999443,0],[112.06387516500001,-7.6294844109999644,0],[112.06385217700006,-7.6294995439999411,0],[112.06383207600004,-7.6295182579999619,0],[112.06383000100004,-7.6295520039999474,0],[112.0638329300001,-7.6295728149999604,0],[112.06384523500003,-7.6295875749999595,0],[112.06385025000009,-7.6295935919999351,0],[112.06386838100002,-7.6296509779999724,0],[112.06387144300004,-7.629725629999939,0],[112.06386890600004,-7.6297535599999264,0],[112.06386294300012,-7.6298191919999567,0],[112.06385754200005,-7.6298786369999334,0],[112.06385307900007,-7.6299277619999657,0],[112.06385205600009,-7.629939019999938,0],[112.06384696200007,-7.629949321999959,0],[112.06382541700009,-7.6299928979999549,0],[112.06382342100005,-7.6300065879999579,0],[112.06379402800007,-7.630087155999945,0],[112.06380080400004,-7.630112022999981,0],[112.06380419300001,-7.6301244609999799,0],[112.06382734200008,-7.6301746549999621,0],[112.06386528500002,-7.6302521509999792,0],[112.06388820400002,-7.6303341789999308,0],[112.06389103400011,-7.6303443059999267,0],[112.06392727200011,-7.6304739989999462,0],[112.06394195100006,-7.6305476739999563,0],[112.06395362900003,-7.6305680349999534,0],[112.06398964500011,-7.6306308309999622,0],[112.06406947000005,-7.6307228459999692,0],[112.06410311800005,-7.630781729999967,0],[112.06413385600001,-7.6308355209999377,0],[112.06414858500011,-7.6308903139999416,0],[112.06416021100006,-7.6309362309999642,0],[112.06419191600003,-7.6309548169999744,0],[112.0642164190001,-7.6309705509999617,0],[112.06424228000003,-7.6309532579999768,0],[112.06428538800003,-7.6309273079999684,0],[112.06430600400006,-7.6309078889999569,0],[112.06430645600005,-7.6309074639999608,0],[112.06433276600001,-7.6308826819999354,0],[112.0643917220001,-7.6308638719999635,0],[112.06443054800002,-7.6308522899999502,0],[112.06446798600007,-7.6308608119999803,0],[112.06449103900002,-7.6308722419999526,0],[112.06452854000008,-7.6309066079999752,0],[112.06454153700008,-7.6309252409999431,0],[112.06454363300008,-7.6309461269999588,0],[112.06454424500009,-7.6309522349999384,0],[112.06455021200009,-7.6310116969999626,0],[112.06453887600003,-7.6310948259999805,0],[112.06452213700004,-7.6312175799999409,0],[112.06452371400007,-7.6312827909999328,0],[112.06455154000002,-7.6313168179999593,0],[112.06459516500001,-7.6313663129999441,0],[112.06460742100001,-7.631380217999947,0],[112.06461823100005,-7.6313868179999531,0],[112.06462615600003,-7.6313916579999272,0],[112.06464180000012,-7.631417522999925,0],[112.06464783200011,-7.6314274979999368,0],[112.0646493160001,-7.631446159999939,0],[112.06462063800006,-7.6314878679999651,0],[112.06447592200004,-7.6315858179999623,0],[112.06437771500009,-7.6316522879999411,0],[112.0642849300001,-7.631715086999975,0],[112.06426721900004,-7.6317270759999474,0],[112.06414214100005,-7.6317761999999334,0],[112.06401074500002,-7.6318293469999503,0],[112.06395813200004,-7.6318541839999625,0],[112.06389837800009,-7.6318466339999418,0],[112.063871672,-7.631841713999961,0],[112.06382424600008,-7.6318329769999309,0],[112.06377096500012,-7.6318187509999689,0],[112.06364024700008,-7.6317387559999474,0],[112.06363452100004,-7.6317337539999812,0],[112.06358933400008,-7.6316942849999805,0],[112.06353023300005,-7.6316542289999347,0],[112.06346256800009,-7.6316429099999255,0],[112.0633301690001,-7.6316555229999494,0],[112.06328570900007,-7.6316549059999375,0],[112.06321868200007,-7.6316649569999413,0],[112.06318914800011,-7.6316693849999524,0],[112.0631398700001,-7.6316767749999599,0],[112.06302902500011,-7.6317113189999759,0],[112.06298646200003,-7.631734531999939,0],[112.06299136400003,-7.6317414309999663,0],[112.06306873000005,-7.631850295999925,0],[112.06309993800005,-7.6318942089999382,0],[112.06319037100002,-7.6320214609999653,0],[112.063226998,-7.632072998999945,0],[112.06346638600007,-7.6321213979999811,0],[112.06402838200006,-7.6323292509999305,0],[112.0641963060001,-7.6323831059999634,0],[112.06429050100007,-7.6324133159999406,0],[112.06419908000009,-7.6327354019999802,0],[112.06416804700007,-7.6328447339999457,0],[112.06416759700005,-7.6328463209999313,0],[112.06450667100012,-7.6330426269999521,0],[112.06499446000009,-7.6333281619999411,0],[112.06542276200003,-7.6335780059999365,0],[112.06551220600011,-7.6336789909999538,0],[112.06553763300008,-7.6337076989999559,0],[112.06558978600003,-7.6337665809999748,0],[112.06564405200004,-7.6338278489999425,0],[112.0659083590001,-7.6339570659999367,0],[112.06596528000011,-7.6339848939999797,0],[112.066200847,-7.6341062459999307,0],[112.06637827400004,-7.6342177719999427,0],[112.06645069000001,-7.6342632909999679,0],[112.06664342600004,-7.6344203349999589,0],[112.06686471600005,-7.6345202729999642,0],[112.06720735800002,-7.6347487009999782,0],[112.06743578600003,-7.6348986059999788,0],[112.06753100700007,-7.6349063139999771,0],[112.06759440700012,-7.6349387009999532,0],[112.06776118200003,-7.6352372989999253,0],[112.06790692100003,-7.6354982309999286,0],[112.06791256700001,-7.6354957529999297,0],[112.06822078300002,-7.6353604649999625,0],[112.06824558700009,-7.6354005729999699,0],[112.06849154300005,-7.6357982779999816,0],[112.06878749600003,-7.6363015149999569,0],[112.06880359700006,-7.6363028589999544,0],[112.06889698300006,-7.6363021399999411,0],[112.06890408400011,-7.6363247529999398,0],[112.06898731400008,-7.6365897889999701,0],[112.06898789900004,-7.6365924429999268,0],[112.06905869800005,-7.636913394999965,0],[112.06906962300002,-7.6370816419999414,0],[112.06908249300011,-7.6372798319999333,0],[112.06913008200002,-7.6377985549999607,0],[112.06914435900001,-7.6380602959999351,0],[112.06926077300011,-7.6382764939999674,0],[112.06934069800002,-7.638338216999955,0],[112.06940975700002,-7.6383915479999587,0],[112.06950320100009,-7.6385376469999642,0],[112.06956314400009,-7.6386313669999595,0],[112.06971067000006,-7.6388359999999693,0],[112.06973117900009,-7.6389590529999509,0],[112.06973446500001,-7.6389787679999586,0],[112.06976400800011,-7.6390066689999685,0],[112.06982012600008,-7.6390596689999484,0],[112.06989420600007,-7.639139039999975,0],[112.07015325000009,-7.6394165879999605,0],[112.07052920500007,-7.6397830259999751,0],[112.07078142800003,-7.6399257929999749,0],[112.07095274900007,-7.6396830879999698,0],[112.0712144900001,-7.6397782659999507,0],[112.07149508400005,-7.6399137259999748,0],[112.07162851600003,-7.6399781409999719,0],[112.07163025200009,-7.6399792979999575,0],[112.0717427300001,-7.640054283999973,0],[112.07206098200004,-7.6402417089999517,0],[112.07233603400005,-7.6403598999999645,0],[112.0724371340001,-7.6404033429999458,0],[112.07244943400008,-7.6404086279999319,0],[112.07246692700005,-7.6404161449999606,0],[112.07245461400009,-7.64050481299995,0],[112.07244697900001,-7.640601601999947,0],[112.07249940200006,-7.6406410679999794,0],[112.07271585300009,-7.6407409899999266,0],[112.07272188900004,-7.6407437769999547,0],[112.07278493400008,-7.6407728809999753,0],[112.07282362600006,-7.6407935039999302,0],[112.07312833000003,-7.6409559179999746,0],[112.07313153500002,-7.6409576259999312,0],[112.07314270000006,-7.6409643889999757,0],[112.0734787130001,-7.6411679299999378,0],[112.07376738000005,-7.6413427909999427,0],[112.07399318400007,-7.6414795729999696,0],[112.07460167600004,-7.6417739939999478,0],[112.07467539300001,-7.6418096619999574,0],[112.07474295500003,-7.6418423519999692,0],[112.07524484400005,-7.6421064179999689,0],[112.07540346400003,-7.642159435999929,0],[112.07541915900003,-7.6421650009999667,0],[112.07549819000008,-7.6421930259999726,0],[112.07583399100008,-7.6423121049999736,0],[112.07624222400011,-7.6424568689999433,0],[112.07840640000006,-7.6430814839999357,0],[112.07877603100007,-7.6431693429999541,0],[112.08080865400007,-7.6436524829999257,0],[112.08084070400002,-7.6436601009999663,0],[112.08114938400001,-7.6437086379999641,0],[112.08163792200003,-7.6438138679999383,0],[112.08169988000009,-7.6438237799999342,0],[112.0824155790001,-7.6438476839999794,0],[112.08265541600008,-7.6438422969999351,0],[112.082667216,-7.6437656929999775,0],[112.08290096600001,-7.6437435679999339,0],[112.08327398600011,-7.6437450279999553,0],[112.08389228400006,-7.6435400759999652,0],[112.08417876600004,-7.6434266379999372,0],[112.08481893900012,-7.6430791139999315,0],[112.08493966800006,-7.6425497659999451,0],[112.08502154400003,-7.6425346729999433,0],[112.08509624600003,-7.6425209029999337,0],[112.08530312400001,-7.6425263019999647,0],[112.08533290300011,-7.6425270789999331,0],[112.08559724500003,-7.6426040299999727,0],[112.08568810200006,-7.6421440649999681,0],[112.08574217000012,-7.6418703479999408,0],[112.08595156300009,-7.6408709739999381,0],[112.08597059800002,-7.6406901359999324,0],[112.08624661600004,-7.64068061699993,0],[112.08691594700008,-7.6406291309999688,0],[112.08695617000001,-7.6406260369999472,0],[112.08751833100007,-7.640420699999936,0],[112.08753037800011,-7.6404168729999355,0],[112.08851152200009,-7.6401392469999792,0],[112.08858913000006,-7.6401152489999618,0],[112.08939226300004,-7.6398900299999468,0],[112.08926345500004,-7.6405174699999634,0],[112.08915061100004,-7.6414186919999452,0],[112.08935795000002,-7.6412805899999512,0],[112.08941007900012,-7.6412458679999418,0],[112.08950523100009,-7.6411824899999488,0],[112.08969227600005,-7.6410579059999577,0],[112.08989308900004,-7.6410514129999569,0],[112.08989463900002,-7.6409909739999762,0],[112.08999933500002,-7.6409900229999721,0],[112.09001456400006,-7.6409909749999656,0],[112.09011878400008,-7.6409838359999753,0],[112.09012949200007,-7.6409523079999531,0],[112.09014583800001,-7.6409249939999313,0],[112.09015190200012,-7.6408018589999642,0],[112.09015554100006,-7.6407593129999327,0],[112.09020870800009,-7.6407541779999519,0],[112.09049662300004,-7.64075893699993,0],[112.09050644900003,-7.6407103249999295,0],[112.0905418320001,-7.640535267999951,0],[112.09064414900001,-7.6405257499999379,0],[112.090658426,-7.6404234329999667,0],[112.09073826000008,-7.6404278349999686,0],[112.0908138640001,-7.6404367379999485,0],[112.09088146400006,-7.6404446989999428,0],[112.09092937700007,-7.640450340999962,0],[112.09099416700008,-7.6404579709999325,0],[112.09099678500002,-7.6404394299999581,0],[112.09104364500001,-7.640107521999937,0],[112.0910454860001,-7.640098615999932,0],[112.09162793900009,-7.6401251309999338,0],[112.09193429300001,-7.6401459759999284,0],[112.09195990800004,-7.6398240979999628,0],[112.09196381700008,-7.639774971999941,0],[112.09202883400008,-7.6397794479999561,0],[112.09211983000012,-7.6397857139999701,0],[112.09247850700001,-7.6398104079999598,0],[112.0927684080001,-7.639830366999945,0],[112.09349356200005,-7.6398852269999793,0],[112.09349600100006,-7.6398710339999525,0],[112.0935029310001,-7.6398307119999345,0],[112.09352625800011,-7.6396949769999765,0],[112.09354347500005,-7.6395947949999368,0],[112.09360392100007,-7.6392504779999513,0],[112.09379442600004,-7.6392755979999265,0],[112.09395393300008,-7.6393171319999738,0],[112.09401676400012,-7.639333492999981,0],[112.09406727100009,-7.6393466439999429,0],[112.09432731900006,-7.639414358999943,0],[112.09432037100009,-7.6394403489999263,0],[112.09424990800005,-7.6397039529999802,0],[112.0947255100001,-7.6399803269999325,0],[112.09480711500009,-7.6399706169999604,0],[112.09483133800006,-7.6398558139999295,0],[112.09516642300002,-7.6399278629999685,0],[112.09540682400007,-7.6399415689999728,0],[112.09564931700004,-7.6399553949999586,0],[112.09667296100008,-7.6402063159999329,0],[112.09681197800001,-7.6397783869999785,0],[112.09689140500006,-7.6395218199999704,0],[112.09711006800001,-7.6395786669999666,0],[112.09718661000011,-7.6395865249999702,0],[112.09736767300001,-7.6396051119999697,0],[112.09813005600006,-7.6397297049999793,0],[112.0981999060001,-7.6397411199999397,0],[112.09820863600009,-7.6397425469999689,0],[112.09821170400005,-7.6397430479999571,0],[112.09821270600003,-7.6397432109999386,0],[112.09821469600001,-7.6397401579999382,0],[112.09842921500001,-7.6394108729999743,0],[112.09851905000005,-7.6392729759999725,0],[112.098802277,-7.6388382249999722,0],[112.09902413900011,-7.6384976679999568,0],[112.09906749600009,-7.6384311149999462,0],[112.09915265200004,-7.6383004019999703,0],[112.09967815000005,-7.6374937659999773,0],[112.09968393500003,-7.6374848879999604,0],[112.09969772500006,-7.637463716999946,0],[112.10002352000004,-7.636963623999975,0],[112.1007719590001,-7.6358147759999611,0],[112.10080280800003,-7.6357674229999475,0],[112.10118888300008,-7.6351748009999483,0],[112.10131391100003,-7.6343509909999625,0],[112.10125820400003,-7.6340433029999417,0],[112.10122524800011,-7.6338612789999729,0],[112.10111800900006,-7.6332689629999777,0],[112.10105049400011,-7.6328960559999359,0],[112.10085981900011,-7.6318428929999413,0],[112.1008451990001,-7.631762139999978,0],[112.10081954100008,-7.6316204249999373,0],[112.1007980600001,-7.6315017799999509,0],[112.10082268600001,-7.6300954429999592,0],[112.10082722800007,-7.6298360479999587,0],[112.10083342200005,-7.6294823219999444,0],[112.10084009600007,-7.6291012099999307,0],[112.10084525700006,-7.6288064909999775,0],[112.10085352300007,-7.6283343889999742,0],[112.10099634300002,-7.6279341979999344,0],[112.10115652500008,-7.6274853579999444,0],[112.10146933600004,-7.6266088409999497,0],[112.10155665800005,-7.6263641579999444,0],[112.10161672200002,-7.6261958539999455,0],[112.10163138500002,-7.6261547659999565,0],[112.10199307000005,-7.6251413009999283,0],[112.10199360000001,-7.6251398169999334,0],[112.10199361100001,-7.625139785999977,0],[112.10199845800003,-7.6251262039999688,0],[112.10199980400012,-7.6251224319999551,0],[112.10204527500002,-7.6249950199999716,0],[112.10205275800001,-7.6249740519999705,0],[112.10205639900005,-7.6248785489999591,0],[112.10205823500007,-7.6248303989999613,0],[112.10207595000008,-7.6243657749999443,0],[112.10209162100011,-7.6239547369999627,0],[112.10213920000001,-7.6227068259999555,0],[112.10218984200003,-7.621378578999952,0],[112.10219728900006,-7.6211832429999617,0],[112.10231655100006,-7.6208263139999417,0],[112.10287372200003,-7.6191588079999519,0],[112.10297716900004,-7.6188492119999296,0],[112.10365036400003,-7.6168344639999646,0],[112.10368882300008,-7.6164402199999586,0],[112.10371519700004,-7.6161698539999634,0],[112.10373260600011,-7.6159913899999765,0],[112.10373333500002,-7.6159839199999624,0],[112.10378736300004,-7.6154300729999704,0],[112.10389282500012,-7.6143489729999487,0],[112.10389126500002,-7.614343177999956,0],[112.10359929700007,-7.6132585939999444,0],[112.10316963900004,-7.6116625269999645,0],[112.1031663230001,-7.6116502089999472,0],[112.10295407100011,-7.6108617469999444,0],[112.10303385400005,-7.6100244199999452,0],[112.10308671600001,-7.6094696229999386,0],[112.10457955300001,-7.6073611729999584,0],[112.10485761000007,-7.6071869329999799,0],[112.1062542520001,-7.6063117459999603,0],[112.10696957000005,-7.605863501999977,0],[112.10760896500005,-7.6054628339999795,0],[112.10761241500006,-7.6054606709999462,0],[112.10763961700002,-7.6054436259999534,0],[112.10811510100007,-7.6051456709999457,0],[112.10843260400009,-7.6047406449999357,0],[112.10843424900008,-7.604738546999954,0],[112.10908811400009,-7.6039044349999472,0],[112.10925480700007,-7.6030392029999803,0],[112.10926765500005,-7.6029725129999406,0],[112.10933584700001,-7.60261855899995,0],[112.10960023200005,-7.6012462539999319,0],[112.1096006360001,-7.6012441549999608,0],[112.10960129500006,-7.6012407359999656,0],[112.10960213500005,-7.601236427999936,0],[112.10960384400005,-7.6012362519999783,0],[112.1096044950001,-7.6012258599999427,0],[112.10961091200011,-7.6011233849999371,0],[112.10962671800007,-7.6008709929999441,0],[112.10958121900001,-7.6006843359999721,0],[112.1095452720001,-7.6005368659999704,0],[112.10936687500009,-7.5998049959999321,0],[112.10935835200007,-7.5997700319999808,0],[112.1093461370001,-7.5997199209999735,0],[112.10933294300003,-7.5996657929999287,0],[112.10933150300002,-7.5996598839999479,0],[112.10933135900007,-7.5996592939999346,0],[112.10933074900004,-7.5996567929999514,0],[112.10922023700005,-7.5992034169999556,0],[112.10917505400005,-7.5990180549999309,0],[112.10914752300005,-7.5989051099999756,0],[112.109077404,-7.5986174439999559,0],[112.10910694100005,-7.5982213129999536,0],[112.10911825000005,-7.5980696419999276,0],[112.10914203600009,-7.5977506509999557,0],[112.10920408100003,-7.5969185579999703,0],[112.10920566200002,-7.5968973599999572,0],[112.10922236100009,-7.5966733949999252,0],[112.1092264670001,-7.5966532849999453,0],[112.10933444200009,-7.5961244319999537,0],[112.10936731800007,-7.5959634069999424,0],[112.10936810200008,-7.5959594579999816,0],[112.10940789300003,-7.5957590419999406,0],[112.10950062300003,-7.5952919859999497,0],[112.10950730700006,-7.5952583209999602,0],[112.10951971400004,-7.5951958279999303,0],[112.10953517400003,-7.5951179629999501,0],[112.10974589700004,-7.5946776069999373,0],[112.10988920300008,-7.5943781339999532,0],[112.1099682900001,-7.5942128619999494,0],[112.11010679100002,-7.5939234309999506,0],[112.110191869,-7.5937456399999519,0],[112.11024500000008,-7.5936346089999347,0],[112.11025688500001,-7.5936097709999331,0],[112.11031296500005,-7.5934925789999284,0],[112.11039638500006,-7.5933182519999605,0],[112.11040086700007,-7.5933088869999779,0],[112.11040781600002,-7.5932943659999523,0],[112.11040854400005,-7.5932928439999614,0],[112.11041524200004,-7.5932788479999545,0],[112.11043263600004,-7.5932424969999488,0],[112.11044138600005,-7.5932242119999387,0],[112.11045527700003,-7.593195183999967,0],[112.11047799100004,-7.5931477169999653,0],[112.11082531700004,-7.5925770699999475,0],[112.11142194900003,-7.5915968179999709,0],[112.11143074400002,-7.5915823679999335,0],[112.11143490100005,-7.5915755379999723,0],[112.11145887100008,-7.5915518709999787,0],[112.11146607900002,-7.5915447539999263,0],[112.11207511900011,-7.5909434119999446,0],[112.11207576000004,-7.5909427789999313,0],[112.11208201000011,-7.5909365659999253,0],[112.11209300500002,-7.5909256379999306,0],[112.11210473500012,-7.5909139789999358,0],[112.11212077500011,-7.5908980359999418,0],[112.11213825100003,-7.5908806669999649,0],[112.11216260000003,-7.5908564659999342,0],[112.11218110400011,-7.5908380749999651,0],[112.11220938000008,-7.5908099699999525,0],[112.11223163200009,-7.590787852999938,0],[112.11223677600003,-7.5907827399999519,0],[112.11228327200001,-7.5907365269999332,0],[112.11230496500002,-7.5907149659999504,0],[112.11232310800006,-7.590696932999947,0],[112.11233575600011,-7.5906843609999441,0],[112.11242186000004,-7.5905987799999366,0],[112.1125549520001,-7.5904664959999764,0],[112.1125905020001,-7.5904311619999589,0],[112.11298804300009,-7.590036037999937,0],[112.11316684800011,-7.5898583199999621,0],[112.11316781800008,-7.5898573559999249,0],[112.11317439000004,-7.5898508229999493,0],[112.11321999500001,-7.5897489019999398,0],[112.11326614900008,-7.5896457549999354,0],[112.11339565800006,-7.5893563239999366,0],[112.11340353000003,-7.5892787039999803,0],[112.11341763100006,-7.5891396619999796,0],[112.11344800900008,-7.5888401359999307,0],[112.11345751900001,-7.5887463699999671,0],[112.11346432900007,-7.588679218999971,0],[112.11349258500002,-7.5884238359999472,0],[112.11354257900007,-7.5879719819999423,0],[112.11355016500011,-7.5879034179999394,0],[112.113583973,-7.5875978559999453,0],[112.11361275400009,-7.5873377289999553,0],[112.11361690300009,-7.587300225999968,0],[112.11362369700009,-7.5872221019999415,0],[112.11365044900003,-7.586914477999926,0],[112.11365656000009,-7.5868442129999494,0],[112.11366206700006,-7.5867808839999498,0],[112.11369010800001,-7.586458438999955,0],[112.11373076300004,-7.5859909539999535,0],[112.11373898600004,-7.5858964009999568,0],[112.11374830000011,-7.5858583189999536,0],[112.11380524700007,-7.5856254739999258,0],[112.1139370190001,-7.5850866819999396,0],[112.11393702700002,-7.585086649999937,0],[112.11393703500005,-7.5850866179999343,0],[112.11408231400003,-7.5844925989999297,0],[112.11416114500003,-7.5843289589999472,0],[112.11418033600012,-7.5842891209999266,0],[112.11420558200007,-7.5842367149999745,0],[112.11421929000005,-7.5842082589999791,0],[112.11437096600002,-7.5838934069999482,0],[112.11439027600011,-7.5838533219999249,0],[112.11442417900003,-7.5837829439999496,0],[112.11386766100009,-7.5836470999999506,0],[112.11303462600006,-7.5833950249999589,0],[112.11133638600006,-7.5828021549999676,0],[112.11066736300006,-7.5825914919999491,0],[112.11068982900008,-7.5824997679999342,0],[112.11072376700008,-7.5823566529999766,0],[112.11035796200008,-7.582278310999925,0],[112.10970060600005,-7.5821571639999661,0],[112.10927488400011,-7.5820787049999581,0],[112.10886192700002,-7.5820025989999635,0],[112.10868002100005,-7.5819690739999714,0],[112.10817837500008,-7.5818754099999524,0],[112.10733218100006,-7.5817174129999785,0],[112.10723097400012,-7.5816985159999604,0],[112.10674218600002,-7.5816489819999333,0],[112.10653850400001,-7.5816147899999464,0],[112.10623143800001,-7.5815632439999376,0],[112.10584421100009,-7.5814981839999405,0],[112.10466454200002,-7.5813179619999573,0],[112.10442059900004,-7.5812806939999291,0],[112.10365025600004,-7.5811634799999297,0],[112.10334316900003,-7.5811144859999331,0],[112.10248159000002,-7.5810056129999452,0],[112.10245125100005,-7.581001778999962,0],[112.10213798900008,-7.5809621939999374,0],[112.10195467800008,-7.5809390299999677,0],[112.10194643200009,-7.5809376479999742,0],[112.10195091000003,-7.5809087949999707,0],[112.10198365100007,-7.5807652829999483,0],[112.10209112100006,-7.5803098359999694,0],[112.10210191900001,-7.5802567819999354,0],[112.10214516300005,-7.5799874759999284,0],[112.10214793000011,-7.5799702409999554,0],[112.10182053000005,-7.5798963689999255,0],[112.10168374200009,-7.5798579799999288,0],[112.10138350400007,-7.5797737189999452,0],[112.10117410600003,-7.5797149519999607,0],[112.10105808800006,-7.5796823919999383,0],[112.10095749900006,-7.5796541619999402,0],[112.10091086200009,-7.5798468279999724,0],[112.10079035900003,-7.5798342749999392,0],[112.10070406200009,-7.5798252849999699,0],[112.10065227200005,-7.5798198899999534,0],[112.10058772200011,-7.5798131659999513,0],[112.10056569500011,-7.5798108709999497,0],[112.10047408000003,-7.5798013269999274,0],[112.10043511000003,-7.5797972669999467,0],[112.10035953800002,-7.5797893939999312,0],[112.10033773800001,-7.57978712299996,0],[112.1002596830001,-7.5797789919999445,0],[112.1002560930001,-7.5797325799999271,0],[112.10024277900004,-7.5795604769999727,0],[112.10024116400007,-7.5795395929999358,0],[112.10024087500005,-7.5795358609999539,0],[112.10024922500008,-7.5795040479999329,0],[112.10027994400002,-7.5793870159999415,0],[112.10027620800008,-7.579386235999948,0],[112.10027593600012,-7.5793861789999255,0],[112.10025575000009,-7.5793819659999713,0],[112.10024827400002,-7.5793804059999275,0],[112.1002018370001,-7.5793707139999356,0],[112.10012770300011,-7.5793552399999271,0],[112.10005216900004,-7.5793394739999371,0],[112.0996722970001,-7.5792601859999422,0],[112.09961784800009,-7.5792423469999335,0],[112.09949995300008,-7.5792037199999527,0],[112.09936153500007,-7.5791583699999592,0],[112.09915237600001,-7.5790898419999735,0],[112.09893516400007,-7.579020021999952,0],[112.09854328500001,-7.5788940579999462,0],[112.09849454100004,-7.5788871179999546,0],[112.09838383100009,-7.5788713569999686,0],[112.09823793500004,-7.5795233339999299,0],[112.09821085800002,-7.5795211389999508,0],[112.09820249600011,-7.5795204609999587,0],[112.09817042900011,-7.5795178599999531,0],[112.09816750300001,-7.5795176229999583,0],[112.09799830600002,-7.5800683579999486,0],[112.09799658600002,-7.5800739549999321,0],[112.0979520520001,-7.5802189159999784,0],[112.0979258640001,-7.5803041569999436,0],[112.09786328900009,-7.5805078359999811,0],[112.09776335200002,-7.5808647559999258,0],[112.09771695200004,-7.5808576169999355,0],[112.09764094100001,-7.5811142899999595,0],[112.09737985200002,-7.5810454089999553,0],[112.09690064000006,-7.580918980999968,0],[112.09666695500005,-7.5808573289999686,0],[112.09673358000009,-7.5805004109999459,0],[112.09629997500008,-7.5804215729999669,0],[112.09622318600009,-7.5804076109999414,0],[112.09581813400007,-7.5803040979999423,0],[112.09558073100004,-7.5802434289999496,0],[112.09559160900005,-7.5801263619999304,0],[112.0956307240001,-7.5797054049999701,0],[112.09564843300006,-7.5795148269999686,0],[112.0955279530001,-7.5794946569999411,0],[112.0952557170001,-7.5794490799999608,0],[112.09525386500002,-7.5794487699999422,0],[112.09521714900006,-7.5794426229999772,0],[112.09521509400008,-7.5794127199999366,0],[112.09516532200007,-7.5788181639999266,0],[112.09515559500005,-7.5788072789999319,0],[112.09512625800005,-7.5787744509999584,0],[112.09503502600001,-7.5786723619999634,0],[112.09503976300005,-7.5786702559999526,0],[112.09497606700006,-7.5786343069999589,0],[112.09488750900005,-7.5786108759999706,0],[112.09479792700006,-7.5785871739999493,0],[112.09480906200008,-7.5785624479999569,0],[112.09488854800009,-7.5783859399999756,0],[112.0949185290001,-7.578289353999935,0],[112.09494799400011,-7.578194430999929,0],[112.09495991100005,-7.578156038999964,0],[112.09468295700003,-7.5780528289999438,0],[112.09451343800004,-7.5779896559999429,0],[112.09441530800007,-7.5781406529999344,0],[112.09441510200008,-7.5781409709999252,0],[112.09428568200008,-7.5781026299999326,0],[112.09422501200004,-7.5780846569999767,0],[112.09417183300002,-7.5780664629999706,0],[112.09424708800009,-7.577950292999958,0],[112.09428515000002,-7.5778915349999352,0],[112.09429253300004,-7.5778801369999655,0],[112.09428511700003,-7.5778784299999415,0],[112.0940986710001,-7.5778355079999642,0],[112.09396651900011,-7.5777559779999706,0],[112.09387890800008,-7.5777032519999352,0],[112.09383535300003,-7.5775490169999671,0],[112.09379943200008,-7.5775368349999326,0],[112.09340205800004,-7.5774020769999311,0],[112.09336176900001,-7.5773884139999268,0],[112.09317506400009,-7.5773336369999811,0],[112.09310956800005,-7.5775132709999298,0],[112.09304429600002,-7.5774874089999571,0],[112.09293595800011,-7.5774444829999652,0],[112.09282293400008,-7.5773996989999546,0],[112.09274948900008,-7.5773705989999485,0],[112.09273123200001,-7.5772629629999528,0],[112.0924790680001,-7.5771200199999384,0],[112.09260277800001,-7.5769655049999756,0],[112.09268610400011,-7.5768614309999407,0],[112.09279582300007,-7.5767243909999706,0],[112.09285419700007,-7.5766169609999565,0],[112.09286743400003,-7.5765925999999695,0],[112.09291847400004,-7.5764493739999352,0],[112.09289321300002,-7.5764348389999441,0],[112.09291001700001,-7.5763753689999476,0],[112.09296865700003,-7.5761678379999466,0],[112.0930014060001,-7.5760519389999672,0],[112.0930241640001,-7.5758563319999439,0],[112.09303426800011,-7.57576949099996,0],[112.09290990000011,-7.5757970949999276,0],[112.09289975000002,-7.5757993479999755,0],[112.09283668600006,-7.5758213689999252,0],[112.09279451300006,-7.5754673619999267,0],[112.09277794700006,-7.5753282989999775,0],[112.09277237100002,-7.5752814889999627,0],[112.09279790400001,-7.5751269609999667,0],[112.09233284200002,-7.5749422289999302,0],[112.09221696300006,-7.5748961999999551,0],[112.0919241040001,-7.5747798709999756,0],[112.09184606800011,-7.5747488739999653,0],[112.09178602700001,-7.5747175859999629,0],[112.0917572190001,-7.5747025749999466,0],[112.09142243100007,-7.5746029109999427,0],[112.09155390900003,-7.574221725999962,0],[112.09171526500006,-7.5737550779999765,0],[112.0920300030001,-7.5738471819999518,0],[112.09210115000008,-7.5738680019999265,0],[112.09216524200008,-7.5738867579999578,0],[112.09239977100003,-7.5739575119999358,0],[112.0925900310001,-7.5740149109999493,0],[112.093057122,-7.5741810059999466,0],[112.09294090600008,-7.5745029069999532,0],[112.09315178100007,-7.5745207599999276,0],[112.09333619900008,-7.574536372999944,0],[112.0933722310001,-7.5743697349999479,0],[112.09357714900011,-7.5744201369999473,0],[112.09373315500011,-7.5744585079999638,0],[112.09376614200005,-7.5744666219999317,0],[112.09395746400003,-7.574432409999929,0],[112.09396745000004,-7.5744018469999332,0],[112.09399516600001,-7.5743170209999562,0],[112.09402456100008,-7.5742270529999587,0],[112.09402604600007,-7.5742225089999806,0],[112.0940671840001,-7.5740966009999511,0],[112.09407266400001,-7.5740798299999597,0],[112.09409315700009,-7.5740334369999687,0],[112.09411887900001,-7.5739752039999644,0],[112.0941323720001,-7.5739446559999806,0],[112.09417173600002,-7.5738555399999541,0],[112.09417359200006,-7.5738513389999298,0],[112.09421237000004,-7.5737635489999775,0],[112.09425617800002,-7.5736643719999392,0],[112.09428121400003,-7.5736076929999285,0],[112.09429776400009,-7.573570224999969,0],[112.09432394300006,-7.5735109599999646,0],[112.09432964500002,-7.573498051999934,0],[112.09429531500007,-7.5734902229999648,0],[112.09424755400005,-7.5734802059999424,0],[112.09402450300001,-7.5733676179999634,0],[112.09391033400004,-7.5733099899999274,0],[112.09387278800011,-7.5732910379999794,0],[112.09392460700008,-7.5731999089999249,0],[112.09396544200001,-7.5731280969999375,0],[112.09397629500006,-7.5731090099999392,0],[112.09373002100006,-7.5729912269999318,0],[112.09373986000003,-7.5729701439999531,0],[112.0938799270001,-7.5726699999999596,0],[112.09386554100001,-7.5726610849999361,0],[112.09377798200001,-7.5726068219999547,0],[112.0936265150001,-7.5725129549999792,0],[112.09342107000009,-7.5724658299999419,0],[112.09316489900004,-7.5724070689999508,0],[112.09293647100003,-7.5728258539999729,0],[112.0929361200001,-7.5728263309999306,0],[112.0928698460001,-7.5729162729999757,0],[112.09272782200003,-7.57293488199997,0],[112.09250547000011,-7.5729640149999682,0],[112.09247163400005,-7.5729684479999264,0],[112.09244566100006,-7.5729718509999771,0],[112.09235346800006,-7.5729839299999639,0],[112.09217771100009,-7.5730008629999475,0],[112.09207295700003,-7.5730109549999725,0],[112.09197385400012,-7.5730277989999308,0],[112.09187404200009,-7.5730447639999738,0],[112.09187336200011,-7.5730447259999778,0],[112.09180481600004,-7.5730409179999469,0],[112.09179163500005,-7.5730401859999574,0],[112.09155281500011,-7.5730269179999254,0],[112.09151712200003,-7.5731042509999611,0],[112.09128512500001,-7.5730566609999528,0],[112.09135463400003,-7.5728318649999551,0],[112.09144783600004,-7.5725304469999628,0],[112.09147439600008,-7.5724445509999327,0],[112.09153176100006,-7.5722590309999305,0],[112.09156471200004,-7.5721524669999667,0],[112.09174167500009,-7.5716269769999371,0],[112.09125008700005,-7.5713530979999746,0],[112.0909193650001,-7.5711636319999798,0],[112.09092000500004,-7.5711630909999599,0],[112.09106794100001,-7.5710378769999807,0],[112.09128617200008,-7.5708531659999494,0],[112.09151739000004,-7.5706574619999287,0],[112.09187899500012,-7.5703327759999297,0],[112.09199924600011,-7.570224800999938,0],[112.09209407800006,-7.5701562129999616,0],[112.09154186300009,-7.57007151199997,0],[112.09057178600005,-7.5699191459999611,0],[112.09011798100005,-7.569842906999952,0],[112.08978198300008,-7.5697864589999426,0],[112.08983913200007,-7.5696247929999458,0],[112.09000083100011,-7.5695561889999681,0],[112.09000197000012,-7.5695522299999425,0],[112.09003539000003,-7.5694360899999538,0],[112.09007215100007,-7.5693083419999425,0],[112.09008658300002,-7.5692709859999354,0],[112.09014123200006,-7.5691295289999516,0],[112.09025551400009,-7.5688337159999719,0],[112.09026172000006,-7.5688176519999502,0],[112.09030117700001,-7.5687155179999763,0],[112.09000389500011,-7.5686292239999489,0],[112.08930279100002,-7.5684257089999392,0],[112.08915159900005,-7.5683818209999458,0],[112.0890220660001,-7.5683442209999612,0],[112.0888530200001,-7.5683518219999542,0],[112.08879896200006,-7.5683321959999716,0]]]},"properties":{"OBJECTID":3817,"NAMOBJ":"Kertosono","FCODE":"BA03070040","REMARK":null,"METADATA":"TASWIL1000020260612KECAMATAN_AR","SRS_ID":"4326","KDBBPS":null,"KDCBPS":null,"KDCPUM":"35.18.08","KDEBPS":null,"KDEPUM":null,"KDPBPS":null,"KDPKAB":"35.18","KDPPUM":"35","LUASWH":24.791192212473142,"TIPADM":3,"WADMKC":"Kertosono","WADMKD":null,"WADMKK":"Nganjuk","WADMPR":"Jawa Timur","WIADKC":null,"WIADKK":null,"WIADPR":null,"WIADKD":null,"UUPP":null,"SHAPE_Length":0.27748467255904308,"SHAPE_Area":0.0020314783786590665}}]}