{"type":"FeatureCollection","features":[{"type":"Feature","id":4076,"geometry":{"type":"Polygon","coordinates":[[[112.74755846900007,-7.2901227649999782,0],[112.74755901900005,-7.2901205619999701,0],[112.74758883700008,-7.2900011569999492,0],[112.74762323100003,-7.2898634279999328,0],[112.74770404200001,-7.2894941739999695,0],[112.74773270200001,-7.2893632269999671,0],[112.7477350580001,-7.2893524599999751,0],[112.74784363700007,-7.2888563259999728,0],[112.74786733900009,-7.2887480169999321,0],[112.74793952700009,-7.2884181639999497,0],[112.74800838100009,-7.2881035559999532,0],[112.74807566200002,-7.2877961189999496,0],[112.74811536000004,-7.2876147229999333,0],[112.74812003800002,-7.2875933509999413,0],[112.74815068900011,-7.2874532979999458,0],[112.74821588700001,-7.2871453489999567,0],[112.7482265650001,-7.2870949049999467,0],[112.74832294200007,-7.2866396789999612,0],[112.7483497070001,-7.2865132639999501,0],[112.74837510100008,-7.2863933139999517,0],[112.74840014200004,-7.2862750349999601,0],[112.74841326100011,-7.2862130719999527,0],[112.74842996600012,-7.2861359269999753,0],[112.74844128300003,-7.2860836739999399,0],[112.74847628200007,-7.2859220429999709,0],[112.74867929300001,-7.2849845529999584,0],[112.74868991300002,-7.284935422999979,0],[112.74878957400006,-7.2844743989999756,0],[112.74884428600001,-7.284221309999964,0],[112.74895729200011,-7.2837071379999543,0],[112.74901539300004,-7.283442784999977,0],[112.74907199000006,-7.2831826769999566,0],[112.74927296300007,-7.2822582059999377,0],[112.74934054800008,-7.2819509049999738,0],[112.74938629300004,-7.2817429179999635,0],[112.74943046900012,-7.2815420609999251,0],[112.74951160500007,-7.281149887999959,0],[112.74953020100008,-7.2810665029999768,0],[112.74959426300006,-7.2807792399999585,0],[112.74960655700011,-7.2807226259999425,0],[112.74963905100003,-7.2805729839999458,0],[112.74969736100002,-7.2803044489999706,0],[112.7497527160001,-7.2800477329999467,0],[112.74984494100011,-7.279611020999937,0],[112.74988097100004,-7.2794515229999774,0],[112.74993256200003,-7.2792231289999449,0],[112.74994173800008,-7.279178298999966,0],[112.75000666100004,-7.278861089999964,0],[112.75005389000012,-7.2786303269999735,0],[112.75018477100002,-7.2780298319999588,0],[112.75035058700007,-7.2772942759999637,0],[112.74678263200008,-7.2765222849999418,0],[112.74615590400003,-7.2763689049999698,0],[112.7454450570001,-7.2766991509999457,0],[112.74405354300006,-7.2772559889999684,0],[112.74405493900008,-7.2772618799999691,0],[112.7441640290001,-7.2774800119999554,0],[112.74435133700001,-7.277855618999979,0],[112.74468767900009,-7.2785327759999632,0],[112.74497103100009,-7.2791032429999518,0],[112.74525168800005,-7.2794922369999426,0],[112.74543965800001,-7.2797750009999618,0],[112.74593781700003,-7.2806156079999482,0],[112.74596360900011,-7.2806573209999783,0],[112.74621279100006,-7.2811145569999667,0],[112.74653860300009,-7.2817751119999343,0],[112.74679967700001,-7.2823569029999362,0],[112.74698630700004,-7.2828186329999767,0],[112.74710468300009,-7.2831115019999402,0],[112.74723013800008,-7.2838136279999617,0],[112.74724106400004,-7.284236251999971,0],[112.74724605300003,-7.2844292249999398,0],[112.74719941300009,-7.284843556999931,0],[112.74699661400007,-7.2855459529999393,0],[112.74683270600008,-7.2858269199999768,0],[112.74651505400004,-7.2862922969999318,0],[112.74645542100006,-7.2863638219999416,0],[112.74620024500007,-7.2866698939999424,0],[112.74600648900002,-7.2868624169999521,0],[112.74596982500009,-7.286919078999972,0],[112.74580858800005,-7.287168261999966,0],[112.74562805800008,-7.2873568849999515,0],[112.74546616200007,-7.2875260379999531,0],[112.74524196700008,-7.2877888609999673,0],[112.74513102500009,-7.2879050149999784,0],[112.7450062050001,-7.2880356999999663,0],[112.74498954400008,-7.2880500839999627,0],[112.74478356200007,-7.2882279239999548,0],[112.74474902600002,-7.2882577409999385,0],[112.74449181200009,-7.2884711699999798,0],[112.74406774800002,-7.2888452869999583,0],[112.74390987300001,-7.2890008659999808,0],[112.74387842900001,-7.2890318529999263,0],[112.74382500900003,-7.2890844959999299,0],[112.74380641700009,-7.2891039529999375,0],[112.74352076300011,-7.2894028899999626,0],[112.74333905900005,-7.2896267929999681,0],[112.74319103000005,-7.2898225769999385,0],[112.74309964700001,-7.2899526069999752,0],[112.7430431890001,-7.2900329419999252,0],[112.74297081300006,-7.2901640709999356,0],[112.74296034200006,-7.2901774139999702,0],[112.74285366700008,-7.2903133429999798,0],[112.74265565700011,-7.2902236779999612,0],[112.74262437600009,-7.2902172199999313,0],[112.74249524400011,-7.2901905629999533,0],[112.74237516300002,-7.290179544999944,0],[112.74209647800001,-7.2901702049999813,0],[112.74176064900007,-7.2901890889999663,0],[112.7416462970001,-7.2901723049999418,0],[112.74155699000005,-7.2901252809999733,0],[112.7414162880001,-7.2899858739999672,0],[112.7412957250001,-7.2898664159999385,0],[112.74127103000001,-7.2898419479999461,0],[112.7412524990001,-7.2898235879999334,0],[112.74108314500006,-7.2897094099999435,0],[112.74104647100012,-7.2896916859999692,0],[112.74100630000009,-7.2896722759999761,0],[112.74098758700006,-7.2896632339999314,0],[112.74089159500011,-7.2896168459999444,0],[112.74070949500003,-7.289552237999942,0],[112.74067402300011,-7.2895407399999499,0],[112.74049099800004,-7.2894814159999441,0],[112.74039293300007,-7.2894496299999787,0],[112.7403611520001,-7.2894428969999581,0],[112.74020220600005,-7.2894092169999567,0],[112.74003743100002,-7.2893632009999578,0],[112.7398086820001,-7.2893174309999722,0],[112.73969440100007,-7.2892936489999443,0],[112.73969070600003,-7.2892928799999481,0],[112.73966984700007,-7.2892885389999265,0],[112.7394645170001,-7.2892664509999463,0],[112.73944142100004,-7.2892639669999539,0],[112.73936711700003,-7.2892559729999675,0],[112.73931628900004,-7.2892398039999762,0],[112.73928209000007,-7.2892289249999749,0],[112.73927572000002,-7.2892268989999707,0],[112.73925486100006,-7.2892234859999689,0],[112.73909918600009,-7.2891980129999752,0],[112.73907002300007,-7.289193240999964,0],[112.7390409300001,-7.2891904709999267,0],[112.7388744430001,-7.2891746159999684,0],[112.73872705400004,-7.2891644179999275,0],[112.73851315500008,-7.2891479619999586,0],[112.73812970200004,-7.2891561779999279,0],[112.73766264000005,-7.2891783689999556,0],[112.73749023000005,-7.2892068789999485,0],[112.73723674400003,-7.2892513209999379,0],[112.73683550800001,-7.2893435749999753,0],[112.73656147500003,-7.2894211829999449,0],[112.73626069800002,-7.2895131719999426,0],[112.73591374000011,-7.2896430369999621,0],[112.73583612700008,-7.289490758999932,0],[112.73559632900003,-7.2890202589999262,0],[112.73531135000007,-7.2884611079999786,0],[112.7349039720001,-7.2876617969999415,0],[112.73445860100003,-7.2867720789999453,0],[112.73428899400005,-7.2864285509999718,0],[112.73420823800006,-7.2862649839999563,0],[112.73353705900001,-7.2849215799999456,0],[112.73327592100009,-7.2843988989999389,0],[112.73322233400006,-7.2842901739999775,0],[112.73314199400011,-7.2841271699999766,0],[112.7329631990001,-7.2837644049999426,0],[112.73296131600011,-7.2837605229999554,0],[112.73270415100001,-7.2832302759999266,0],[112.73228751400006,-7.2823712099999511,0],[112.73213449900004,-7.2820531319999304,0],[112.73203687800003,-7.2818502059999446,0],[112.73201126800006,-7.2817969709999488,0],[112.73185367000008,-7.281476659999953,0],[112.73178985400011,-7.2813450779999584,0],[112.73177182400002,-7.2813079009999342,0],[112.73175450100007,-7.2812721839999313,0],[112.7317202270001,-7.2812015139999744,0],[112.7314057430001,-7.2808083229999738,0],[112.73127318800005,-7.2806425949999607,0],[112.73116224000012,-7.2805038779999336,0],[112.7310630070001,-7.280379810999932,0],[112.73087172300006,-7.2801406519999432,0],[112.73052877100008,-7.2797118699999714,0],[112.73002322200011,-7.2790797889999794,0],[112.72920307400011,-7.2780654629999617,0],[112.7288749280001,-7.2776596209999411,0],[112.72863028500001,-7.27741061699993,0],[112.72849593800004,-7.277250022999965,0],[112.72810787900005,-7.2767861489999746,0],[112.72798991400009,-7.276640011999973,0],[112.72795281000003,-7.2767205669999271,0],[112.72784984100008,-7.2770442959999286,0],[112.72784223600001,-7.27705879399997,0],[112.72774584000001,-7.2772425679999628,0],[112.72756426800004,-7.2776893489999566,0],[112.72756293000009,-7.2776926399999411,0],[112.72752213300009,-7.2778014899999448,0],[112.72751176400004,-7.2779091839999523,0],[112.72757090300001,-7.2781756259999497,0],[112.72764345000007,-7.2783689429999754,0],[112.72764731600012,-7.2783792449999396,0],[112.72768574300005,-7.278481640999928,0],[112.72770777500011,-7.2786053209999295,0],[112.72770819300001,-7.2787144099999637,0],[112.72767071800001,-7.2788760349999393,0],[112.72763677400008,-7.2790218569999752,0],[112.72760438700004,-7.2791985339999314,0],[112.72760244500012,-7.2792923669999254,0],[112.72760074900009,-7.2793743839999365,0],[112.72761237800012,-7.2794075429999339,0],[112.72763853700008,-7.2794821339999771,0],[112.72768904800012,-7.2795336149999343,0],[112.72778167100012,-7.2796167159999641,0],[112.72797694200005,-7.2797503379999284,0],[112.72813389700002,-7.2798346669999319,0],[112.72861400700003,-7.2800320549999356,0],[112.72884088500007,-7.280153913999925,0],[112.72896812400006,-7.2802448989999675,0],[112.72905647300001,-7.2803310799999394,0],[112.7291193850001,-7.280429880999975,0],[112.72920074100011,-7.2806166639999788,0],[112.72920902600004,-7.2807517849999499,0],[112.72918795200007,-7.2808367429999521,0],[112.72918354400008,-7.280854513999941,0],[112.72913779900011,-7.2809676949999584,0],[112.72913299100003,-7.280979585999944,0],[112.72908099500012,-7.2811032279999495,0],[112.72903399300003,-7.2812054669999497,0],[112.72902183100007,-7.2812319229999503,0],[112.72899829700009,-7.2812940669999762,0],[112.72897202100012,-7.2813634519999368,0],[112.72895341800006,-7.2814666379999267,0],[112.72893385400005,-7.2815221929999439,0],[112.72892206200004,-7.2815556749999359,0],[112.72893864600007,-7.2816571179999414,0],[112.72897864000004,-7.2817140589999667,0],[112.72899646200005,-7.281739431999938,0],[112.72907009300002,-7.2818361469999786,0],[112.72919385400007,-7.2819335709999677,0],[112.72924467000007,-7.2819925039999589,0],[112.7292566750001,-7.2820064259999526,0],[112.72926147900012,-7.2820119979999731,0],[112.72937928400006,-7.2822288749999302,0],[112.72945380400006,-7.2824555509999414,0],[112.72955242800003,-7.2826942719999579,0],[112.72956647500007,-7.2827190009999754,0],[112.72965421400011,-7.2828734559999475,0],[112.72978062900006,-7.2830498219999527,0],[112.72996621400011,-7.2832737559999714,0],[112.72998432300005,-7.2833031249999749,0],[112.73005987500005,-7.2834256499999697,0],[112.73010630700003,-7.2835392439999396,0],[112.73017358700008,-7.2837452019999773,0],[112.73022548000006,-7.2839669969999363,0],[112.73023807100003,-7.2840664829999469,0],[112.73023216900003,-7.2842143529999248,0],[112.73022324400006,-7.2842649519999441,0],[112.73018503800006,-7.2844815169999606,0],[112.73018504000004,-7.2844815879999487,0],[112.73019314900012,-7.2846799849999684,0],[112.73019412000008,-7.2847037389999514,0],[112.7301810030001,-7.2849286569999663,0],[112.73015225600011,-7.2851175219999504,0],[112.73011550500007,-7.2852513239999439,0],[112.73007924300009,-7.2853833489999715,0],[112.73000389800006,-7.2855631579999454,0],[112.72994338900003,-7.2856256309999594,0],[112.72989733600002,-7.285664618999931,0],[112.72987292400001,-7.2856852859999321,0],[112.72974925300002,-7.2857698999999343,0],[112.72972008400006,-7.2858174929999677,0],[112.72969757800001,-7.2858683569999698,0],[112.72969754200005,-7.2858685029999606,0],[112.72967398700007,-7.2859641389999297,0],[112.72967931900007,-7.2861052669999253,0],[112.72972483100011,-7.2863406449999388,0],[112.72974287500006,-7.2864339679999262,0],[112.729752856,-7.2865351139999461,0],[112.72976281400008,-7.2866360059999806,0],[112.72976281700005,-7.2866360429999304,0],[112.72973848000004,-7.2867219959999261,0],[112.72972466600004,-7.286765809999963,0],[112.729666769,-7.286893584999973,0],[112.72960033200002,-7.2870624979999548,0],[112.72956390800005,-7.2872480429999769,0],[112.72957170500001,-7.2874071019999747,0],[112.72959382400006,-7.2875517529999456,0],[112.7295938420001,-7.2875517909999417,0],[112.72968919900006,-7.2877439699999513,0],[112.72977723300005,-7.2878955459999588,0],[112.72985247500003,-7.2879921479999439,0],[112.73022064200006,-7.288466567999933,0],[112.73023596500002,-7.2884863139999538,0],[112.73037400900012,-7.2887105009999686,0],[112.73038781200012,-7.2887329149999687,0],[112.73041156600004,-7.288835694999932,0],[112.73040679300004,-7.2889244969999254,0],[112.73040430000003,-7.288970888999927,0],[112.73037382500002,-7.2891462429999478,0],[112.73030695000011,-7.289357023999969,0],[112.73029838000002,-7.2893759699999805,0],[112.73020479100001,-7.2895828909999523,0],[112.73012595700004,-7.2897840559999736,0],[112.73011700200004,-7.2898069089999353,0],[112.72995161100005,-7.2901247009999679,0],[112.72966785400001,-7.2903296759999421,0],[112.72956673400006,-7.290451591999954,0],[112.72940007200009,-7.290660025999955,0],[112.72930182700009,-7.2908478179999747,0],[112.72918142600008,-7.2911899029999745,0],[112.72901791600009,-7.2917866959999742,0],[112.72894543500001,-7.2918788379999455,0],[112.72878064400004,-7.2920795229999271,0],[112.7289088980001,-7.2921766769999294,0],[112.72866955100005,-7.2924683859999391,0],[112.72856209400004,-7.2924582649999365,0],[112.72495766400004,-7.2922026069999788,0],[112.72495224500005,-7.2922191399999292,0],[112.72493072800012,-7.292284775999974,0],[112.72493000000009,-7.2922869989999413,0],[112.72489732100007,-7.2926503209999396,0],[112.72484639100003,-7.292864867999981,0],[112.72483582100006,-7.2930330399999548,0],[112.72498229300004,-7.2932410929999492,0],[112.72497151900006,-7.2933437649999746,0],[112.72485037900003,-7.2935559479999483,0],[112.72477340800003,-7.2936864639999612,0],[112.72469125000009,-7.2938489779999713,0],[112.72459115900006,-7.2939900289999287,0],[112.72450364000008,-7.2940348599999538,0],[112.72425166500011,-7.2940561569999431,0],[112.72404637500006,-7.2940775149999695,0],[112.72376244700001,-7.2940762059999429,0],[112.7236858550001,-7.2940968319999797,0],[112.72360012000001,-7.2942116889999511,0],[112.72353115600004,-7.2944220939999695,0],[112.72349859600001,-7.294510278999951,0],[112.72348824800008,-7.2945279009999808,0],[112.72343607400001,-7.2946167339999306,0],[112.72338733300001,-7.2946743399999718,0],[112.72317715800011,-7.2948497809999253,0],[112.72300404800001,-7.2949012779999407,0],[112.72271909600011,-7.2949454279999486,0],[112.72248686400008,-7.2949917669999422,0],[112.72225606400002,-7.2949580779999792,0],[112.72212955900011,-7.2949585609999303,0],[112.72201041900007,-7.2950049479999279,0],[112.72185375000004,-7.2951442699999802,0],[112.7217050050001,-7.2952904159999434,0],[112.72164560700003,-7.2953379619999623,0],[112.72141135800007,-7.2954629379999574,0],[112.72119598600011,-7.2956387179999638,0],[112.72107570100002,-7.2957626209999376,0],[112.72099764000006,-7.295875237999951,0],[112.72093133900012,-7.2960022849999291,0],[112.72089022400007,-7.2961376389999373,0],[112.72086412900001,-7.2962683609999317,0],[112.72085793600002,-7.2964062679999415,0],[112.72083223000004,-7.2967719489999467,0],[112.72082035500011,-7.2971231289999423,0],[112.72082080200005,-7.2972398729999668,0],[112.72081310900001,-7.29748392099998,0],[112.72078509200003,-7.2976923159999387,0],[112.72075442300002,-7.2979018609999571,0],[112.72072814100011,-7.2981112749999397,0],[112.72073501700004,-7.2982205469999712,0],[112.72074865200011,-7.2983375109999429,0],[112.72099226700004,-7.2988032119999389,0],[112.7210485920001,-7.2989334389999385,0],[112.72106470800009,-7.2990335999999729,0],[112.72107218500003,-7.2992345279999427,0],[112.7210639220001,-7.29932929499995,0],[112.72103856100011,-7.2994142409999654,0],[112.72096212800011,-7.2997773059999531,0],[112.72090960200001,-7.3002643139999464,0],[112.72078769200004,-7.3009747829999583,0],[112.72070825700007,-7.3015057039999647,0],[112.72063247700009,-7.3020525819999307,0],[112.72040615600008,-7.3040502969999466,0],[112.72026942900004,-7.3051200919999815,0],[112.72016116900011,-7.305636902999936,0],[112.72015806200011,-7.3058263889999466,0],[112.720117716,-7.3062658219999435,0],[112.72009706100005,-7.3063578859999438,0],[112.7200271800001,-7.3064458669999794,0],[112.71997653100004,-7.3065003049999291,0],[112.71993752000003,-7.3068227899999556,0],[112.71994287500002,-7.3070587859999705,0],[112.71995670700005,-7.3076683599999797,0],[112.71996479500001,-7.3080248529999494,0],[112.72004288200003,-7.3080204059999687,0],[112.720366162,-7.3080086009999263,0],[112.72063116700008,-7.3079989249999358,0],[112.72069048800006,-7.30799639199995,0],[112.72076616800007,-7.3079931609999562,0],[112.72100969700011,-7.3079827739999814,0],[112.72253727900011,-7.3078884719999451,0],[112.72378604700009,-7.3073765279999634,0],[112.72389245700003,-7.3075070999999525,0],[112.72389541000007,-7.3075103759999251,0],[112.72397078100005,-7.3075939999999378,0],[112.72403360600003,-7.307617845999971,0],[112.72413437900002,-7.3076545409999767,0],[112.72478272100011,-7.3078870249999568,0],[112.72543481800005,-7.3081208559999595,0],[112.72563176100005,-7.3081718069999511,0],[112.72587547000001,-7.3082414789999461,0],[112.72601399500002,-7.3082810819999509,0],[112.72616446900008,-7.3083630689999382,0],[112.72628715500002,-7.3084354329999428,0],[112.72658379400002,-7.3086103989999742,0],[112.72678161400006,-7.308714714999951,0],[112.72704691100012,-7.3088546129999372,0],[112.72774945500009,-7.3092503349999447,0],[112.72793664100004,-7.3093344059999481,0],[112.72832127400011,-7.3095071589999634,0],[112.72874400800004,-7.3096658139999704,0],[112.72946916700005,-7.3099379699999645,0],[112.72946957500005,-7.3099381199999698,0],[112.72990157400011,-7.3100934889999394,0],[112.73043847300005,-7.3097276159999751,0],[112.73070479900002,-7.3096877159999281,0],[112.73096784800009,-7.3096843409999792,0],[112.73167205400011,-7.3098123139999416,0],[112.7319345520001,-7.309860017999938,0],[112.73208129600005,-7.3098866869999597,0],[112.73219671400011,-7.3099076609999543,0],[112.73249427600001,-7.3099749009999755,0],[112.73253752100004,-7.3099970109999504,0],[112.73275128200009,-7.3101063029999409,0],[112.73287648200005,-7.3101703159999261,0],[112.7328767030001,-7.3101704179999274,0],[112.73313224800006,-7.310203094999963,0],[112.73313265600007,-7.3102031459999353,0],[112.73414347700009,-7.3103755819999492,0],[112.73517428100001,-7.3105665209999415,0],[112.73511147900001,-7.3108608959999515,0],[112.73504358800005,-7.3111791259999563,0],[112.73543675900009,-7.3112668239999721,0],[112.73563670300007,-7.3113114209999708,0],[112.73695831300006,-7.3116082329999585,0],[112.73711096000011,-7.3116425129999811,0],[112.7384058770001,-7.3119333269999629,0],[112.73893469200004,-7.3120515359999558,0],[112.7389995740001,-7.3120660389999443,0],[112.73902254300003,-7.3120711739999251,0],[112.73902451300012,-7.3120577709999566,0],[112.7390302660001,-7.3120186239999612,0],[112.73907699100005,-7.3117007259999696,0],[112.73920047400009,-7.3110122259999457,0],[112.7392015370001,-7.3110062979999384,0],[112.73990247100005,-7.3110424969999599,0],[112.74060986500001,-7.3110790269999484,0],[112.74068532800004,-7.3107249359999287,0],[112.74068870000008,-7.3107091119999268,0],[112.74069091400008,-7.3106985469999586,0],[112.74074715100005,-7.3104301529999702,0],[112.74115979500004,-7.308460795999963,0],[112.74127409500011,-7.3085254259999601,0],[112.74136818900001,-7.3080865619999713,0],[112.74147661400002,-7.3075808479999296,0],[112.74155963200008,-7.3071157619999667,0],[112.74163771100007,-7.3066814639999507,0],[112.74178004700002,-7.3058897489999595,0],[112.74208597100005,-7.3058877949999328,0],[112.74425557000006,-7.3059031149999782,0],[112.74437309000007,-7.3059039449999545,0],[112.74535079900011,-7.3059272529999362,0],[112.7456617790001,-7.3059256639999717,0],[112.74570194900002,-7.3059254589999796,0],[112.74573601000009,-7.3059252839999544,0],[112.74573651600008,-7.3059252819999756,0],[112.74599598600003,-7.3059246159999702,0],[112.74619368600008,-7.3059241089999318,0],[112.74683821500003,-7.3059224529999369,0],[112.74717174700004,-7.3059245109999438,0],[112.74797466000007,-7.3059189279999259,0],[112.74811766500011,-7.3059175569999297,0],[112.74870720800004,-7.3059119029999806,0],[112.74871450400008,-7.3057856809999748,0],[112.74895592400003,-7.3057919209999795,0],[112.74896390400011,-7.3058415299999524,0],[112.74906855400002,-7.3058449849999647,0],[112.74941253800012,-7.3058375479999427,0],[112.74972096200008,-7.3058417039999313,0],[112.75036747200011,-7.3058504149999521,0],[112.75068089400008,-7.3058880739999381,0],[112.75068672900011,-7.3058485779999387,0],[112.75082040100006,-7.3058725799999706,0],[112.75083099000005,-7.3058234959999595,0],[112.75112234800008,-7.3058863589999419,0],[112.75113302200009,-7.305858806999936,0],[112.75117916700003,-7.305864010999926,0],[112.75149085900011,-7.3059190199999762,0],[112.75149966300012,-7.3058723359999362,0],[112.75159799100004,-7.3058964749999404,0],[112.75176591200011,-7.3059478549999426,0],[112.75195945100006,-7.3059644479999406,0],[112.7521544010001,-7.3059968829999775,0],[112.75217839400011,-7.3058821989999387,0],[112.75239703500006,-7.305914841999936,0],[112.75240164100001,-7.3058669779999263,0],[112.75257447100012,-7.3058721209999362,0],[112.75263408000001,-7.3058589699999743,0],[112.7526335230001,-7.3058388769999283,0],[112.75270300000011,-7.3058374109999704,0],[112.75270366900008,-7.3059321289999275,0],[112.75285264500008,-7.3059638459999405,0],[112.75287329300011,-7.3058058739999296,0],[112.7530427050001,-7.305830733999926,0],[112.75306967600011,-7.3056811109999558,0],[112.75341934200003,-7.3057658739999738,0],[112.75343899800009,-7.3055839829999627,0],[112.75396942600003,-7.305665051999938,0],[112.75423842400005,-7.3057082649999643,0],[112.75425257600011,-7.3056507949999627,0],[112.75539655400007,-7.3058275959999719,0],[112.7553832430001,-7.3058961399999589,0],[112.75550026300004,-7.3059215339999355,0],[112.75549182600002,-7.3059694109999782,0],[112.75574378600004,-7.3060174819999588,0],[112.75584573600008,-7.306036932999973,0],[112.75585230200011,-7.3060005439999713,0],[112.75624551100009,-7.3060688679999544,0],[112.75625490000004,-7.3060190719999696,0],[112.75636407800005,-7.3059985519999486,0],[112.75636479600007,-7.3059373059999757,0],[112.75662131100012,-7.3059895319999555,0],[112.7567911110001,-7.3057965909999325,0],[112.75723205600002,-7.3058624949999285,0],[112.75723739300008,-7.3058302969999431,0],[112.75727933000007,-7.3058319279999751,0],[112.75728341900003,-7.30580559699996,0],[112.75779688300008,-7.305837447999977,0],[112.75807858600001,-7.3057902979999767,0],[112.75826300800009,-7.3058035739999809,0],[112.75848065700006,-7.3058276059999798,0],[112.75880105800002,-7.3059038659999374,0],[112.75906904100009,-7.3059711179999454,0],[112.75915025800009,-7.3059914979999689,0],[112.76000078400011,-7.3062065959999813,0],[112.76007522000009,-7.3056958489999602,0],[112.75716607100003,-7.3049229219999461,0],[112.75430770900005,-7.3041136999999594,0],[112.75443751400007,-7.303665452999951,0],[112.75490276800008,-7.3019596129999513,0],[112.75520050200009,-7.3008690219999721,0],[112.7553791150001,-7.3001611659999526,0],[112.75584402300001,-7.2984710149999614,0],[112.75584499100012,-7.2984674979999795,0],[112.75629736100007,-7.2967325679999249,0],[112.75701507200006,-7.2940366489999633,0],[112.75710371600007,-7.2936546379999641,0],[112.75702380200005,-7.2936534169999732,0],[112.75680500800001,-7.2936502019999807,0],[112.75674337900011,-7.2936492959999555,0],[112.75628351700004,-7.2936425369999256,0],[112.75578428900008,-7.2936351989999366,0],[112.75573162500007,-7.2936344249999365,0],[112.75536974300007,-7.2936291049999795,0],[112.75512875800007,-7.2936219409999694,0],[112.75494274100004,-7.2936164099999701,0],[112.7546149210001,-7.2936011769999709,0],[112.75445146800007,-7.2935809849999487,0],[112.75438270900008,-7.2935724939999318,0],[112.75427548700009,-7.2935592489999408,0],[112.75419233500008,-7.2935489769999435,0],[112.75417553600005,-7.2935469019999459,0],[112.75400501700005,-7.2935152099999527,0],[112.75328288900005,-7.2933809929999711,0],[112.75304600400011,-7.2933307119999427,0],[112.75267928400001,-7.2932528729999717,0],[112.7524184450001,-7.2931975079999347,0],[112.75214432500002,-7.2931289549999292,0],[112.75195098200004,-7.2930701459999341,0],[112.75179260700008,-7.2930118049999351,0],[112.75170627800003,-7.2929800039999577,0],[112.75153499700002,-7.2929169079999383,0],[112.75137487800009,-7.2928577099999643,0],[112.75135830200009,-7.2928515829999583,0],[112.7503785020001,-7.2924893399999746,0],[112.7502648630001,-7.2924483249999525,0],[112.75020143600011,-7.2924254339999379,0],[112.75006465200011,-7.2923746079999319,0],[112.74970188300006,-7.2922398119999343,0],[112.74904793400003,-7.2919750559999557,0],[112.74868345400012,-7.2918274919999249,0],[112.74859544100002,-7.291793648999942,0],[112.74826462200008,-7.2916664369999467,0],[112.7482235870001,-7.2916487099999472,0],[112.74801702100001,-7.2915594719999604,0],[112.74791061500002,-7.2915093159999742,0],[112.74776367100003,-7.2914187899999661,0],[112.74746366600004,-7.2912339689999612,0],[112.74725574500007,-7.2911058749999711,0],[112.74735670700011,-7.2907988429999477,0],[112.74740642300003,-7.2906476569999654,0],[112.74745664800002,-7.2904949219999367,0],[112.74755846900007,-7.2901227649999782,0]]]},"properties":{"OBJECTID":4076,"NAMOBJ":"Wonokromo","FCODE":"BA03070040","REMARK":null,"METADATA":"TASWIL1000020260612KECAMATAN_AR","SRS_ID":"4326","KDBBPS":null,"KDCBPS":null,"KDCPUM":"35.78.04","KDEBPS":null,"KDEPUM":null,"KDPBPS":null,"KDPKAB":"35.78","KDPPUM":"35","LUASWH":8.2758913296071768,"TIPADM":3,"WADMKC":"Wonokromo","WADMKD":null,"WADMKK":"Kota Surabaya","WADMPR":"Jawa Timur","WIADKC":null,"WIADKK":null,"WIADPR":null,"WIADKD":null,"UUPP":null,"SHAPE_Length":0.17585596961253619,"SHAPE_Area":0.00067768523311613461}}]}