{"type":"FeatureCollection","features":[{"type":"Feature","id":2938,"geometry":{"type":"Polygon","coordinates":[[[110.37698080300004,-7.5123458989999676,0],[110.37692334300004,-7.5122811999999612,0],[110.37686589600008,-7.5122069269999656,0],[110.37681322800006,-7.5121446289999767,0],[110.37675573900009,-7.5120990749999805,0],[110.37666704500003,-7.5120750179999618,0],[110.37655672100004,-7.5120844339999735,0],[110.37650395000009,-7.5120939319999707,0],[110.37643916200005,-7.5121225589999767,0],[110.37633833800004,-7.5121966069999644,0],[110.37622546500006,-7.5123113209999701,0],[110.37613426700005,-7.5123614479999787,0],[110.37605749300008,-7.5123876649999488,0],[110.37597832600005,-7.5124090909999381,0],[110.37582963000006,-7.5124208449999514,0],[110.37575529000009,-7.5124207389999356,0],[110.37566416400006,-7.5124206099999356,0],[110.37560181100008,-7.5124229159999345,0],[110.37554905100006,-7.5124252329999308,0],[110.37545068900005,-7.5124538119999329,0],[110.37540269400006,-7.5124776759999463,0],[110.37536189600007,-7.5124991579999687,0],[110.37532108500005,-7.5125302109999552,0],[110.37519619800008,-7.5126616609999815,0],[110.37505210600006,-7.5128074419999393,0],[110.37486495200005,-7.5128813649999415,0],[110.37483377400008,-7.5128837139999405,0],[110.37465391900008,-7.5128834589999656,0],[110.37459637600006,-7.5128761969999687,0],[110.37453881300007,-7.5128832939999484,0],[110.37446686800007,-7.5128855849999354,0],[110.37433733100005,-7.5129141189999586,0],[110.37416465400008,-7.5129258389999336,0],[110.37412147600008,-7.5129353509999532,0],[110.37404471400004,-7.5129519939999341,0],[110.37397514700007,-7.5129686479999691,0],[110.37394661300004,-7.5129867109999395,0],[110.37392234000004,-7.5130020769999533,0],[110.37387189300006,-7.5130642289999514,0],[110.37385262900006,-7.5131192449999276,0],[110.37379960400006,-7.5133058409999762,0],[110.37377786500008,-7.5134158989999378,0],[110.37375850500007,-7.5135379249999801,0],[110.37372097800005,-7.5137310839999714,0],[110.37371131800006,-7.513778934999948,0],[110.37361045600005,-7.5138793069999679,0],[110.37349044300004,-7.513955717999977,0],[110.37342804500008,-7.5139891349999743,0],[110.37332732600004,-7.5139889909999624,0],[110.37327453400007,-7.5140128469999468,0],[110.37312062000007,-7.5143189609999581,0],[110.37296183100005,-7.5144886069999757,0],[110.37283267700008,-7.5146679139999719,0],[110.37272402000008,-7.5148773079999387,0],[110.37265818100008,-7.5151104119999559,0],[110.37265435100005,-7.5156907619999629,0],[110.37264793200006,-7.5159869149999281,0],[110.37251857100006,-7.5163098149999428,0],[110.37237439000006,-7.5165160239999409,0],[110.37200825800005,-7.5168116609999629,0],[110.37166320400007,-7.5170415149999599,0],[110.37125525500005,-7.5172323879999681,0],[110.37097934700006,-7.517321739999943,0],[110.37069747800007,-7.5173871489999442,0],[110.37040963100009,-7.5174405829999387,0],[110.37020573000007,-7.517485163999936,0],[110.37002282100008,-7.5175237909999737,0],[110.36988792800008,-7.5175235979999684,0],[110.36942215100004,-7.517986973999939,0],[110.36901428900006,-7.5183952619999559,0],[110.36783022900005,-7.5188262609999583,0],[110.36623196500005,-7.5184921339999278,0],[110.36557254400009,-7.518455281999934,0],[110.36533513600006,-7.5184537419999629,0],[110.36497890600003,-7.5185322019999603,0],[110.36469823100003,-7.5186000039999499,0],[110.36448222100006,-7.5187253339999529,0],[110.36420872500008,-7.5188039139999319,0],[110.36401073600007,-7.5189041429999293,0],[110.36384165000004,-7.5189182569999389,0],[110.36352861100005,-7.5189788299999805,0],[110.36284132500003,-7.519139374999952,0],[110.36205290000004,-7.5192973949999669,0],[110.36156012400005,-7.5195646999999326,0],[110.36100600700007,-7.5196715889999268,0],[110.36047706700003,-7.5197821029999545,0],[110.36010641600006,-7.519882076999977,0],[110.35965665700007,-7.5199603979999665,0],[110.35921779200004,-7.5199705259999519,0],[110.35893353500006,-7.5200275479999732,0],[110.35847997500008,-7.5202458649999357,0],[110.35780329200009,-7.5205320599999368,0],[110.35749536300006,-7.520681632999981,0],[110.35733172900007,-7.520761117999939,0],[110.35669103100008,-7.5210365949999414,0],[110.35624470000005,-7.5212297899999498,0],[110.35540245000004,-7.5215803559999586,0],[110.35496692600009,-7.5217627959999618,0],[110.35431873000005,-7.5222428779999291,0],[110.35319902800006,-7.5229089349999754,0],[110.35281128100007,-7.5232146939999325,0],[110.35275108700006,-7.5233773439999254,0],[110.35275802500007,-7.5235496649999618,0],[110.35280064600005,-7.5239182829999436,0],[110.35260363200007,-7.5241668859999322,0],[110.35248568100008,-7.5244658629999321,0],[110.35232064000007,-7.5248103409999771,0],[110.35218123800007,-7.5250207389999559,0],[110.35190280500007,-7.5251902449999761,0],[110.35160996400003,-7.525371694999933,0],[110.35124873500007,-7.5255009939999695,0],[110.35092245000004,-7.5255962369999452,0],[110.35063445600008,-7.5257441899999549,0],[110.35047360300007,-7.5258636119999665,0],[110.35035591600007,-7.5259830989999728,0],[110.35023086300004,-7.5262198409999428,0],[110.35014420600004,-7.5264374959999714,0],[110.35003597100007,-7.5266527239999732,0],[110.34979107700008,-7.5268438169999285,0],[110.34966819800007,-7.5272289419999652,0],[110.34968704500005,-7.5274563259999354,0],[110.34968923300005,-7.5275975269999549,0],[110.34962409400003,-7.5278582909999727,0],[110.34956372300007,-7.5281382069999268,0],[110.34941217200009,-7.5284538859999657,0],[110.34925124300008,-7.5286235659999647,0],[110.34890781400009,-7.5289557109999805,0],[110.34847793700004,-7.529364310999938,0],[110.34831231900006,-7.5294621859999324,0],[110.34819823700008,-7.5295295739999801,0],[110.34807476500004,-7.5296836169999324,0],[110.34773879100004,-7.5298410699999749,0],[110.34739839300005,-7.5298285729999748,0],[110.34733112900005,-7.529826102999948,0],[110.34653025200004,-7.5297578989999465,0],[110.34588752200006,-7.5297760849999804,0],[110.34548171800009,-7.5299257129999546,0],[110.34450043800007,-7.5304153919999521,0],[110.34400140900004,-7.5305582379999692,0],[110.34302732500004,-7.5308487499999615,0],[110.34261945400004,-7.530972583999926,0],[110.34225443200006,-7.5313070849999804,0],[110.34200889700008,-7.5319193789999304,0],[110.34184547500007,-7.5321488799999656,0],[110.34164365700008,-7.5323974699999781,0],[110.34088995800005,-7.532846258999939,0],[110.34063513900009,-7.5332527209999398,0],[110.34030852000006,-7.5335633459999372,0],[110.34005325100009,-7.5342665629999601,0],[110.33984182200004,-7.5345247109999605,0],[110.33964491900008,-7.5346919379999804,0],[110.33875294900008,-7.5345948639999278,0],[110.33858018800004,-7.5346568259999458,0],[110.33827736600006,-7.5350871459999667,0],[110.33788402300007,-7.5351152709999383,0],[110.33743870400008,-7.5355899999999565,0],[110.33698202200009,-7.5360953979999294,0],[110.33687973600007,-7.5363345619999791,0],[110.33667572800005,-7.5364419489999364,0],[110.33556660300007,-7.536422315999971,0],[110.33494284200009,-7.5365769269999419,0],[110.33448072900006,-7.5368813579999596,0],[110.33421650900004,-7.5371561749999501,0],[110.33340583900008,-7.5381685359999437,0],[110.33291440100004,-7.5382235159999595,0],[110.33261696900007,-7.5382613539999284,0],[110.33242900600004,-7.53839206899994,0],[110.33220810300008,-7.538568828999928,0],[110.33184822900006,-7.5386640069999657,0],[110.33138764000006,-7.5387542449999501,0],[110.33097960400005,-7.538978583999949,0],[110.33063430300007,-7.5389541229999395,0],[110.33045314300006,-7.5387443479999661,0],[110.32970985200006,-7.5388162779999561,0],[110.32908597600004,-7.5390426759999514,0],[110.32843787700006,-7.5394245929999784,0],[110.32765752800009,-7.5400336609999385,0],[110.32714184500009,-7.5400807319999785,0],[110.32646990900008,-7.5403668819999439,0],[110.32579815900004,-7.5405333709999809,0],[110.32531792900005,-7.5409155429999259,0],[110.32417812200003,-7.5413445599999704,0],[110.32241403900008,-7.5422512449999317,0],[110.32154998300007,-7.5427046119999659,0],[110.32120177800005,-7.5430032219999816,0],[110.32039739300006,-7.5436361689999671,0],[110.32007333700005,-7.5438271209999357,0],[110.31934158700005,-7.5440174379999689,0],[110.31808219400006,-7.5442308639999283,0],[110.31767487500008,-7.5439909089999446,0],[110.31703940900007,-7.5439540189999548,0],[110.31573259800007,-7.5438203499999759,0],[110.31479752700005,-7.5436752959999467,0],[110.31405509000007,-7.5439645059999521,0],[110.31281311400005,-7.5446881899999312,0],[110.31188896600008,-7.5452192229999469,0],[110.31104288000006,-7.5456725959999744,0],[110.31013083200008,-7.5461318469999696,0],[110.30904494000004,-7.5465728729999455,0],[110.30839179000009,-7.5463444859999527,0],[110.30716405700008,-7.5468570219999265,0],[110.30714238500008,-7.5469120299999304,0],[110.30713029900005,-7.5469718419999481,0],[110.30714216100006,-7.5470532279999816,0],[110.30715640100004,-7.5471465849999504,0],[110.30712604800004,-7.5472319739999421,0],[110.30709436800004,-7.5472462829999358,0],[110.30706079100008,-7.5472481439999797,0],[110.30703393000005,-7.5472481029999585,0],[110.30701482300009,-7.5472473559999571,0],[110.30701327200006,-7.547248068999977,0],[110.30699458700008,-7.5472566549999556,0],[110.30699260800009,-7.5472939849999534,0],[110.30699063300005,-7.5473294009999563,0],[110.30698868500008,-7.5473485439999308,0],[110.30698097700008,-7.5473695909999492,0],[110.30696750100009,-7.5473982879999539,0],[110.30696074800005,-7.5474222099999793,0],[110.30694667900008,-7.5474594229999639,0],[110.30692145500007,-7.5474857069999643,0],[110.30691422900009,-7.5475060369999483,0],[110.30691900500005,-7.547519207999926,0],[110.30695496500005,-7.5475264439999705,0],[110.30701970900009,-7.5475313329999381,0],[110.30704008700008,-7.5475361509999743,0],[110.30704964800009,-7.5475565089999463,0],[110.30705320900006,-7.5475792489999662,0],[110.30706277300004,-7.5475972129999604,0],[110.30707355500004,-7.5476032139999347,0],[110.30709032800007,-7.5476128139999332,0],[110.30708790300008,-7.5476295629999299,0],[110.30707588900009,-7.5476439019999475,0],[110.30705428800007,-7.5476534399999764,0],[110.30702428900008,-7.547667750999949,0],[110.30700147800007,-7.547685663999971,0],[110.30696347100007,-7.547726498999964,0],[110.30693750700004,-7.5477666619999582,0],[110.30693744500007,-7.5478054319999615,0],[110.30695034000007,-7.547839913999951,0],[110.30698336700004,-7.547883044999935,0],[110.30700489900005,-7.5479146679999758,0],[110.30702066500004,-7.547954898999933,0],[110.30703486400006,-7.54807410199993,0],[110.30704487700007,-7.5481114529999331,0],[110.30710671700007,-7.5481330879999291,0],[110.30716276900006,-7.5481748199999288,0],[110.30718574900004,-7.5482021379999651,0],[110.30720441300008,-7.5482280149999497,0],[110.30721735000009,-7.5482366499999785,0],[110.30726914200005,-7.5482424759999276,0],[110.30730798800005,-7.5482454089999464,0],[110.30732811500008,-7.5482569279999439,0],[110.30733095600004,-7.5482799069999373,0],[110.30731795300005,-7.5483129119999717,0],[110.30730063900006,-7.5483430399999634,0],[110.30727581100007,-7.5483710599999654,0],[110.30722591900008,-7.5484273699999562,0],[110.30719565600003,-7.5484560399999623,0],[110.30713230700007,-7.548478915999965,0],[110.30707036900009,-7.5485190229999262,0],[110.30700611900005,-7.5486552569999503,0],[110.30693887800004,-7.5487125869999545,0],[110.30685722000004,-7.5487866459999395,0],[110.30681640700004,-7.5488141049999626,0],[110.30677801700006,-7.5488248119999639,0],[110.30675044300006,-7.5488211789999582,0],[110.30673127000006,-7.5488139699999692,0],[110.30668571500007,-7.548806716999934,0],[110.30665693600008,-7.5488066719999551,0],[110.30662694600005,-7.5488149989999442,0],[110.30659693700005,-7.5488340969999399,0],[110.30656811800009,-7.5488591799999654,0],[110.30653808600005,-7.5488938329999655,0],[110.30644678500005,-7.5489989889999265,0],[110.30641075400007,-7.5490348309999717,0],[110.30637831700005,-7.5490730689999737,0],[110.30633146600007,-7.5491268409999748,0],[110.30630860300005,-7.5491770619999556,0],[110.30627014600009,-7.549230846999933,0],[110.30623290300008,-7.5492750619999356,0],[110.30618726200004,-7.5493216579999398,0],[110.30614280100008,-7.5493802209999785,0],[110.30610915500006,-7.5494244399999388,0],[110.30605993500006,-7.5494602599999325,0],[110.30598735800004,-7.5494791699999269,0],[110.30590133600003,-7.5494749569999726,0],[110.30577540700006,-7.5494882799999345,0],[110.30562466000003,-7.5495322019999662,0],[110.30557090100007,-7.5495570069999758,0],[110.30551322800005,-7.5496296669999765,0],[110.30548819200004,-7.5496889789999386,0],[110.30547847600008,-7.549765544999957,0],[110.30543233300006,-7.5498267379999788,0],[110.30536124700006,-7.5498878909999689,0],[110.30529696900004,-7.5499468529999376,0],[110.30522735500006,-7.5499874269999623,0],[110.30516015900008,-7.550016037999967,0],[110.30510256300005,-7.55003987799995,0],[110.30505697800004,-7.5500517719999607,0],[110.30500418600008,-7.5500708329999497,0],[110.30492964200005,-7.5501951599999302,0],[110.30478296000007,-7.5504390319999288,0],[110.30474412200005,-7.5507309389999477,0],[110.30476802400005,-7.5507812339999418,0],[110.30484696300005,-7.5509081979999451,0],[110.30489722900006,-7.550968108999939,0],[110.30494846000005,-7.5510256269999445,0],[110.30496139800005,-7.5510342619999733,0],[110.30499160200009,-7.5510414909999781,0],[110.30500330100006,-7.5510442029999467,0],[110.30501030300007,-7.551045826999939,0],[110.30503187800008,-7.551051604999941,0],[110.30505347600007,-7.5510430239999664,0],[110.30513991100008,-7.5509814189999815,0],[110.30515085900004,-7.5509715039999605,0],[110.30520250600006,-7.5510107139999718,0],[110.30521397200005,-7.551039449999962,0],[110.30523114100004,-7.5511007439999389,0],[110.30520613700008,-7.5511399509999251,0],[110.30516962400009,-7.5511772269999256,0],[110.30513696900005,-7.5512020649999272,0],[110.30506208000008,-7.5512421509999399,0],[110.30503421500003,-7.551269867999963,0],[110.30499768900006,-7.5513157599999658,0],[110.30498997400008,-7.5513406369999529,0],[110.30496635600008,-7.5514128719999576,0],[110.30489705500008,-7.5515582679999511,0],[110.30483349700006,-7.551711331999968,0],[110.30487755400009,-7.5517554349999614,0],[110.30491974100005,-7.5517689049999603,0],[110.30496383000008,-7.5517938639999329,0],[110.30500601300008,-7.5518092469999374,0],[110.30505203200005,-7.5518265509999765,0],[110.30507886500004,-7.5518438249999349,0],[110.30510570100006,-7.5518591839999658,0],[110.30513251300005,-7.5518898589999708,0],[110.30509411000008,-7.5519089439999334,0],[110.30502501900008,-7.5519222359999389,0],[110.30497129800005,-7.5519221519999746,0],[110.30494633500007,-7.5519355119999432,0],[110.30486563800008,-7.5520081379999624,0],[110.30483682000005,-7.552032980999968,0],[110.30479647100009,-7.5520692919999419,0],[110.30475993800007,-7.5521190129999809,0],[110.30474835300004,-7.5521649439999692,0],[110.30472329900005,-7.5522357429999261,0],[110.30472131300007,-7.5522778579999681,0],[110.30472122700007,-7.5523314659999414,0],[110.30473078000006,-7.5523563699999272,0],[110.30473072400008,-7.5523908319999578,0],[110.30471724700004,-7.5524214439999469,0],[110.30469036400007,-7.5524348019999366,0],[110.30465965500008,-7.552442411999948,0],[110.30462701600004,-7.5524557629999549,0],[110.30461588800006,-7.5525165319999701,0],[110.30471668000007,-7.5524750499999413,0],[110.30487656200006,-7.5523762269999679,0],[110.30497879100005,-7.5523361839999552,0],[110.30504933200007,-7.5523161929999674,0],[110.30514718200004,-7.5523149139999646,0],[110.30521049500004,-7.5523150129999408,0],[110.30525365700004,-7.5523193899999796,0],[110.30529393300009,-7.5523280709999767,0],[110.30540039900006,-7.552338289999966,0],[110.30553389300007,-7.5523365159999685,0],[110.30562775700008,-7.5523357799999644,0],[110.30567669500005,-7.552327241999933,0],[110.30574002500003,-7.5523158549999607,0],[110.30579617100005,-7.5523001499999509,0],[110.30593483600006,-7.5522709339999778,0],[110.30600776700004,-7.5522557339999707,0],[110.30604997900008,-7.5522538859999599,0],[110.30607682400006,-7.5522635009999703,0],[110.30610554800006,-7.5522980079999797,0],[110.30612839400004,-7.5524090899999692,0],[110.30615314900007,-7.5525259159999791,0],[110.30615101700005,-7.5526599309999369,0],[110.30614507500007,-7.5527767089999429,0],[110.30615462800006,-7.552801613999975,0],[110.30618135100008,-7.5528878109999482,0],[110.30616578000007,-7.5530275479999318,0],[110.30613682300009,-7.5531385459999569,0],[110.30610982200005,-7.5532265719999714,0],[110.30607519600005,-7.5532839549999267,0],[110.30604056300007,-7.5533451639999498,0],[110.30597425500008,-7.5534183699999744,0],[110.30597421900006,-7.5534411049999335,0],[110.30598259700008,-7.5534506919999558,0],[110.30599217100007,-7.5534626729999559,0],[110.30600175800004,-7.5534662789999629,0],[110.30602814100007,-7.5534651229999668,0],[110.30605093600008,-7.5534579799999619,0],[110.30606293200009,-7.5534544089999258,0],[110.30608931000006,-7.5534568439999816,0],[110.30610608600006,-7.5534640499999455,0],[110.30612885000005,-7.5534760519999509,0],[110.30614200800005,-7.5534964149999269,0],[110.30617550500006,-7.5535455289999618,0],[110.30617786500005,-7.5535694649999527,0],[110.30617663000004,-7.5535921969999436,0],[110.30617177200008,-7.5536304809999706,0],[110.30615193100004,-7.5536652719999324,0],[110.30614037400005,-7.5536939699999266,0],[110.30613840400008,-7.5537265149999371,0],[110.30614603200007,-7.5537552449999339,0],[110.30615752800009,-7.5537648359999707,0],[110.30617863900005,-7.5537610399999267,0],[110.30620168700005,-7.5537457609999592,0],[110.30623243200006,-7.5537151759999688,0],[110.30625742000007,-7.5536864979999336,0],[110.30629774700009,-7.55366358699996,0],[110.30632460800007,-7.55366362999996,0],[110.30634763100005,-7.5536636669999666,0],[110.30636298000007,-7.5536636919999296,0],[110.30639555900007,-7.5536867169999482,0],[110.30642044900009,-7.5537193049999587,0],[110.30645492600007,-7.5537557349999815,0],[110.30652006700006,-7.5538132749999249,0],[110.30659288800007,-7.5538669989999789,0],[110.30662350300008,-7.5539187399999719,0],[110.30663868700009,-7.5540221499999802,0],[110.30663282700004,-7.5540872349999404,0],[110.30662120000005,-7.5541599709999332,0],[110.30660960900008,-7.5542097289999788,0],[110.30658069900005,-7.554292008999937,0],[110.30657295100008,-7.554337946999965,0],[110.30657670900007,-7.554387730999963,0],[110.30659392400008,-7.5544203059999404,0],[110.30662460900004,-7.5544280119999598,0],[110.30666293000007,-7.5544606199999293,0],[110.30672810700008,-7.5544951849999507,0],[110.30679714600006,-7.5545144409999807,0],[110.30689878400005,-7.5545452349999778,0],[110.30694672200008,-7.5545625419999283,0],[110.30699080900007,-7.5545874999999683,0],[110.30703871400004,-7.5546258679999596,0],[110.30713256100006,-7.5547294029999534,0],[110.30718041600005,-7.5547984019999603,0],[110.30723973300007,-7.5548980529999312,0],[110.30734142800009,-7.55506067999994,0],[110.30727539200007,-7.5550945149999507,0],[110.30714925300003,-7.5551595419999558,0],[110.30677119900008,-7.5553134549999754,0],[110.30660842800006,-7.5554062869999257,0],[110.30644037900004,-7.5555137139999715,0],[110.30630356400007,-7.5555852919999325,0],[110.30622674300008,-7.5556330339999249,0],[110.30616910500004,-7.5556831989999296,0],[110.30611625500006,-7.5557381589999295,0],[110.30607302900006,-7.5557739879999417,0],[110.30602257400005,-7.5558313449999446,0],[110.30592405000004,-7.5559532399999512,0],[110.30585669300007,-7.5560823639999626,0],[110.30582300700007,-7.5561517149999418,0],[110.30577498400004,-7.5561875349999355,0],[110.30573898400007,-7.5562042299999348,0],[110.30563821000004,-7.5562327879999316,0],[110.30555661600005,-7.5562661629999752,0],[110.30549180200006,-7.5563043509999375,0],[110.30532376000008,-7.5564069909999603,0],[110.30517728900008,-7.556516844999976,0],[110.30513885600004,-7.5565550739999594,0],[110.30505954400007,-7.5566602479999574,0],[110.30498265500006,-7.5567510659999471,0],[110.30493222700005,-7.5567916699999387,0],[110.30488420800003,-7.5568250979999334,0],[110.30483139700004,-7.5568561269999464,0],[110.30477861900005,-7.5568656139999462,0],[110.30469466900007,-7.556872660999943,0],[110.30464429300008,-7.556879758999969,0],[110.30459150800004,-7.5568940339999813,0],[110.30454829800004,-7.5569202909999262,0],[110.30453385500005,-7.5569537719999289,0],[110.30451291300005,-7.5570518599999446,0],[110.30449125100006,-7.5570996899999727,0],[110.30448637900008,-7.5571475459999533,0],[110.30448388500008,-7.5572073709999472,0],[110.30447416900006,-7.557283937999955,0],[110.30443805300007,-7.5573724269999616,0],[110.30440436900005,-7.557439383999963,0],[110.30438269000007,-7.5574991799999793,0],[110.30435861500007,-7.5575565769999571,0],[110.30435373500006,-7.557609217999925,0],[110.30437606200007,-7.5577447089999623,0],[110.30439463700009,-7.5578265849999298,0],[110.30439096100008,-7.5578753999999435,0],[110.30439093200005,-7.5578940669999497,0],[110.30438082300009,-7.5579170259999273,0],[110.30436351100008,-7.5579442809999478,0],[110.30435412900005,-7.5579622139999287,0],[110.30435049800008,-7.5579830289999563,0],[110.30435047300006,-7.5579988239999807,0],[110.30435260700006,-7.5580146219999733,0],[110.30435690600007,-7.5580253989999733,0],[110.30436552500004,-7.5580347469999651,0],[110.30437989700005,-7.558045538999977,0],[110.30439138900005,-7.5580577609999295,0],[110.30440216100004,-7.5580707019999522,0],[110.30441012700004,-7.5580945569999471,0],[110.30440865600008,-7.5581146579999654,0],[110.30439853600006,-7.5581433589999278,0],[110.30438844100007,-7.55815770199996,0],[110.30436176500007,-7.5581924089999575,0],[110.30436172700007,-7.5582161019999603,0],[110.30436240400007,-7.558242666999945,0],[110.30435949300005,-7.5582634839999514,0],[110.30435226800006,-7.5582821389999708,0],[110.30434360900006,-7.5582979199999727,0],[110.30432343700005,-7.5583144009999614,0],[110.30430467800005,-7.558347395999931,0],[110.30427434700005,-7.558417707999979,0],[110.30426854100006,-7.5584492889999524,0],[110.30425839900005,-7.5584923499999377,0],[110.30424682400007,-7.5585311009999714,0],[110.30423957700003,-7.5585641149999674,0],[110.30421345000008,-7.5586303659999317,0],[110.30419038100007,-7.5586590459999456,0],[110.30416156500007,-7.5586819749999563,0],[110.30412125700008,-7.5586914839999508,0],[110.30407134600006,-7.5587086349999595,0],[110.30402528100007,-7.558720047999941,0],[110.30397777200005,-7.5587348109999652,0],[110.30393455200004,-7.5587663319999479,0],[110.30388556600008,-7.558805022999934,0],[110.30385529000006,-7.5588408739999409,0],[110.30382069000007,-7.5588810229999694,0],[110.30380914400007,-7.558902542999931,0],[110.30379761100005,-7.5589154479999365,0],[110.30378173000008,-7.5589484499999458,0],[110.30377158800007,-7.5589915099999416,0],[110.30377009100005,-7.5590274059999274,0],[110.30378155500006,-7.5590575779999654,0],[110.30379447800004,-7.5590748299999291,0],[110.30381744400006,-7.5591107629999783,0],[110.30383029400008,-7.5591725279999764,0],[110.30383743800007,-7.5592055669999354,0],[110.30383451200004,-7.5592357159999324,0],[110.30382726600004,-7.5592672939999375,0],[110.30382291000006,-7.5592916979999814,0],[110.30381134600009,-7.5593247049999377,0],[110.30379977900009,-7.5593591479999418,0],[110.30378965500006,-7.559390723999968,0],[110.30378817000008,-7.5594194379999635,0],[110.30379100700009,-7.5594452889999388,0],[110.30381275900004,-7.5594904349999297,0],[110.30384612400007,-7.5596221149999678,0],[110.30372013600004,-7.5596697769999537,0],[110.30359181200004,-7.5596803409999325,0],[110.30356658400007,-7.5597090189999676,0],[110.30352819100005,-7.5597592149999286,0],[110.30342981200005,-7.5597901689999389,0],[110.30338419900005,-7.5598188149999714,0],[110.30333857800008,-7.5598522469999807,0],[110.30327615300007,-7.5598952229999554,0],[110.30317780500008,-7.5599070329999449,0],[110.30301472600007,-7.5599043789999314,0],[110.30282768200004,-7.5598897209999336,0],[110.30270633800006,-7.5598842629999581,0],[110.30262958700007,-7.559887969999977,0],[110.30253171300006,-7.559903128999963,0],[110.30247988900004,-7.5599164479999672,0],[110.30239733800005,-7.5599469489999365,0],[110.30234740800006,-7.5599755869999399,0],[110.30228210300004,-7.5600195169999438,0],[110.30220143000008,-7.5600768249999533,0],[110.30213807500007,-7.5601016119999258,0],[110.30203824500006,-7.5601397449999581,0],[110.30195382300008,-7.5601415239999596,0],[110.30183100300007,-7.5601585579999551,0],[110.30178491600009,-7.5601833729999726,0],[110.30171960600006,-7.5602311319999558,0],[110.30156714200007,-7.5603083639999795,0],[110.30146365200005,-7.56023640199993,0],[110.30142862600007,-7.5602430479999612,0],[110.30131346300004,-7.5602715819999275,0],[110.30123905900007,-7.5603073589999781,0],[110.30112383700003,-7.5603717909999659,0],[110.30101339300006,-7.5604481959999816,0],[110.30093174700005,-7.5605126819999668,0],[110.30082364400005,-7.5606249879999723,0],[110.30074675600008,-7.5607134129999736,0],[110.30068905100006,-7.5608042609999302,0],[110.30061981400007,-7.5609075359999451,0],[110.30051175300008,-7.5609935169999289,0],[110.30043609700004,-7.5610616019999384,0],[110.30024524200007,-7.5611797579999802,0],[110.30015162700005,-7.5612298639999267,0],[110.30000031000009,-7.5613696229999618,0],[110.29990661500005,-7.5614699859999632,0],[110.29981646500005,-7.5616026629999737,0],[110.29973336000006,-7.5618286859999557,0],[110.29971526300005,-7.5618968629999586,0],[110.29966116200006,-7.5619829299999424,0],[110.29958914500008,-7.5620258939999303,0],[110.29934450300004,-7.5621840479999491,0],[110.29925444000008,-7.5622628789999453,0],[110.29916435900009,-7.5623524779999798,0],[110.29889723400004,-7.5629192329999455,0],[110.29873492500008,-7.5631810249999489,0],[110.29860871900007,-7.5633639009999456,0],[110.29834545400007,-7.5636997939999446,0],[110.29857184100007,-7.5636992199999327,0],[110.29865527300007,-7.5637175439999282,0],[110.29870131600006,-7.5637204889999339,0],[110.29872818300004,-7.5637167019999652,0],[110.29876370300008,-7.5637014429999567,0],[110.29880115800006,-7.5636756579999656,0],[110.29884053900008,-7.5636450879999302,0],[110.29887902700005,-7.5635733539999705,0],[110.29896327400007,-7.5636807049999675,0],[110.29904945600003,-7.5637784849999434,0],[110.29914329000007,-7.5638896789999421,0],[110.29918728600006,-7.563972074999981,0],[110.29923512300007,-7.564052563999951,0],[110.29927917100008,-7.5641024119999543,0],[110.29939800300008,-7.5641791849999436,0],[110.29954174300008,-7.5642770569999698,0],[110.29950135000007,-7.5643401719999588,0],[110.29959331500004,-7.5644207319999737,0],[110.29963742600006,-7.564432290999946,0],[110.29965850900004,-7.564445725999974,0],[110.29966038200007,-7.5644744459999629,0],[110.29959563700004,-7.5645527189999484,0],[110.29956560000005,-7.5645885689999659,0],[110.29948454500004,-7.5646572429999424,0],[110.29937350300008,-7.5647318499999301,0],[110.29926907500004,-7.5647951019999482,0],[110.29925224900006,-7.5648190079999722,0],[110.29922822000009,-7.5648476869999399,0],[110.29917052800005,-7.5649289619999536,0],[110.29912491400006,-7.5649576069999398,0],[110.29909130700008,-7.5649766989999421,0],[110.29898331400005,-7.5650196019999498,0],[110.29890174300004,-7.5650362239999254,0],[110.29879139500008,-7.5650527989999432,0],[110.29864747400006,-7.565066925999929,0],[110.29858268100008,-7.5650907539999253,0],[110.29844587300005,-7.5651551499999528,0],[110.29841227300005,-7.565169454999932,0],[110.29832348600007,-7.5652004229999648,0],[110.29825638000005,-7.56517159699996,0],[110.29819401600008,-7.5651762839999606,0],[110.29810762300008,-7.56520964799995,0],[110.29807643300006,-7.5652167779999786,0],[110.29805962200004,-7.5652311099999565,0],[110.29803557300005,-7.5652717559999587,0],[110.29799468100003,-7.565345878999949,0],[110.29796101700003,-7.5654008679999265,0],[110.29792492900003,-7.5654702129999691,0],[110.29789845900007,-7.5655252119999545,0],[110.29784559600006,-7.5655873499999302,0],[110.29781432200008,-7.5656471289999558,0],[110.29775664900006,-7.5657164379999813,0],[110.29770138800006,-7.5657785719999424,0],[110.29767735100006,-7.5658120379999332,0],[110.29762933200004,-7.565844267999978,0],[110.29761484900007,-7.5659016809999571,0],[110.29760756700006,-7.5659555159999741,0],[110.29753908100008,-7.5661250739999559,0],[110.29750157900008,-7.5661795769999571,0],[110.29748856900005,-7.566215452999927,0],[110.29749283800004,-7.5662456139999676,0],[110.29751290000007,-7.5662973389999593,0],[110.29754302200007,-7.5663576959999546,0],[110.29759045500003,-7.5663907979999294,0],[110.29763645600008,-7.5664195909999421,0],[110.29767000700008,-7.5664504069999339,0],[110.29772269100005,-7.566484346999971,0],[110.29775137200005,-7.5665454169999293,0],[110.29777284600004,-7.5666136579999375,0],[110.29782672100004,-7.5666675919999307,0],[110.29785968300007,-7.56670674399993,0],[110.29790422000008,-7.5667513279999525,0],[110.29796552200008,-7.5668098209999357,0],[110.29801043300006,-7.566844592999928,0],[110.29804689400004,-7.56684082299995,0],[110.29811602800004,-7.5668026449999388,0],[110.29815829100005,-7.5667701649999799,0],[110.29818901400006,-7.5667548989999318,0],[110.29821588400006,-7.5667491969999787,0],[110.29827535700008,-7.566753121999966,0],[110.29834249100008,-7.5667647169999555,0],[110.29847731300003,-7.5667620319999287,0],[110.29851950500006,-7.5667735879999327,0],[110.29855976500005,-7.5667927979999376,0],[110.29858658900008,-7.5668158159999734,0],[110.29861148200007,-7.5668464889999427,0],[110.29863062900006,-7.5668714079999404,0],[110.29863828100008,-7.5668848219999632,0],[110.29864398800004,-7.5669154649999655,0],[110.29864204200004,-7.5669326919999662,0],[110.29863626100007,-7.5669479989999786,0],[110.29863622100004,-7.5669728879999525,0],[110.29865538200005,-7.5669882349999398,0],[110.29868221300006,-7.5670074249999288,0],[110.29872244100005,-7.5670467379999309,0],[110.29873822100006,-7.5670769159999622,0],[110.29875111000007,-7.5671157079999603,0],[110.29875249500009,-7.567148733999943,0],[110.29874524500008,-7.5671831849999762,0],[110.29870338100005,-7.5672649639999463,0],[110.29865862000008,-7.5673596619999444,0],[110.29861099400006,-7.5674457419999612,0],[110.29855764300004,-7.5675131419999389,0],[110.29853164700006,-7.5675705359999483,0],[110.29853399300004,-7.567602848999968,0],[110.29854044100006,-7.5676200899999344,0],[110.29854905200006,-7.5676344629999335,0],[110.29856629400007,-7.5676502859999459,0],[110.29858426600003,-7.5676603649999379,0],[110.29859504400008,-7.567668997999931,0],[110.29860568700008,-7.5676874429999543,0],[110.29860263100005,-7.5677233359999718,0],[110.29859954600005,-7.5677771769999254,0],[110.29861747500007,-7.5678131039999812,0],[110.29863542400005,-7.5678370649999351,0],[110.29865340600008,-7.5678400849999434,0],[110.29866536000009,-7.5678640359999463,0],[110.29867131600008,-7.5678879779999306,0],[110.29867123500009,-7.5679388329999711,0],[110.29867417400004,-7.5679747349999502,0],[110.29868907300005,-7.5680315989999372,0],[110.29870699200006,-7.5680735069999514,0],[110.29873388600004,-7.5681273969999552,0],[110.29878479300004,-7.5681633769999621,0],[110.29883275900005,-7.568163454999933,0],[110.29887773200005,-7.5681605339999578,0],[110.29889573400004,-7.5681515879999779,0],[110.29896172700006,-7.5681277629999499,0],[110.29900369800004,-7.5681278309999698,0],[110.29912963300006,-7.5681130759999746,0],[110.29920759400005,-7.5681042269999352,0],[110.29924356900005,-7.5681042849999471,0],[110.29930052300006,-7.568107366999925,0],[110.29934248900008,-7.5681104259999756,0],[110.29949333700006,-7.5681151959999511,0],[110.29953831500006,-7.5681092849999345,0],[110.29962477000004,-7.5680376299999352,0],[110.29965721100007,-7.5679981929999371,0],[110.29971845600005,-7.5679444449999664,0],[110.29981204800004,-7.5679086969999503,0],[110.29988399800004,-7.5679088129999741,0],[110.29991997300004,-7.5679088709999291,0],[110.30001344300007,-7.5679485089999616,0],[110.30007095100007,-7.5679809079999814,0],[110.30011405200008,-7.5680240559999561,0],[110.30015706600005,-7.5681210479999663,0],[110.30015699000006,-7.5681677159999481,0],[110.30015681700007,-7.5682754079999768,0],[110.30012421900005,-7.5684117669999296,0],[110.30006288800007,-7.5685193619999609,0],[110.30001595800007,-7.5686197999999649,0],[110.30000143000007,-7.5687059319999435,0],[110.30001208300007,-7.5687921029999643,0],[110.30001718500006,-7.5689741739999477,0],[110.30001830900005,-7.5690208419999294,0],[110.30001823800006,-7.5690651169999796,0],[110.30001819100005,-7.5690938349999328,0],[110.30001577900003,-7.5691034029999287,0],[110.30000375600008,-7.569121331999952,0],[110.29996773700009,-7.5691499919999501,0],[110.29990293500003,-7.5691786069999694,0],[110.29983092700007,-7.569214388999967,0],[110.29978771100008,-7.5692430379999678,0],[110.29974924700008,-7.5692992159999335,0],[110.29974918400006,-7.5693375059999539,0],[110.29975870200008,-7.5693853849999755,0],[110.29977778800009,-7.5694476379999287,0],[110.29981601800006,-7.5695362479999631,0],[110.29981596000005,-7.5695721459999277,0],[110.29981110200004,-7.5696104289999653,0],[110.29978942800005,-7.5696654369999692,0],[110.29976534000008,-7.5697300139999584,0],[110.29973157800003,-7.5698448319999443,0],[110.29971462400005,-7.5699477119999301,0],[110.29969775500007,-7.5699979419999295,0],[110.29966648400006,-7.5700553289999561,0],[110.29964002900005,-7.5701007559999312,0],[110.29961116400005,-7.5701533589999599,0],[110.29960870000008,-7.570194039999933,0],[110.29962301900008,-7.5702371399999606,0],[110.29965649700006,-7.5702994169999442,0],[110.29971744300008,-7.5704049549999581,0],[110.29974379300006,-7.5704253389999394,0],[110.29977253000004,-7.5704517099999293,0],[110.29980486100004,-7.5704804799999579,0],[110.29982999200007,-7.5705128279999485,0],[110.29985033800006,-7.5705367929999738,0],[110.29988384800004,-7.5705787269999405,0],[110.29991374600007,-7.5706290319999425,0],[110.29995567200007,-7.5706566219999445,0],[110.30000237700006,-7.5706701289999501,0],[110.29995514500007,-7.5707234369999696,0],[110.29979658300005,-7.5709024019999447,0],[110.29978759300008,-7.570912547999967,0],[110.29975842100004,-7.5709454739999273,0],[110.29958444100004,-7.5711355879999473,0],[110.29950333800008,-7.5712242139999262,0],[110.29903559400009,-7.5717237789999672,0],[110.29898510100008,-7.5717766329999563,0],[110.29893769500006,-7.5718262539999728,0],[110.29889466200007,-7.5718712979999623,0],[110.29883863800006,-7.5719299409999508,0],[110.29881025600008,-7.5719596499999398,0],[110.29875142800006,-7.5720212259999471,0],[110.29869839800006,-7.5720767349999392,0],[110.29863984300005,-7.5721380269999372,0],[110.29863681300009,-7.5721409539999627,0],[110.29862717900005,-7.5721502579999651,0],[110.29862444500009,-7.5721528989999456,0],[110.29861357000004,-7.5721634029999336,0],[110.29868949800004,-7.572373167999956,0],[110.29870386800008,-7.5723861139999258,0],[110.29871392400008,-7.5723961819999772,0],[110.29875112000008,-7.5725312169999484,0],[110.29877971000008,-7.572649007999928,0],[110.29884136500004,-7.5727869549999696,0],[110.29886999600006,-7.5728788999999779,0],[110.29887929800009,-7.5729112209999698,0],[110.29889223800006,-7.5729177029999732,0],[110.29891669200003,-7.5729234859999792,0],[110.29893395600004,-7.5729263859999492,0],[110.29895122000005,-7.5729285679999521,0],[110.29897135900006,-7.5729329079999275,0],[110.29898429500008,-7.5729429799999366,0],[110.29899362900005,-7.5729544829999327,0],[110.29900007900005,-7.5729702889999544,0],[110.29900150100008,-7.5729810589999715,0],[110.29900148300004,-7.5729925459999663,0],[110.29900145700009,-7.5730083429999695,0],[110.29899638900008,-7.5730277179999348,0],[110.29899491500004,-7.573049254999944,0],[110.29899486900007,-7.573077972999954,0],[110.29899770300005,-7.5731052589999308,0],[110.29899838500006,-7.5731282359999454,0],[110.29901205700008,-7.5731670589999567,0],[110.29903023800006,-7.5731958059999442,0],[110.29904838600004,-7.5732446569999752,0],[110.29906551700009,-7.5733298819999391,0],[110.29907984600004,-7.5733672379999462,0],[110.29909036200007,-7.5733902289999264,0],[110.29911428100007,-7.5734304739999629,0],[110.29914395400004,-7.5734716829999797,0],[110.29916786500007,-7.5735167139999362,0],[110.29917451700004,-7.5735559729999409,0],[110.29917444800009,-7.5735990509999738,0],[110.29918967800006,-7.5736727839999389,0],[110.29922982600004,-7.573761875999935,0],[110.29935448600008,-7.5738260199999559,0],[110.29946472700004,-7.5738903769999411,0],[110.29960158100005,-7.5737986989999513,0],[110.29966610900004,-7.5737389809999627,0],[110.29971653500007,-7.5737007699999594,0],[110.29982222200005,-7.5736028209999517,0],[110.29990388900006,-7.5735263689999783,0],[110.30005432000007,-7.5733447289999276,0],[110.30012642400004,-7.5732500749999758,0],[110.30018124700007,-7.5731625729999337,0],[110.30029947100007,-7.5730234789999713,0],[110.30038010000004,-7.5729963259999522,0],[110.30044629400004,-7.5729964319999681,0],[110.30049951200004,-7.5730123129999356,0],[110.30053258100008,-7.5730295969999588,0],[110.30062749100006,-7.5730699549999372,0],[110.30068789000006,-7.5730944629999613,0],[110.30072095300005,-7.5731160539999678,0],[110.30076689900005,-7.5731793079999647,0],[110.30080276500007,-7.5732468539999331,0],[110.30083291100004,-7.5732928509999624,0],[110.30086037700005,-7.5733639719999815,0],[110.30113888000005,-7.5736283869999284,0],[110.30107335600007,-7.573808248999967,0],[110.30152752900005,-7.5741535959999737,0],[110.30149854700005,-7.5741968089999432,0],[110.30139017100004,-7.5743755969999711,0],[110.30135427800008,-7.5744413399999644,0],[110.30132565100007,-7.5744937759999402,0],[110.30130132900007,-7.5745543179999686,0],[110.30126115000007,-7.5746543309999765,0],[110.30120599700007,-7.574708133999934,0],[110.30113725100006,-7.5748284119999312,0],[110.30108055300008,-7.5749257119999811,0],[110.30103726300007,-7.5750000009999781,0],[110.30105030700008,-7.5750909629999796,0],[110.30105240800009,-7.5752752419999752,0],[110.30104991800005,-7.5753326749999701,0],[110.30106419600008,-7.5754020999999625,0],[110.30118200600003,-7.5755941009999788,0],[110.30127481700004,-7.5756720289999748,0],[110.30137659500008,-7.5757679189999294,0],[110.30155024500004,-7.5759117889999743,0],[110.30175089500005,-7.5760437359999742,0],[110.30195758600007,-7.5761487689999285,0],[110.30201450400006,-7.5761757839999291,0],[110.30206651100008,-7.5762028219999706,0],[110.30206219200005,-7.5762888529999373,0],[110.30205344200004,-7.5763606339999683,0],[110.30207349300008,-7.5764202559999489,0],[110.30210460500007,-7.5764713969999775,0],[110.30223874700005,-7.5765749969999661,0],[110.30226745300007,-7.5766209919999596,0],[110.30228278800007,-7.5766305909999687,0],[110.30231925400005,-7.5766229899999757,0],[110.30234229800004,-7.5766115399999308,0],[110.30236153500005,-7.5765809379999496,0],[110.30239998500008,-7.5765331359999664,0],[110.30244220300006,-7.5765293749999501,0],[110.30248630500006,-7.5765466769999534,0],[110.30248821500004,-7.5765524229999528,0],[110.30251120800006,-7.5765716049999696,0],[110.30259172300003,-7.5766157679999537,0],[110.30262625900008,-7.5766158249999762,0],[110.30267570000007,-7.5765941249999287,0],[110.30271527000008,-7.5765965829999686,0],[110.30272845300004,-7.5766013899999507,0],[110.30275241900006,-7.5766121979999639,0],[110.30277759000006,-7.5766206129999318,0],[110.30280876900008,-7.5766194659999542,0],[110.30283036700007,-7.5766123229999494,0],[110.30286155100003,-7.576608781999937,0],[110.30290109700007,-7.5766255969999747,0],[110.30298221200007,-7.5767067959999395,0],[110.30313763600009,-7.5770002099999374,0],[110.30334129200008,-7.5774079749999714,0],[110.30357093600009,-7.57778167999993,0],[110.30361392700007,-7.5778942269999447,0],[110.30368575900007,-7.5779685309999536,0],[110.30377435300005,-7.5780596139999261,0],[110.30383418200006,-7.5781410779999305,0],[110.30388680400006,-7.5782297099999596,0],[110.30393936100006,-7.5783590259999301,0],[110.30400249700006,-7.5785462739999616,0],[110.30403545900003,-7.5786310449999519,0],[110.30407272000008,-7.5787273099999766,0],[110.30417267400009,-7.5789127029999577,0],[110.30419761100006,-7.5789165709999793,0],[110.30422448300004,-7.5789099139999507,0],[110.30424562200005,-7.5788898449999351,0],[110.30427393100007,-7.5788851039999372,0],[110.30434577900007,-7.5789498339999568,0],[110.30436727200004,-7.5790073049999478,0],[110.30436237100008,-7.5790719139999396,0],[110.30430704700007,-7.5791723389999675,0],[110.30429020500009,-7.579205816999945,0],[110.30429493700007,-7.5792465079999261,0],[110.30435247000008,-7.5792633519999413,0],[110.30446283800006,-7.5792372039999805,0],[110.30453003200006,-7.5792133799999419,0],[110.30460926000006,-7.5791632489999756,0],[110.30472470500007,-7.5790370729999381,0],[110.30480098700008,-7.5790285799999424,0],[110.30486001700007,-7.5790100069999653,0],[110.30490742700005,-7.5790589039999645,0],[110.30494766700008,-7.5790919939999526,0],[110.30498429500005,-7.5791329759999257,0],[110.30505910200009,-7.5791488899999422,0],[110.30521019900004,-7.5791491309999515,0],[110.30525912500008,-7.5791506459999596,0],[110.30532244400007,-7.5791493099999343,0],[110.30538869500003,-7.5791149539999765,0],[110.30542906100004,-7.5790690699999459,0],[110.30549098600005,-7.5790404499999795,0],[110.30553129600008,-7.5790290279999795,0],[110.30560040300008,-7.5790090339999665,0],[110.30569403100009,-7.5789517469999623,0],[110.30575159600005,-7.5789504029999648,0],[110.30584657200006,-7.578950554999949,0],[110.30591471800005,-7.5789306799999281,0],[110.30603346100008,-7.5789165109999317,0],[110.30611500400005,-7.578917836999949,0],[110.30619777400005,-7.5789024129999802,0],[110.30628533000004,-7.5788929799999778,0],[110.30633213300007,-7.578871516999925,0],[110.30645685200005,-7.5788693209999565,0],[110.30650245400005,-7.5788490529999422,0],[110.30659907900008,-7.5788173779999397,0],[110.30667859800008,-7.5788854709999782,0],[110.30671121400007,-7.5788864799999374,0],[110.30671522400007,-7.5787792709999735,0],[110.30668656600005,-7.5787026429999287,0],[110.30665985600007,-7.5786068729999556,0],[110.30669069700008,-7.5785188529999346,0],[110.30669085000005,-7.5784231259999615,0],[110.30663720700005,-7.5782225719999587,0],[110.30648274900005,-7.5780727519999687,0],[110.30660517900009,-7.5780035439999551,0],[110.30664383800007,-7.5779656879999493,0],[110.30676402500006,-7.5777983579999386,0],[110.30730143100004,-7.5784818679999262,0],[110.30722530600008,-7.5789552089999574,0],[110.30737817400006,-7.5789734009999279,0],[110.30744095000006,-7.5790871769999626,0],[110.30751289100004,-7.5791206049999573,0],[110.30764785400004,-7.5790605829999436,0],[110.30785483300008,-7.5789861249999717,0],[110.30802579500005,-7.5789385329999277,0],[110.30828035500008,-7.5788447859999337,0],[110.30824936300007,-7.5785705859999553,0],[110.30829784400004,-7.5782490179999513,0],[110.30834794200007,-7.5781357089999801,0],[110.30841528000008,-7.5780209439999453,0],[110.30843692700006,-7.5779826869999738,0],[110.30853532100008,-7.5779445519999626,0],[110.30863370100008,-7.5779159909999407,0],[110.30873449000006,-7.5778802519999431,0],[110.30885686100004,-7.577846941999951,0],[110.30900598800008,-7.5778180399999542,0],[110.30930959700004,-7.5777244189999351,0],[110.30935355500009,-7.577704138999934,0],[110.30940639100004,-7.5776587519999339,0],[110.30949046800004,-7.5775751239999636,0],[110.30958415800006,-7.5774795459999496,0],[110.30964182600007,-7.5774126269999442,0],[110.30968276200008,-7.5773097859999439,0],[110.30972154800008,-7.5770513819999792,0],[110.30972405500006,-7.5769819839999286,0],[110.30973624700005,-7.576857557999972,0],[110.30976037900007,-7.5767642619999265,0],[110.30979232700008,-7.5766863859999489,0],[110.31004073800005,-7.5762995109999451,0],[110.31018716400007,-7.575962628999946,0],[110.31021190300004,-7.5759076759999289,0],[110.31031713600004,-7.5757768249999344,0],[110.31047794500006,-7.5755938159999801,0],[110.31055799900008,-7.5755180009999776,0],[110.31068485900005,-7.5753867519999289,0],[110.31074545800004,-7.5753418229999738,0],[110.31081150800009,-7.5752820979999456,0],[110.31085361500004,-7.5752495329999761,0],[110.31092433300006,-7.5752188569999248,0],[110.31097593500004,-7.5751956049999762,0],[110.31108151300003,-7.5751646609999739,0],[110.31115790800004,-7.5751597179999521,0],[110.31115820500008,-7.5751596989999257,0],[110.31115824600005,-7.5751597019999508,0],[110.31127738800006,-7.5751388889999589,0],[110.31144712000008,-7.5751090909999448,0],[110.31158626400008,-7.5750853799999618,0],[110.31173199800008,-7.575007171999971,0],[110.31214362000009,-7.5746134079999479,0],[110.31238958400007,-7.5744141639999611,0],[110.31271958000008,-7.5742189789999657,0],[110.31307618200009,-7.5739952419999668,0],[110.31324788200004,-7.5738579039999649,0],[110.31341854900006,-7.5736164609999719,0],[110.31364118200008,-7.5734426459999327,0],[110.31377762400007,-7.5732879629999275,0],[110.31381497800004,-7.5731743449999271,0],[110.31391954000009,-7.5730273289999559,0],[110.31414572200003,-7.5728840329999798,0],[110.31437675800004,-7.5727617469999586,0],[110.31454488400004,-7.572609444999955,0],[110.31465308400004,-7.5724361079999767,0],[110.31489640400008,-7.5721283679999374,0],[110.31503165100008,-7.5719131929999435,0],[110.31530475200009,-7.571731141999976,0],[110.31557782400006,-7.5715670389999445,0],[110.31567684900006,-7.5714888799999471,0],[110.31577497400008,-7.5713167229999385,0],[110.31586924200008,-7.5711756109999442,0],[110.31601630100005,-7.5710741319999784,0],[110.31632371600006,-7.5710131709999473,0],[110.31674724100009,-7.5709797239999261,0],[110.31679519400006,-7.570969894999962,0],[110.31692188500006,-7.5709439269999734,0],[110.31724441100005,-7.5709366439999712,0],[110.31744955000005,-7.5709268039999529,0],[110.31765349400007,-7.5708732769999756,0],[110.31792957200008,-7.5707031949999646,0],[110.31805278800005,-7.5705119319999312,0],[110.31838644700008,-7.5699470619999261,0],[110.31856359200009,-7.5697768239999732,0],[110.31869873400007,-7.5696274619999713,0],[110.31890866900005,-7.5695769339999401,0],[110.31922021400004,-7.5697299869999597,0],[110.31936698700008,-7.5698909389999471,0],[110.31951361200004,-7.5699847219999583,0],[110.31972042600006,-7.5700119679999602,0],[110.31989432600005,-7.5700002739999377,0],[110.32011020900006,-7.5699796699999524,0],[110.32044021600007,-7.5698306109999294,0],[110.32067184000005,-7.5696613999999727,0],[110.32090484500009,-7.5695165579999752,0],[110.32118738800006,-7.5693920259999459,0],[110.32141300000006,-7.5693419999999492,0],[110.32162514600009,-7.5693538169999783,0],[110.32183500100007,-7.5693541439999308,0],[110.32197890600008,-7.5693513759999291,0],[110.32208992300008,-7.5692917189999775,0],[110.32219811400006,-7.5691213729999731,0],[110.32227823000005,-7.5689092939999796,0],[110.32239084800005,-7.5687466449999761,0],[110.32243871000009,-7.5686341339999785,0],[110.32251078100006,-7.5685564659999613,0],[110.32262180700008,-7.5684908269999482,0],[110.32280169700005,-7.5684821309999393,0],[110.32310659200004,-7.5684649679999438,0],[110.32331097600007,-7.5684365669999352,0],[110.32355735800007,-7.5683440619999374,0],[110.32374816800007,-7.5682729989999302,0],[110.32396432400009,-7.5680770929999426,0],[110.32408801900004,-7.567864027999974,0],[110.32430885600007,-7.5674212809999517,0],[110.32440401100007,-7.5673361259999297,0],[110.32450285200008,-7.5672805379999772,0],[110.32461612500003,-7.5672347639999771,0],[110.32475433700006,-7.5671909439999467,0],[110.32491751600008,-7.567131844999949,0],[110.32504810400007,-7.5670554659999425,0],[110.32528062600005,-7.5668222489999266,0],[110.32534595900006,-7.5667591699999548,0],[110.32544225300006,-7.5666803439999626,0],[110.32549231200005,-7.5665693769999507,0],[110.32557453500004,-7.5663807219999626,0],[110.32564220600005,-7.5662618439999392,0],[110.32572096500007,-7.5662006999999676,0],[110.32584576500005,-7.5661453709999478,0],[110.32597566400005,-7.566145133999953,0],[110.32611307800005,-7.5661518079999723,0],[110.32648425400004,-7.5662069469999551,0],[110.32660223800008,-7.5662164629999324,0],[110.32685098500008,-7.5662483939999561,0],[110.32693726900004,-7.5662849039999287,0],[110.32703312200005,-7.5663367449999441,0],[110.32715777300007,-7.5663771429999542,0],[110.32726136600007,-7.5663868759999673,0],[110.32740146100008,-7.5663660329999516,0],[110.32750705200004,-7.5663240739999651,0],[110.32765112700008,-7.5662113379999596,0],[110.32780487200006,-7.566048837999972,0],[110.32787025500005,-7.5659532109999645,0],[110.32796641200008,-7.5658078519999776,0],[110.32808367000007,-7.5656663569999409,0],[110.32824696900008,-7.5655287589999602,0],[110.32832577400006,-7.5654388969999786,0],[110.32844675900009,-7.5653682439999557,0],[110.32857669500004,-7.5653431189999765,0],[110.32867624500005,-7.5653313049999724,0],[110.32873864400005,-7.5653026829999703,0],[110.32887095900008,-7.5652540249999447,0],[110.32897452900005,-7.565279071999953,0],[110.32903912400008,-7.5653239669999266,0],[110.32910046200004,-7.5653613959999575,0],[110.32917191100006,-7.5653753849999816,0],[110.32925257200009,-7.5653847999999471,0],[110.32933889200007,-7.5653964209999458,0],[110.32940027500007,-7.5654060879999747,0],[110.32943093000006,-7.5654348539999319,0],[110.32948457900005,-7.565482799999927,0],[110.32954018700008,-7.5655039459999784,0],[110.32961502100005,-7.5655002319999767,0],[110.32966876400008,-7.5654869119999262,0],[110.32977825800003,-7.5654028399999333,0],[110.32984548700006,-7.5653531649999763,0],[110.32997989700004,-7.5652863609999486,0],[110.33006243800008,-7.5652615999999284,0],[110.33014494000008,-7.5652617259999602,0],[110.33021975000008,-7.5652733289999787,0],[110.33038658600009,-7.5653291059999788,0],[110.33049012500004,-7.5653752149999605,0],[110.33059369900008,-7.5653964339999789,0],[110.33067049000005,-7.5653678349999609,0],[110.33077417400006,-7.5653182149999338,0],[110.33084332000004,-7.5652704559999506,0],[110.33094515400006,-7.56517680099995,0],[110.33105079700005,-7.5651003789999436,0],[110.33113723500009,-7.5650373309999281,0],[110.33123325600008,-7.5649800419999451,0],[110.33132764800007,-7.5649397949999297,0],[110.33145529700005,-7.5649026579999372,0],[110.33158868700008,-7.5648751019999736,0],[110.33170572300008,-7.5648762369999645,0],[110.33181888800004,-7.5648993849999329,0],[110.33197199700004,-7.5649428829999579,0],[110.33208705000004,-7.5649870929999565,0],[110.33221747700009,-7.5650140969999597,0],[110.33236514900005,-7.5650564439999357,0],[110.33242072200005,-7.5651005629999304,0],[110.33248204600005,-7.5651485219999586,0],[110.33254151300008,-7.5651562699999317,0],[110.33271615800004,-7.5651259049999453,0],[110.33277759900005,-7.5650972809999644,0],[110.33283714500004,-7.565053336999938,0],[110.33287940000008,-7.5650246829999332,0],[110.33298499600005,-7.5649788949999675,0],[110.33306940400007,-7.5649866829999723,0],[110.33317292700008,-7.565042362999975,0],[110.33322652000004,-7.5651266859999282,0],[110.33328783300004,-7.5651823009999362,0],[110.33337027100004,-7.5652245479999465,0],[110.33345846600008,-7.5652648879999447,0],[110.33350257000006,-7.5652821869999798,0],[110.33356392800005,-7.5653071699999259,0],[110.33363292900009,-7.5653532249999671,0],[110.33369430600004,-7.5653667209999753,0],[110.33378064900006,-7.5653649379999592,0],[110.33393608900008,-7.5653460299999438,0],[110.33408768700008,-7.5653309449999711,0],[110.33421050200008,-7.565317729999947,0],[110.33434483500008,-7.5653007039999807,0],[110.33443765700008,-7.5652698939999254,0],[110.33444917800006,-7.5652641679999419,0],[110.33454718000007,-7.565245172999937,0],[110.33471209600003,-7.5652244839999412,0],[110.33481998900004,-7.5652455879999252,0],[110.33485288300005,-7.5652994849999686,0],[110.33490654400003,-7.56549700599993,0],[110.33491676200003,-7.56555358199995,0],[110.33493627100006,-7.565661582999951,0],[110.33497490400003,-7.5658830129999615,0],[110.33509446700003,-7.5661135419999255,0],[110.33516924600008,-7.5662243409999519,0],[110.33523207900004,-7.5663052069999708,0],[110.33531591900004,-7.5663711479999733,0],[110.33542675500007,-7.5664281559999722,0],[110.33573541200008,-7.5665123879999783,0],[110.33609198600004,-7.5666296009999314,0],[110.33634070300008,-7.5667017739999665,0],[110.33650251400007,-7.5667528759999527,0],[110.33663134600005,-7.5668039269999667,0],[110.33676613800009,-7.5668789199999651,0],[110.33691596600005,-7.5669240209999771,0],[110.33705087600003,-7.5669212349999384,0],[110.33714984900007,-7.5668944619999365,0],[110.33724589200006,-7.5668228109999518,0],[110.33732397500006,-7.5667331849999755,0],[110.33737506700004,-7.5666494999999259,0],[110.33740221300008,-7.5665418479999289,0],[110.33747428600009,-7.566461186999959,0],[110.33763334000008,-7.5663537339999607,0],[110.33784937200005,-7.5662344019999637,0],[110.33803835500004,-7.5661599029999707,0],[110.33822736000008,-7.5660704439999336,0],[110.33851227600007,-7.565996087999963,0],[110.33861424200006,-7.5659723109999391,0],[110.33866232700007,-7.5659304539999539,0],[110.33868628800008,-7.565909597999962,0],[110.33877035200004,-7.5658289549999722,0],[110.33883333500006,-7.565811101999941,0],[110.33893227100003,-7.5658082609999724,0],[110.33902365700004,-7.5658424329999434,0],[110.33918697100006,-7.5658894159999477,0],[110.33929188000008,-7.5659015419999491,0],[110.33940884400005,-7.5658718039999258,0],[110.33950186600003,-7.5658151059999454,0],[110.33964896800006,-7.5656807119999598,0],[110.33973307800005,-7.5655701529999533,0],[110.33983214100004,-7.5654835499999535,0],[110.33991614600006,-7.5654417969999486,0],[110.34003611700007,-7.5654060789999562,0],[110.34016505900007,-7.5653853349999736,0],[110.34034194500003,-7.5653796179999517,0],[110.34047687400005,-7.5653648649999354,0],[110.34060282200005,-7.5653411239999286,0],[110.34074979300004,-7.5652934819999587,0],[110.34092375300008,-7.5652398969999695,0],[110.34103765900005,-7.5652490439999269,0],[110.34113055000006,-7.5652790989999517,0],[110.34127134300007,-7.5653511079999589,0],[110.34140315600007,-7.5654141289999757,0],[110.34149002300006,-7.5654621239999642,0],[110.34161593500005,-7.5654623139999444,0],[110.34171479700007,-7.5654253269999572,0],[110.34185200500008,-7.5653857429999789,0],[110.34191783900008,-7.5653178229999298,0],[110.34203309600008,-7.5652270569999587,0],[110.34209556900004,-7.5651505669999324,0],[110.34216893100006,-7.5651344169999675,0],[110.34225816700007,-7.5650772209999673,0],[110.34240580000005,-7.5649876989999711,0],[110.34257140400007,-7.564908973999934,0],[110.34284856400006,-7.5648088759999723,0],[110.34299974400005,-7.5647516669999391,0],[110.34311847800006,-7.5647410759999616,0],[110.34326234500008,-7.5647628319999285,0],[110.34352483700007,-7.5648457929999608,0],[110.34364350400006,-7.5648782799999594,0],[110.34371425600006,-7.5648960419999298,0],[110.34378262100006,-7.5648701119999373,0],[110.34380170300005,-7.5648576139999477,0],[110.34393263900006,-7.5647895669999343,0],[110.34401968500003,-7.5647179029999734,0],[110.34411169500004,-7.5646322099999566,0],[110.34416674200008,-7.5646134209999332,0],[110.34427403100005,-7.5645701639999743,0],[110.34436251100004,-7.5645435559999328,0],[110.34446330600008,-7.564500627999962,0],[110.34470649700006,-7.5644189649999589,0],[110.34492164300008,-7.5644047279999427,0],[110.34512520900006,-7.564450671999964,0],[110.34523880600005,-7.5644987419999552,0],[110.34528149500005,-7.5645283429999495,0],[110.34532933200006,-7.5646145699999465,0],[110.34540597700004,-7.5646816939999439,0],[110.34547068200004,-7.5647152959999744,0],[110.34553543600003,-7.5647153939999612,0],[110.34563661700008,-7.5647051529999771,0],[110.34572421900003,-7.5646634049999761,0],[110.34579062700004,-7.5646204449999459,0],[110.34584315300003,-7.5645814969999492,0],[110.34591510200005,-7.5645816049999439,0],[110.34604219100004,-7.564596154999947,0],[110.34613570900007,-7.5646082609999326,0],[110.34622441400006,-7.5646299329999351,0],[110.34631308300004,-7.564675536999971,0],[110.34638730500006,-7.5647594099999651,0],[110.34649519500005,-7.5647835049999799,0],[110.34664624300007,-7.5648148419999757,0],[110.34676610500009,-7.5648509209999588,0],[110.34692926900004,-7.5648682699999767,0],[110.34698578600006,-7.564900153999929,0],[110.34702735000008,-7.5649661849999461,0],[110.34710162300007,-7.565016552999964,0],[110.34721905800006,-7.5650717729999428,0],[110.34738159800008,-7.5651167689999284,0],[110.34756501700008,-7.56515294299993,0],[110.34773765800009,-7.5651783289999344,0],[110.34784198600005,-7.5651784839999436,0],[110.34794632400008,-7.5651714599999309,0],[110.34806019100006,-7.5651258759999678,0],[110.34822811400005,-7.5650997999999277,0],[110.34847915300008,-7.5650241349999305,0],[110.34858717800006,-7.5649572869999702,0],[110.34869998600004,-7.5649000179999462,0],[110.34877918200004,-7.564866631999962,0],[110.34886798400004,-7.5648236859999543,0],[110.34896872500008,-7.5648166569999375,0],[110.34906703800004,-7.5648287699999628,0],[110.34921093700007,-7.5648289849999628,0],[110.34941155200005,-7.5647950439999363,0],[110.34948631300006,-7.5647783169999343,0],[110.34955590600003,-7.5647508989999324,0],[110.34974742200006,-7.5647261419999268,0],[110.34990088700005,-7.5647455159999595,0],[110.35000223400004,-7.5647884189999672,0],[110.35007344800005,-7.5648247489999676,0],[110.35014294600006,-7.5648607499999798,0],[110.35022929600007,-7.5648536999999578,0],[110.35035408100003,-7.5648060209999812,0],[110.35037184500004,-7.5647535339999763,0],[110.35057810400008,-7.5647520469999563,0],[110.35075560600006,-7.5647355579999385,0],[110.35094752600008,-7.564699945999962,0],[110.35112260700004,-7.5646978149999313,0],[110.35123772700007,-7.5646979849999525,0],[110.35131205000005,-7.5647148479999373,0],[110.35140549300007,-7.5647772099999315,0],[110.35145823400006,-7.5647916469999359,0],[110.35155416800006,-7.5647917899999584,0],[110.35164530400004,-7.5647919259999412,0],[110.35176281200006,-7.5647992809999778,0],[110.35184670300004,-7.5648329109999395,0],[110.35193764700006,-7.564962277999939,0],[110.35199512800006,-7.5650150139999255,0],[110.35206943000009,-7.5650462359999437,0],[110.35217254000008,-7.5650583549999624,0],[110.35229001200008,-7.5650896409999291,0],[110.35243031200008,-7.5651127819999715,0],[110.35255973600005,-7.5651704099999506,0],[110.35267109800009,-7.5652775529999303,0],[110.35275088400005,-7.5653308009999591,0],[110.35290831500004,-7.5654040699999427,0],[110.35310721600007,-7.5655120589999569,0],[110.35325521500005,-7.5655994069999792,0],[110.35345712100008,-7.5656824949999759,0],[110.35361055300007,-7.5657234089999292,0],[110.35372565600005,-7.5657355449999386,0],[110.35385536600006,-7.5656017169999359,0],[110.35395238700005,-7.5654548139999633,0],[110.35403524400004,-7.5653783539999608,0],[110.35417721200008,-7.5652862899999604,0],[110.35425010600005,-7.5652368749999255,0],[110.35431891700006,-7.5651500869999495,0],[110.35435882500008,-7.5651066059999721,0],[110.35441401500009,-7.5650869439999724,0],[110.35446474000008,-7.5650872579999486,0],[110.35453186200004,-7.5651086569999393,0],[110.35464550100005,-7.5651373039999612,0],[110.35489697300005,-7.5651126509999358,0],[110.35503850400005,-7.5650927579999347,0],[110.35514285300007,-7.565078552999978,0],[110.35526878100006,-7.5650679699999728,0],[110.35540905700009,-7.565086125999926,0],[110.35547788200006,-7.5651117309999449,0],[110.35557088000007,-7.5651294429999325,0],[110.35565295600009,-7.5651149819999546,0],[110.35574365700006,-7.5650650809999433,0],[110.35586971300006,-7.5649683419999292,0],[110.35596341200005,-7.5648571969999807,0],[110.35603550700006,-7.5647603789999494,0],[110.35619392500007,-7.5646744559999775,0],[110.35632352000005,-7.564617210999927,0],[110.35641708200006,-7.5645993989999738,0],[110.35646931000008,-7.5645958629999654,0],[110.35652682400007,-7.5646270599999639,0],[110.35656755300005,-7.5646558389999541,0],[110.35663947800003,-7.5646726969999349,0],[110.35669704500003,-7.5646679949999793,0],[110.35675705700004,-7.5646321869999724,0],[110.35681950900005,-7.5645676609999555,0],[110.35687953700005,-7.5645198849999815,0],[110.35695868000005,-7.564492143999928,0],[110.35702703300007,-7.5644881609999288,0],[110.35708990400008,-7.5644787579999502,0],[110.35712515300008,-7.5644721589999335,0],[110.35715754500006,-7.5644655589999275,0],[110.35719182300005,-7.5644694079999795,0],[110.35722704000005,-7.5644846559999337,0],[110.35727558400004,-7.5645018249999794,0],[110.35730604900004,-7.5645104179999407,0],[110.35735365100004,-7.5645209359999512,0],[110.35740601900005,-7.5645305099999405,0],[110.35743742900007,-7.5645438539999645,0],[110.35747548900008,-7.5645667059999369,0],[110.35754021700006,-7.5645905459999767,0],[110.35760789500006,-7.5646146239999439,0],[110.35769051600005,-7.5646242119999556,0],[110.35775473700005,-7.5646316959999353,0],[110.35775932300004,-7.5646322309999618,0],[110.35777275200007,-7.5646337949999634,0],[110.35785262100006,-7.564639432999968,0],[110.35792854600004,-7.564639543999931,0],[110.35799840000004,-7.5646300099999735,0],[110.35808542000007,-7.5646143669999333,0],[110.35810915400003,-7.5646088829999485,0],[110.35813368600009,-7.5645986679999737,0],[110.35815268400006,-7.564586869999971,0],[110.35816614600009,-7.5645750619999603,0],[110.35817803200007,-7.5645600959999797,0],[110.35818754300004,-7.5645459169999754,0],[110.35819467200008,-7.5645388319999256,0],[110.35821208400006,-7.564529393999976,0],[110.35823977600006,-7.5645207619999724,0],[110.35829045600008,-7.5645118319999369,0],[110.35832378500004,-7.5645147309999743,0],[110.35835517100008,-7.5645432709999341,0],[110.35838176900006,-7.5645898499999475,0],[110.35841123500006,-7.5646297849999655,0],[110.35843879400005,-7.5646697169999584,0],[110.35846350100007,-7.5647067949999496,0],[110.35846644800006,-7.5647102339999606,0],[110.35848061600007,-7.5647267659999784,0],[110.35850439700005,-7.564744846999929,0],[110.35854057300008,-7.5647553499999276,0],[110.35857867000004,-7.5647535039999525,0],[110.35859009900008,-7.5647535209999432,0],[110.35867053500004,-7.5647328459999699,0],[110.35875437400006,-7.5647139739999716,0],[110.35880010900007,-7.5646997949999673,0],[110.35884393300006,-7.5646894099999713,0],[110.35887824200006,-7.5646742639999616,0],[110.35891252800008,-7.5646743139999444,0],[110.35892776300005,-7.5646762359999684,0],[110.35894587000007,-7.5646677139999383,0],[110.35898593400009,-7.5646250339999597,0],[110.35903647100008,-7.5645833159999256,0],[110.35909115900006,-7.5645376559999704,0],[110.35914642300008,-7.564520641999934,0],[110.35918642200005,-7.5645226009999647,0],[110.35922641400003,-7.5645264569999426,0],[110.35923418800007,-7.5645258399999307,0],[110.35926165800004,-7.5645236599999635,0],[110.35930262700003,-7.564512322999974,0],[110.35933597900004,-7.5645000239999263,0],[110.35936646900007,-7.5644896209999501,0],[110.35942076900005,-7.5644811529999743,0],[110.35945601100008,-7.5644774059999804,0],[110.35947885100006,-7.5644897859999674,0],[110.35949122400007,-7.5644955039999786,0],[110.35950551100007,-7.5644936249999546,0],[110.35952076000007,-7.5644869979999498,0],[110.35953504400004,-7.5644889199999739,0],[110.35955883100007,-7.5645032009999795,0],[110.35957785800008,-7.564517475999935,0],[110.35960164500005,-7.5645327079999447,0],[110.35963971500007,-7.5645498599999428,0],[110.35967873200008,-7.5645708129999321,0],[110.35970347500006,-7.5645841469999482,0],[110.35972346100004,-7.5645927239999651,0],[110.35980864600003,-7.564617539999972,0],[110.35984579700005,-7.5646109459999593,0],[110.35989153100007,-7.5645986669999274,0],[110.35989794000005,-7.5645990309999434,0],[110.35992581300007,-7.5646006159999502,0],[110.35994578000009,-7.564622490999966,0],[110.35995813000005,-7.5646443539999382,0],[110.35997047900008,-7.5646652669999526,0],[110.35998378300008,-7.5646871329999499,0],[110.35999900400009,-7.564697601999967,0],[110.36001328400005,-7.5647023719999424,0],[110.36003802600004,-7.564715706999948,0],[110.36006086800006,-7.5647252379999372,0],[110.36008657700006,-7.5647300249999603,0],[110.36011038500004,-7.5647300589999418,0],[110.36013705400006,-7.5647291499999483,0],[110.36015800600006,-7.5647291799999721,0],[110.36018085500007,-7.5647358619999636,0],[110.36021130800009,-7.564751102999935,0],[110.36024462000006,-7.564765399999942,0],[110.36028268800004,-7.5647835009999653,0],[110.36031600300004,-7.5647958959999642,0],[110.36035927300009,-7.5648142379999399,0],[110.36038880100006,-7.5648114329999316,0],[110.36042118900008,-7.564806730999976,0],[110.36045547300006,-7.5648077309999735,0],[110.36048212900005,-7.5648153689999731,0],[110.36050496200005,-7.5648315479999724,0],[110.36054640700007,-7.5648486909999519,0],[110.36054874400008,-7.5648496579999573,0],[110.36057444700003,-7.5648572939999781,0],[110.36061347900005,-7.5648687499999596,0],[110.36065441400007,-7.5648811569999452,0],[110.36068868000007,-7.5648945039999376,0],[110.36069567100009,-7.5648959739999668,0],[110.36072961900004,-7.5649031129999571,0],[110.36076222400004,-7.5649165389999666,0],[110.36082124600006,-7.5649337199999422,0],[110.36087742000007,-7.5649451999999542,0],[110.36092026000006,-7.5649566609999397,0],[110.36093644400006,-7.5649604829999362,0],[110.36096311100005,-7.5649614719999363,0],[110.36097289700007,-7.5649588499999254,0],[110.36098825400006,-7.5649547359999474,0],[110.36099836200009,-7.5649520259999576,0],[110.36103360000004,-7.5649520779999762,0],[110.36106978900006,-7.5649540309999566,0],[110.36110693300009,-7.5649531359999287,0],[110.36113550200008,-7.5649550759999329,0],[110.36117929400007,-7.5649674879999793,0],[110.36119451800005,-7.564976058999946,0],[110.36122554900004,-7.5649868859999287,0],[110.36125140000007,-7.5650121119999767,0],[110.36126454000004,-7.5650249349999399,0],[110.36128122200006,-7.5650317439999526,0],[110.36129023900008,-7.5650354209999477,0],[110.36129398400004,-7.5650350969999636,0],[110.36132262400008,-7.5650326189999646,0],[110.36134359900007,-7.565017452999939,0],[110.36134681900006,-7.5650122529999635,0],[110.36135887300009,-7.5649927799999546,0],[110.36138653100005,-7.5649671779999608,0],[110.36140276000003,-7.5649406059999365,0],[110.36141137100009,-7.564914023999961,0],[110.36141426500006,-7.5648893349999753,0],[110.36143047600007,-7.5648741619999669,0],[110.36146001300006,-7.5648666069999422,0],[110.36149526900005,-7.5648533599999723,0],[110.36157531100008,-7.5648259349999307,0],[110.36158006200009,-7.5648234109999635,0],[110.36161751000009,-7.5648035199999413,0],[110.36167216000007,-7.5647575419999384,0],[110.36168688800007,-7.5647334889999343,0],[110.36171000300004,-7.5647188689999325,0],[110.36174886000003,-7.5647032229999809,0],[110.36182994500007,-7.5646653149999565,0],[110.36183813800005,-7.564661484999931,0],[110.36191586100006,-7.5646260079999479,0],[110.36198621900007,-7.5646020349999503,0],[110.36202671500007,-7.5645926329999611,0],[110.36205341800007,-7.5645864339999775,0],[110.36212900700008,-7.5645750279999788,0],[110.36216407400008,-7.5645769199999791,0],[110.36218882800006,-7.5645782559999475,0],[110.36232212000004,-7.5645836849999455,0],[110.36232747800005,-7.5645847909999588,0],[110.36239871900005,-7.56459949799995,0],[110.36248893900006,-7.5646310329999551,0],[110.36255921700007,-7.5646625399999721,0],[110.36257003500003,-7.5646660799999381,0],[110.36262138900008,-7.5646828939999295,0],[110.36264760800009,-7.5646914779999292,0],[110.36272866100006,-7.5647467659999279,0],[110.36279402100007,-7.5648149029999558,0],[110.36283263200005,-7.5648921939999809,0],[110.36286938200004,-7.5649795979999794,0],[110.36289975700004,-7.5650145819999466,0],[110.36294030500005,-7.5650275149999402,0],[110.36295700300008,-7.565028358999939,0],[110.36299654300007,-7.5650303549999762,0],[110.36300603800004,-7.5650285399999575,0],[110.36307770000008,-7.5650148429999717,0],[110.36314592900004,-7.5650121839999542,0],[110.36319755700003,-7.5650140979999492,0],[110.36322985200007,-7.5649966759999643,0],[110.36328850700005,-7.5649517009999272,0],[110.36337062300004,-7.5649122809999767,0],[110.36347209400009,-7.5648756519999552,0],[110.36356619300005,-7.5648362529999531,0],[110.36360955600009,-7.5648151669999493,0],[110.36365751400007,-7.5648051229999282,0],[110.36369806900007,-7.5648143769999479,0],[110.36372661800004,-7.5648355659999424,0],[110.36375607800005,-7.5648659509999447,0],[110.36379291700007,-7.5648935909999295,0],[110.36383251700005,-7.5649239899999543,0],[110.36384916500003,-7.5649337089999449,0],[110.36385462600003,-7.5649368969999387,0],[110.36392191700008,-7.5649461879999649,0],[110.36397397000007,-7.564942660999975,0],[110.36397860000005,-7.564929794999955,0],[110.36397955300004,-7.5649077279999801,0],[110.36399801000005,-7.5648958029999562,0],[110.36402473400005,-7.5649059559999614,0],[110.36404130400007,-7.564922529999933,0],[110.36405051700007,-7.5649280619999786,0],[110.36407633200008,-7.5649280989999284,0],[110.36411137900006,-7.5649207939999314,0],[110.36415010900004,-7.5649153339999771,0],[110.36419348800007,-7.5648841349999429,0],[110.36421841500004,-7.5648611839999376,0],[110.36424793600008,-7.564850192999927,0],[110.36428942000003,-7.5648520929999563,0],[110.36432720600004,-7.5648631809999642,0],[110.36437144500007,-7.5648742799999695,0],[110.36440738400006,-7.5648862849999432,0],[110.36444240800006,-7.5648946109999429,0],[110.36448206100005,-7.5648891529999673,0],[110.36449866800007,-7.5648799809999332,0],[110.36451898000007,-7.5648616219999667,0],[110.36455867400008,-7.5648276599999349,0],[110.36457818000008,-7.5648061889999667,0],[110.36462401000006,-7.5647557459999462,0],[110.36469343200008,-7.5646938859999295,0],[110.36469509400007,-7.5646924049999598,0],[110.36474311900008,-7.5646373059999519,0],[110.36477634900007,-7.5646097709999367,0],[110.36480312000003,-7.5645868229999564,0],[110.36484462600004,-7.5645767699999737,0],[110.36488241500007,-7.56458325899996,0],[110.36492737000009,-7.5645901579999304,0],[110.36495940900005,-7.5646107009999355,0],[110.36496040600008,-7.5646343569999317,0],[110.36497935900007,-7.5646546649999777,0],[110.36499199800005,-7.5646659519999275,0],[110.36501186100008,-7.5646795029999794,0],[110.36504168200008,-7.5646840519999614,0],[110.36506879500007,-7.5646867959999327,0],[110.36509906600008,-7.5646917979999557,0],[110.36513294800005,-7.5647017629999596,0],[110.36516050500006,-7.5647081139999273,0],[110.36518445300004,-7.5647126539999476,0],[110.36520207600006,-7.5647131309999622,0],[110.36523795300008,-7.5647186299999589,0],[110.36527774400008,-7.5647056179999481,0],[110.36531616600007,-7.5646993639999778,0],[110.36537447500007,-7.5646935899999335,0],[110.36541785000009,-7.5646999629999527,0],[110.36545714700009,-7.5647144419999677,0],[110.36547656500005,-7.5647261879999519,0],[110.36550094500006,-7.564742899999942,0],[110.36560421500008,-7.5648198759999445,0],[110.36565836600005,-7.56487539099993,0],[110.36568950300006,-7.5649065359999668,0],[110.36573238500006,-7.564941752999971,0],[110.36575270400004,-7.56495485399995,0],[110.36577981300007,-7.5649603009999282,0],[110.36580285100007,-7.5649666439999805,0],[110.36581955700007,-7.5649770349999699,0],[110.36583626300006,-7.5649883259999342,0],[110.36586156000004,-7.564995124999939,0],[110.36590087300004,-7.5649992389999738,0],[110.36594844100006,-7.5650111429999356,0],[110.36600171900005,-7.5650441219999607,0],[110.36602608900006,-7.5650680459999649,0],[110.36603317800007,-7.5650788329999727,0],[110.36605072300006,-7.5650998929999673,0],[110.36606944900007,-7.5651162819999627,0],[110.36608622800009,-7.5651264329999321,0],[110.36610419100003,-7.5651303549999511,0],[110.36615734200007,-7.5651459609999279,0],[110.36620451200008,-7.5651553379999541,0],[110.36621419100004,-7.5651572609999675,0],[110.36624603800004,-7.5651722639999548,0],[110.36625489700003,-7.5651766149999276,0],[110.36627913300003,-7.5651885159999779,0],[110.36631537300008,-7.5651916839999558,0],[110.36635662600008,-7.5651861359999657,0],[110.36639599600005,-7.5651849459999312,0],[110.36642848900004,-7.5651856159999511,0],[110.36645847000005,-7.5651950079999324,0],[110.36647970800004,-7.5652012699999318,0],[110.36651282600008,-7.5652019419999306,0],[110.36655095200007,-7.5651976349999472,0],[110.36659472300005,-7.5651777579999475,0],[110.36669097300006,-7.5651365689999466,0],[110.36675499600005,-7.5651087459999644,0],[110.36680402400009,-7.5650809009999307,0],[110.36684505500006,-7.5650520479999273,0],[110.36687107200004,-7.5650361309999425,0],[110.36686911300006,-7.5650092079999354,0],[110.36686214600007,-7.5649872639999671,0],[110.36687422600005,-7.5649294539999801,0],[110.36689129500007,-7.5648806239999544,0],[110.36693436200005,-7.5648268469999493,0],[110.36696741400004,-7.5647850209999774,0],[110.36700345800006,-7.5647491789999322,0],[110.36702849400007,-7.5647203019999552,0],[110.36703953700004,-7.5646874169999592,0],[110.36708627900003,-7.5646361429999729,0],[110.36712194300009,-7.564592336999965,0],[110.36716096400005,-7.5645714559999533,0],[110.36720097700004,-7.5645545639999341,0],[110.36723297800006,-7.5645486299999334,0],[110.36727797000009,-7.5645466999999371,0],[110.36730809700003,-7.5645408529999258,0],[110.36732897100006,-7.5645368039999425,0],[110.36738597200008,-7.5645259189999479,0],[110.36744098000008,-7.5645110429999249,0],[110.36746898400008,-7.5645031089999293,0],[110.36748497900004,-7.5645041279999532,0],[110.36750594900008,-7.5645211089999407,0],[110.36752692100004,-7.5645360939999478,0],[110.36755290800005,-7.5645411169999761,0],[110.36758289900007,-7.5645411599999761,0],[110.36761189300006,-7.5645412019999299,0],[110.36762888700008,-7.5645412259999603,0],[110.36765389400006,-7.5645322899999314,0],[110.36766790200005,-7.5645243339999411,0],[110.36769591300003,-7.5645114129999342,0],[110.36770692000005,-7.5645054469999309,0],[110.36772191700004,-7.5645044709999638,0],[110.36774790900006,-7.5645045089999599,0],[110.36778189100005,-7.5645115369999303,0],[110.36780487300007,-7.5645205449999366,0],[110.36784283600008,-7.5645395429999667,0],[110.36785881800006,-7.564549536999948,0],[110.36789278500004,-7.5645655389999433,0],[110.36791976400008,-7.5645755469999472,0],[110.36794673400004,-7.5645905429999516,0],[110.36796570000007,-7.5646115079999277,0],[110.36798266500006,-7.5646314719999737,0],[110.36800263800006,-7.5646474529999637,0],[110.36802160700006,-7.5646654269999658,0],[110.36804521100004,-7.5646825449999255,0],[110.36807118400009,-7.5646955449999496,0],[110.36808916900009,-7.5647015529999635,0],[110.36811216400008,-7.5647025839999742,0],[110.36812716600008,-7.5646986159999301,0],[110.36813518500009,-7.5646836739999799,0],[110.36814021400005,-7.5646637379999788,0],[110.36815722200004,-7.5646537939999803,0],[110.36817921900007,-7.5646528289999537,0],[110.36819720000005,-7.5646628259999602,0],[110.36821117200009,-7.5646797949999609,0],[110.36822113900007,-7.5647007469999608,0],[110.36822811200005,-7.5647177069999429,0],[110.36824208600007,-7.5647336799999607,0],[110.36824708000006,-7.564736676999928,0],[110.36826106700005,-7.5647436769999672,0],[110.36831404500003,-7.5647477419999518,0],[110.36831510000007,-7.5647477429999412,0],[110.36834403900008,-7.5647477849999518,0],[110.36838704100006,-7.5647388739999428,0],[110.36842505400006,-7.5647239739999463,0],[110.36844406000006,-7.5647150279999664,0],[110.36847105500004,-7.5647150669999519,0],[110.36850306400004,-7.5647021529999279,0],[110.36854807900005,-7.5646852679999483,0],[110.36859106900005,-7.5646843329999456,0],[110.36864336300005,-7.5646884499999487,0],[110.36869131800006,-7.5647114489999581,0],[110.36875225700004,-7.5647424459999684,0],[110.36879121800007,-7.5647624429999496,0],[110.36883016200005,-7.5647944049999296,0],[110.36886410400007,-7.5648283519999495,0],[110.36889105300008,-7.5648583029999372,0],[110.36890700800006,-7.5648872409999512,0],[110.36890848000007,-7.5648918159999425,0],[110.36891695800006,-7.56491816099998,0],[110.36893592500007,-7.5649381299999732,0],[110.36895790100004,-7.5649511229999575,0],[110.36899086600005,-7.5649701139999479,0],[110.36900983700008,-7.5649860939999485,0],[110.36902479900004,-7.5650100459999408,0],[110.36907893700004,-7.565051293999943,0],[110.36908065200004,-7.5650525579999339,0],[110.36913186700008,-7.5650902539999265,0],[110.36915282600006,-7.5651142139999479,0],[110.36917279000005,-7.5651361769999426,0],[110.36919381800004,-7.565150565999943,0],[110.36921140100009,-7.5651585659999796,0],[110.36922899500007,-7.5651569969999741,0],[110.36924500400005,-7.565149043999952,0],[110.36927220200005,-7.565142701999946,0],[110.36929779900004,-7.56513954899998,0],[110.36933297600007,-7.565147574999969,0],[110.36935215200003,-7.565158768999936,0],[110.36937612200006,-7.5651747559999762,0],[110.36940328000009,-7.5651955309999721,0],[110.36942883600005,-7.5652210899999659,0],[110.36944481200004,-7.5652338739999436,0],[110.36947519000006,-7.5652418939999393,0],[110.36950717300004,-7.5652451289999476,0],[110.36952956800008,-7.5652451609999503,0],[110.36955835800006,-7.5652436089999355,0],[110.36957051200005,-7.5652440749999528,0],[110.36960154000008,-7.5652452659999767,0],[110.36964790600007,-7.5652596879999692,0],[110.36966973000006,-7.5652643859999671,0],[110.36969267700005,-7.5652693259999637,0],[110.36972504500005,-7.5652718549999349,0],[110.36973425900004,-7.5652725749999377,0],[110.36978382500007,-7.5652822169999467,0],[110.36981741000005,-7.5652854549999802,0],[110.36983500100007,-7.5652870759999473,0],[110.36991597700006,-7.5653052269999534,0],[110.37002387900009,-7.5653221369999528,0],[110.37008619100004,-7.5653533379999658,0],[110.37012447300003,-7.5654156169999283,0],[110.37012914800005,-7.5654993869999316,0],[110.37012335900005,-7.5655226719999291,0],[110.37014719600006,-7.565623220999953,0],[110.37020939400009,-7.5657333989999529,0],[110.37030514800006,-7.5658579839999334,0],[110.37057842700005,-7.5659493209999482,0],[110.37070721200007,-7.5659941139999773,0],[110.37081334500004,-7.5660310309999659,0],[110.37111474400007,-7.5660931599999799,0],[110.37134040800004,-7.566116812999951,0],[110.37186900000006,-7.5661325609999608,0],[110.37231458300005,-7.5661381659999734,0],[110.37282569900009,-7.5661332179999476,0],[110.37341590200003,-7.5661214189999555,0],[110.37350580100008,-7.5661196219999738,0],[110.37384316100008,-7.5661155189999363,0],[110.37407290800007,-7.56612632599996,0],[110.37435956100006,-7.5661382899999694,0],[110.37450028000006,-7.5661036159999639,0],[110.37484331800005,-7.5663687229999255,0],[110.37517224900006,-7.5665181659999803,0],[110.37553656100005,-7.5667100399999754,0],[110.37556595100006,-7.5667220179999504,0],[110.37598892800008,-7.5668943919999379,0],[110.37636312400008,-7.5670077909999804,0],[110.37684374900005,-7.5669441019999795,0],[110.37718028200004,-7.5668035239999654,0],[110.37743462400005,-7.5666561659999729,0],[110.37760811400005,-7.566487995999978,0],[110.37796912400006,-7.5663931019999495,0],[110.37837453600008,-7.5663119279999478,0],[110.37857210300007,-7.566147219999948,0],[110.37884349700005,-7.5660748369999737,0],[110.37911274600003,-7.5659721479999575,0],[110.37944137500006,-7.5660180049999326,0],[110.37984641500009,-7.5660500059999549,0],[110.38017684600004,-7.5660368999999719,0],[110.38047283800006,-7.5660472509999295,0],[110.38089943600005,-7.5661534769999435,0],[110.38101009700006,-7.5662539559999686,0],[110.38136962400006,-7.5664396029999352,0],[110.38181818600009,-7.5664651649999541,0],[110.38197893000006,-7.5664368919999561,0],[110.38206315600007,-7.5663738589999525,0],[110.38229692100003,-7.5662984579999488,0],[110.38239021000004,-7.5662471049999453,0],[110.38239191900004,-7.5662461629999598,0],[110.38252049700009,-7.5661982829999488,0],[110.38265639800005,-7.5661387649999483,0],[110.38278642000006,-7.5661025379999387,0],[110.38283900800008,-7.5660909619999757,0],[110.38292597100008,-7.5660733449999498,0],[110.38303986900007,-7.5660807869999758,0],[110.38314647400006,-7.5660794829999531,0],[110.38321952500007,-7.5660562839999557,0],[110.38327655000006,-7.5660083019999433,0],[110.38334965000007,-7.5659501499999351,0],[110.38343295700008,-7.5659036639999613,0],[110.38355130400004,-7.5658615969999801,0],[110.38378537000006,-7.5657713479999416,0],[110.38384397500005,-7.5657405109999445,0],[110.38388474700008,-7.5657190589999459,0],[110.38393070200004,-7.565692859999956,0],[110.38398413200008,-7.565662399999951,0],[110.38402215400004,-7.5656260439999414,0],[110.38411442500006,-7.5655875339999739,0],[110.38413636600006,-7.5655837919999271,0],[110.38443712400004,-7.565345352999941,0],[110.38470586500006,-7.5650776439999277,0],[110.38476731300005,-7.5650164339999719,0],[110.38479896200005,-7.5649849059999497,0],[110.38517425600008,-7.5649809029999346,0],[110.38539587400004,-7.5649785409999595,0],[110.38568549900003,-7.5649414149999643,0],[110.38614109500008,-7.5645742679999444,0],[110.38643481100007,-7.5642796649999582,0],[110.38667395500005,-7.5639745239999456,0],[110.38670974800004,-7.5639288519999468,0],[110.38736981200009,-7.563496273999931,0],[110.38794784800007,-7.5634031269999582,0],[110.38796699900007,-7.5634000409999658,0],[110.38819374900004,-7.5632997909999631,0],[110.38859068600004,-7.5628296649999811,0],[110.38891563900006,-7.5627790279999658,0],[110.38988068500004,-7.5624168479999412,0],[110.39043698700004,-7.5619581139999354,0],[110.39119496200004,-7.5614958529999399,0],[110.39175318400004,-7.5609512599999675,0],[110.39335514100009,-7.5592240159999733,0],[110.39336090000006,-7.5592180939999594,0],[110.39468574400007,-7.5589843239999368,0],[110.39550140600005,-7.5588179279999395,0],[110.39696438000004,-7.5588199529999542,0],[110.39777980700006,-7.5588210769999478,0],[110.39845138800007,-7.5587861069999462,0],[110.39895525000009,-7.5586312389999648,0],[110.39960352300005,-7.5581056209999815,0],[110.40050219200003,-7.5577588019999666,0],[110.40092673000004,-7.5577102589999754,0],[110.40192563000005,-7.55749600799993,0],[110.40308888800007,-7.5574990899999648,0],[110.40340365000009,-7.5575114849999636,0],[110.40388161500005,-7.5569107989999793,0],[110.40460213200004,-7.5561650929999473,0],[110.40525038200008,-7.5556490389999453,0],[110.40594187900007,-7.5550756059999458,0],[110.40656089500004,-7.5548897739999461,0],[110.40684880800006,-7.5548040089999517,0],[110.40705042200005,-7.5546894069999553,0],[110.40719453600008,-7.5545316509999338,0],[110.40738205200006,-7.5542016379999382,0],[110.40761276000006,-7.5538573249999672,0],[110.40820289700008,-7.5537432499999682,0],[110.40854834900006,-7.5536719209999319,0],[110.40935474100007,-7.5532565899999327,0],[110.40983063600004,-7.5524961839999492,0],[110.41000419000005,-7.5518502459999581,0],[110.41014894300008,-7.5512186259999794,0],[110.41041533000003,-7.5507691169999589,0],[110.41059605900006,-7.5505422329999305,0],[110.41065361400007,-7.5500267249999524,0],[110.41074090400008,-7.5497547669999676,0],[110.41104817300004,-7.549410868999928,0],[110.41136980400006,-7.5492174509999472,0],[110.41176356000005,-7.5490238129999625,0],[110.41218128500009,-7.5487084679999725,0],[110.41244060900004,-7.5484790669999597,0],[110.41305251300008,-7.5480926979999481,0],[110.41347222200005,-7.5480836899999417,0],[110.41403323100008,-7.5477022419999571,0],[110.41463816300006,-7.5474433869999302,0],[110.41510885900004,-7.54697015499994,0],[110.41573820100007,-7.5467172779999601,0],[110.41681467400008,-7.5464866059999736,0],[110.41753776100006,-7.5460735049999812,0],[110.41811380400009,-7.5457296449999376,0],[110.41886875400007,-7.54561341699997,0],[110.41913611200005,-7.5452427839999814,0],[110.41953643300008,-7.5448915449999276,0],[110.42002885500006,-7.5447988259999761,0],[110.42071993300004,-7.5445125539999367,0],[110.42129589500007,-7.5442261289999806,0],[110.42191494900004,-7.5439971949999745,0],[110.42220302500004,-7.5439257319999342,0],[110.42231798800009,-7.5438972119999335,0],[110.42271337800008,-7.5440061239999636,0],[110.42309454500008,-7.5442572239999777,0],[110.42350308000005,-7.5444007729999498,0],[110.42374536700004,-7.5446547759999589,0],[110.42394400100005,-7.5448051989999385,0],[110.42457611300006,-7.5446755989999588,0],[110.42515224300007,-7.544259932999978,0],[110.42591933800009,-7.5440013359999512,0],[110.42645175500007,-7.5436094809999759,0],[110.42732186700005,-7.5430422249999651,0],[110.42852157900006,-7.5425950619999753,0],[110.43087174400006,-7.5427970799999571,0],[110.43329333500009,-7.5432908399999405,0],[110.43685458900006,-7.5432939279999687,0],[110.44000237000006,-7.543238138999925,0],[110.44330103700008,-7.5424047139999288,0],[110.44392908600008,-7.5422899319999601,0],[110.44461907200008,-7.5421638309999253,0],[110.44467177300004,-7.5421082549999596,0],[110.44473988000004,-7.542033943999968,0],[110.44480545600004,-7.5419579669999735,0],[110.44486742800007,-7.5418796139999813,0],[110.44490076600005,-7.541832243999977,0],[110.44492473600008,-7.5417981849999478,0],[110.44497704300005,-7.5417134559999681,0],[110.44502500000004,-7.5416258569999286,0],[110.44506933200006,-7.5415358669999364,0],[110.44508720000005,-7.5414962329999753,0],[110.44511076400005,-7.5414439639999387,0],[110.44515002100007,-7.5413506259999394,0],[110.44518782900008,-7.5412563319999322,0],[110.44522491200007,-7.5411615589999315,0],[110.44489797400007,-7.541166354999973,0],[110.44268360300003,-7.5411988369999676,0],[110.44251200700006,-7.5412013539999521,0],[110.44241898500007,-7.5411563529999626,0],[110.44172892000006,-7.5408225259999426,0],[110.43935214500004,-7.5396727349999537,0],[110.43656435000008,-7.5378711759999533,0],[110.43574720200007,-7.5372595369999544,0],[110.43521127800005,-7.5366655259999789,0],[110.43521125000007,-7.5366654949999656,0],[110.43521122200008,-7.5366654639999524,0],[110.43394476000009,-7.5352617329999703,0],[110.43353531300005,-7.5346232549999286,0],[110.43260993600006,-7.5333757599999558,0],[110.43232445800004,-7.5329909089999774,0],[110.43181464900005,-7.5323036379999735,0],[110.43174560100005,-7.5322459849999746,0],[110.43069721300009,-7.5313706179999258,0],[110.43047018800007,-7.5311820989999774,0],[110.43018852100005,-7.5309482049999588,0],[110.42959211300007,-7.5305868949999422,0],[110.42862529400008,-7.5300641049999513,0],[110.42816081400008,-7.5298141219999479,0],[110.42786392700003,-7.5296543379999434,0],[110.42735779100008,-7.5293245119999597,0],[110.42703660100005,-7.529085322999947,0],[110.42664802900003,-7.5287020699999516,0],[110.42651916500006,-7.5284192649999682,0],[110.42637343700005,-7.5281239579999806,0],[110.42621638600008,-7.5279215409999551,0],[110.42610856000005,-7.5277825679999637,0],[110.42600408400006,-7.5276711679999266,0],[110.42568122300008,-7.5274467089999462,0],[110.42536030000008,-7.5272901079999315,0],[110.42529417100008,-7.527257838999958,0],[110.42519951100007,-7.5271618619999572,0],[110.42496398800006,-7.5269230639999591,0],[110.42481810300006,-7.5265178939999373,0],[110.42477308200006,-7.5263887849999378,0],[110.42455791200007,-7.5257717229999344,0],[110.42451451600004,-7.5256815609999421,0],[110.42446727400005,-7.5256388029999357,0],[110.42426711500008,-7.5254576409999459,0],[110.42400962800008,-7.5252670789999456,0],[110.42357821700006,-7.524976171999981,0],[110.42336855200006,-7.5247848189999331,0],[110.42336528100009,-7.5247818339999526,0],[110.42321244800007,-7.5244822869999552,0],[110.42295272500007,-7.523973238999929,0],[110.42270834600004,-7.5237337289999573,0],[110.42236704400005,-7.5235765679999531,0],[110.42202973400003,-7.5234237829999415,0],[110.42192169900005,-7.5232112859999347,0],[110.42157357500008,-7.522550563999971,0],[110.42157263400009,-7.5225495969999656,0],[110.42155992400006,-7.5225365309999574,0],[110.42116049300006,-7.5221259399999667,0],[110.42115659200005,-7.5221169299999815,0],[110.42113364000005,-7.5220639119999646,0],[110.42111379800008,-7.5220180799999525,0],[110.42110879100005,-7.5219899329999294,0],[110.42109484800005,-7.5219115609999676,0],[110.42109567700004,-7.521908726999925,0],[110.42110845700006,-7.5218650229999753,0],[110.42111646300003,-7.5218376439999588,0],[110.42112075000006,-7.5218229839999253,0],[110.42113724400008,-7.5217665799999622,0],[110.42116071700008,-7.5216863109999395,0],[110.42116509000004,-7.5216713559999562,0],[110.42130336800005,-7.5215183629999274,0],[110.42130466400005,-7.5215169289999722,0],[110.42131867300009,-7.5213454719999504,0],[110.42131382600007,-7.5213382029999707,0],[110.42131167600007,-7.5213349789999597,0],[110.42115731400008,-7.5211034629999745,0],[110.42105061500007,-7.5209434329999567,0],[110.42097287600006,-7.5208794959999636,0],[110.42064245100005,-7.5206077359999313,0],[110.42063068900006,-7.5205854229999431,0],[110.42061743200009,-7.5205602759999692,0],[110.42056151800006,-7.5204542079999328,0],[110.42050267400003,-7.5202639649999696,0],[110.42045973000006,-7.5202332969999475,0],[110.42034614500005,-7.5201521789999788,0],[110.42003279100004,-7.5201517649999801,0],[110.41981239000006,-7.5200843639999562,0],[110.41955365400008,-7.5199337149999792,0],[110.41944906100008,-7.5198728149999283,0],[110.41919065900004,-7.5196921649999808,0],[110.41916650600007,-7.519675278999955,0],[110.41900696300007,-7.5195637419999457,0],[110.41872014300009,-7.5193694579999715,0],[110.41813220600005,-7.5190236049999726,0],[110.41804834500005,-7.5189742739999588,0],[110.41803932400006,-7.518968966999978,0],[110.41540487400005,-7.518379662999962,0],[110.41481582600005,-7.5182478979999701,0],[110.41395314400006,-7.5180987989999721,0],[110.41378159300007,-7.5180691499999739,0],[110.41349762500005,-7.5180200709999667,0],[110.41342571100006,-7.5180076419999295,0],[110.41276287100004,-7.5178930829999331,0],[110.41273790900004,-7.5178887689999669,0],[110.41237842000004,-7.5178266379999741,0],[110.41230924500007,-7.517814681999937,0],[110.41192576200007,-7.517748403999974,0],[110.41191844600007,-7.5177469359999805,0],[110.41081082200009,-7.5175246749999474,0],[110.40974127100009,-7.5173100529999601,0],[110.40923759200007,-7.51719142099995,0],[110.40737059500009,-7.516751683999928,0],[110.40730127800003,-7.5167353579999485,0],[110.40607084900006,-7.5162520459999769,0],[110.40489529300004,-7.5160010729999271,0],[110.40484059200008,-7.5159920659999671,0],[110.40406640000003,-7.5158645949999254,0],[110.40321198000004,-7.5157239139999774,0],[110.40140626300007,-7.515389617999972,0],[110.40107417300004,-7.5153702829999816,0],[110.40075714300008,-7.5153743839999265,0],[110.40068179700006,-7.515375358999961,0],[110.40060731400007,-7.5153763219999519,0],[110.40024548000008,-7.515438306999954,0],[110.40018759700007,-7.515443338999944,0],[110.39990218600008,-7.5154681499999469,0],[110.39919914500007,-7.5153819299999327,0],[110.39840629800005,-7.5152889239999467,0],[110.39794818000007,-7.5153147769999578,0],[110.39759646300007,-7.5153730909999581,0],[110.39729531900008,-7.515470410999967,0],[110.39693844900006,-7.5155942579999646,0],[110.39660511600005,-7.5156972259999293,0],[110.39641114400007,-7.5157183439999358,0],[110.39629442200004,-7.5157310519999783,0],[110.39621237800009,-7.515729017999945,0],[110.39613694100007,-7.5157271479999395,0],[110.39551817900008,-7.515711807999935,0],[110.39519820100008,-7.5156056219999527,0],[110.39463516800004,-7.5154254449999485,0],[110.39410708200006,-7.5152910319999364,0],[110.39379831900004,-7.5152896449999389,0],[110.39346238800005,-7.5153733379999608,0],[110.39324146400008,-7.5154194759999768,0],[110.39303360900004,-7.5153686489999814,0],[110.39282008300006,-7.5152566439999759,0],[110.39254584000008,-7.5151161829999751,0],[110.39245705600007,-7.5150957779999317,0],[110.39234947900007,-7.5150680689999376,0],[110.39231641600009,-7.5150625109999396,0],[110.39225091200007,-7.5150514989999806,0],[110.39217582700007,-7.5150477189999378,0],[110.39211016000007,-7.5150430029999598,0],[110.39202745000006,-7.5150295199999277,0],[110.39186632600007,-7.5149838479999289,0],[110.39176690100004,-7.5149552449999533,0],[110.39156438500004,-7.5148819139999432,0],[110.39123568000008,-7.5147623939999448,0],[110.39114022700005,-7.5147608379999724,0],[110.39100680900009,-7.5147875729999782,0],[110.39085757800007,-7.5148356319999721,0],[110.39062858900007,-7.51494536499996,0],[110.39030555900007,-7.5149542849999307,0],[110.39011189100006,-7.5149080479999384,0],[110.39001583000004,-7.5148702289999392,0],[110.38963671400006,-7.5146981079999478,0],[110.38952712200006,-7.5146574439999654,0],[110.38922181000004,-7.5145620719999329,0],[110.38879826000004,-7.5143287259999738,0],[110.38865761900007,-7.5142512419999434,0],[110.38824392300006,-7.5140619519999632,0],[110.38794784800007,-7.5139234029999784,0],[110.38788922800006,-7.5138959719999434,0],[110.38773194000004,-7.5138027559999614,0],[110.38757728900003,-7.5137228479999294,0],[110.38742746200006,-7.5136524339999369,0],[110.38722716400008,-7.5134499589999564,0],[110.38700570200007,-7.5132973809999726,0],[110.38678073100004,-7.513327904999926,0],[110.38650498700008,-7.5134034619999284,0],[110.38629538900005,-7.513395614999979,0],[110.38608967800008,-7.5133753669999805,0],[110.38549633500008,-7.5133169659999339,0],[110.38473441200006,-7.5132419719999461,0],[110.38452747800005,-7.513181956999972,0],[110.38412885900004,-7.5132510899999261,0],[110.38389558500006,-7.5131251359999283,0],[110.38368389200008,-7.5131249499999626,0],[110.38354397200004,-7.5132091959999343,0],[110.38345670900009,-7.5133162079999352,0],[110.38336321100007,-7.5134264729999813,0],[110.38324423500006,-7.5135985149999556,0],[110.38304068600007,-7.5137104909999266,0],[110.38298713800003,-7.5137876799999503,0],[110.38293568500006,-7.5139487929999405,0],[110.38287823900004,-7.5140327389999584,0],[110.38280435800004,-7.5140982679999411,0],[110.38267521200004,-7.5140907439999296,0],[110.38256802500007,-7.5140670399999294,0],[110.38245182300005,-7.5140777279999611,0],[110.38239702300007,-7.5141164359999379,0],[110.38223116900008,-7.5141975569999317,0],[110.38208354500006,-7.5141838519999737,0],[110.38191005000004,-7.5141476349999721,0],[110.38177042800004,-7.5141184889999408,0],[110.38152724900004,-7.5140932329999259,0],[110.38136594400004,-7.5140587919999575,0],[110.38128642100008,-7.5139277199999697,0],[110.38118833400006,-7.5138429809999252,0],[110.38096826500004,-7.5137432319999675,0],[110.38080283500005,-7.5137256909999337,0],[110.38064043400004,-7.5137241299999573,0],[110.38046986900008,-7.513658874999976,0],[110.38030931100008,-7.5136258119999297,0],[110.38018663800005,-7.5136226149999743,0],[110.37993359600006,-7.5136420969999449,0],[110.37977009800005,-7.5136082689999739,0],[110.37968207900008,-7.5135340759999281,0],[110.37941194900009,-7.5134587139999667,0],[110.37894412600008,-7.5133281979999538,0],[110.37842268800006,-7.5131826479999404,0],[110.37816818400006,-7.513111606999928,0],[110.37814232900007,-7.5131043899999668,0],[110.37794764000006,-7.512970672999927,0],[110.37788805200006,-7.5129273069999272,0],[110.37776325400006,-7.5128364839999335,0],[110.37774688900004,-7.5128245739999784,0],[110.37754531400009,-7.5126553649999437,0],[110.37747084700004,-7.5125928549999799,0],[110.37732289600007,-7.5125926459999732,0],[110.37717273000004,-7.5125431249999792,0],[110.37698080300004,-7.5123458989999676,0]]]},"properties":{"OBJECTID":2938,"NAMOBJ":"Dukun","FCODE":"BA03070040","REMARK":null,"METADATA":"TASWIL1000020260612KECAMATAN_AR","SRS_ID":"4326","KDBBPS":null,"KDCBPS":null,"KDCPUM":"33.08.06","KDEBPS":null,"KDEPUM":null,"KDPBPS":null,"KDPKAB":"33.08","KDPPUM":"33","LUASWH":57.60243005412957,"TIPADM":3,"WADMKC":"Dukun","WADMKD":null,"WADMKK":"Magelang","WADMPR":"Jawa Tengah","WIADKC":null,"WIADKK":null,"WIADPR":null,"WIADKD":null,"UUPP":null,"SHAPE_Length":0.38717968244465556,"SHAPE_Area":0.0047194394116324475}}]}