{"type":"FeatureCollection","features":[{"type":"Feature","id":4020,"geometry":{"type":"Polygon","coordinates":[[[113.87407817200005,-6.9821655879999298,0],[113.87407497200002,-6.982094300999961,0],[113.87393594800005,-6.9820674329999406,0],[113.87365041700002,-6.9820122519999472,0],[113.87354554100011,-6.9819919839999329,0],[113.87346487400009,-6.9819818169999621,0],[113.87317636100011,-6.9819420699999455,0],[113.87316844500003,-6.9819409799999335,0],[113.87294188400006,-6.982276226999943,0],[113.87291802800007,-6.9823115279999683,0],[113.87241053900004,-6.9821459349999486,0],[113.87238198500006,-6.9823957779999546,0],[113.87222137100002,-6.9826813139999331,0],[113.87216672200009,-6.9830334019999327,0],[113.87198273200011,-6.982951724999964,0],[113.87171814300007,-6.9829132859999277,0],[113.87165171000004,-6.9829036349999569,0],[113.87164555300001,-6.9829027409999753,0],[113.87146263700004,-6.982876168999951,0],[113.87142054000003,-6.9828700539999318,0],[113.87135508400002,-6.982860561999928,0],[113.87133366800003,-6.9831832169999757,0],[113.87120751900011,-6.9832340539999791,0],[113.87114236000002,-6.9832603119999703,0],[113.87107692500001,-6.9831996339999591,0],[113.87104689900002,-6.9831674249999764,0],[113.8709710390001,-6.9830433049999669,0],[113.87090964900005,-6.9830190339999376,0],[113.87075545900007,-6.9830275999999571,0],[113.8706326790001,-6.9830575819999581,0],[113.87062411300008,-6.9831118329999526,0],[113.87058128300009,-6.9831275379999624,0],[113.87035713800003,-6.9832274749999783,0],[113.87033191800003,-6.9832783519999566,0],[113.87044445200002,-6.9834372959999769,0],[113.87045127500005,-6.9834573539999383,0],[113.87047991800011,-6.9835415639999496,0],[113.87044785600006,-6.9835430379999366,0],[113.87035571000001,-6.9835472749999781,0],[113.87021865300005,-6.9835843939999336,0],[113.86993882800004,-6.9836986079999406,0],[113.86995523000007,-6.983754843999975,0],[113.86997880300009,-6.9838356649999582,0],[113.86992335900004,-6.9838620979999746,0],[113.86985255500008,-6.9838958529999786,0],[113.86982006700009,-6.9839113419999421,0],[113.86974223900006,-6.9839484459999426,0],[113.86973324300004,-6.9839527349999457,0],[113.8696675110001,-6.9840134379999768,0],[113.86960119900004,-6.9840272369999639,0],[113.86959764100004,-6.9840279769999256,0],[113.86954627800003,-6.9840386659999467,0],[113.86942219100001,-6.9840644879999445,0],[113.86938130400006,-6.983962389999931,0],[113.86903376600003,-6.9838807169999768,0],[113.8686964530001,-6.9837479899999266,0],[113.86845113200002,-6.9837479899999266,0],[113.86745963200008,-6.9836969419999377,0],[113.86674411500007,-6.9834621229999811,0],[113.86593188000006,-6.9831442009999591,0],[113.86583103600003,-6.9831047279999439,0],[113.86527906600008,-6.9830230509999751,0],[113.8649724170001,-6.9830638899999258,0],[113.86485007800002,-6.9830791639999461,0],[113.86481882600003,-6.9830830659999492,0],[113.86478103600007,-6.9830480229999807,0],[113.86475199100005,-6.9830289569999309,0],[113.86471303500002,-6.9830110369999261,0],[113.86466301000007,-6.9829999599999724,0],[113.8646460330001,-6.9829790179999804,0],[113.86459503000003,-6.982880955999974,0],[113.86450199500007,-6.9828350009999554,0],[113.86442399500004,-6.9827969939999548,0],[113.86438399500003,-6.9827789899999289,0],[113.86433699200006,-6.9827620229999638,0],[113.86422900400009,-6.9827340439999261,0],[113.86419530700005,-6.9827904409999633,0],[113.8639900070001,-6.9831340359999672,0],[113.8638739910001,-6.98336698199995,0],[113.86386097700006,-6.9834219829999711,0],[113.86385001500003,-6.9834950369999547,0],[113.86381701000005,-6.9835730129999547,0],[113.86377402800008,-6.9836410219999721,0],[113.86372497700006,-6.9836919959999477,0],[113.86369331000003,-6.9837123839999435,0],[113.86364360000005,-6.983788767999954,0],[113.86341141500009,-6.9837114639999527,0],[113.8633676180001,-6.9836968829999364,0],[113.86330628500002,-6.983788767999954,0],[113.86327562200006,-6.9840235869999674,0],[113.8633676180001,-6.9840133789999754,0],[113.86333051300005,-6.9841122009999594,0],[113.86330628500002,-6.9841767299999447,0],[113.86327094900003,-6.9841767299999447,0],[113.86323473500011,-6.9841767299999447,0],[113.86312229500004,-6.9844830189999811,0],[113.86302007900008,-6.9845851129999801,0],[113.86263165700007,-6.9846872109999367,0],[113.86251921900009,-6.9848505629999522,0],[113.8624578890001,-6.9850292289999629,0],[113.8623965590001,-6.9852078959999631,0],[113.8622636770001,-6.9851772669999264,0],[113.86223261100008,-6.9851743629999419,0],[113.86222998900007,-6.9851730229999589,0],[113.86214397200001,-6.9851039909999599,0],[113.86207698300007,-6.9850129849999689,0],[113.86201702700009,-6.9848770389999686,0],[113.86195698900008,-6.9847889679999753,0],[113.86191897500009,-6.9847539699999288,0],[113.86181199400005,-6.9847200229999657,0],[113.86170499400009,-6.9847319639999341,0],[113.86162701600006,-6.984758994999936,0],[113.86152002000006,-6.9848570219999715,0],[113.86143696800002,-6.9849569809999252,0],[113.86128498000005,-6.9850380269999732,0],[113.86105196300002,-6.9850979789999315,0],[113.8608460050001,-6.9851320179999448,0],[113.86068503200011,-6.9851700309999387,0],[113.86068098800001,-6.9851988919999712,0],[113.86066402200004,-6.9853200189999711,0],[113.86066439500007,-6.9853267909999772,0],[113.86054341300007,-6.9853154559999666,0],[113.86036352600001,-6.9852859509999803,0],[113.86035838800001,-6.9853036259999612,0],[113.8603127020001,-6.9854463929999611,0],[113.86028034100002,-6.9855720289999681,0],[113.86026298400009,-6.9859880139999291,0],[113.86002600000006,-6.9864380389999496,0],[113.8598010290001,-6.9865089579999449,0],[113.85981101700008,-6.9868030159999535,0],[113.85971900000004,-6.9870350039999494,0],[113.85926827600008,-6.9873432379999372,0],[113.85924600600003,-6.9873339609999334,0],[113.85783496800002,-6.9867459969999572,0],[113.85780397000008,-6.9867369709999707,0],[113.85772403500005,-6.9867610319999471,0],[113.85770004400001,-6.9867734189999737,0],[113.85768423400009,-6.9867668389999267,0],[113.85701647600001,-6.9872432439999557,0],[113.85697851000009,-6.9872703309999338,0],[113.85560925200002,-6.9874668769999744,0],[113.85507766900002,-6.9875584209999602,0],[113.85474772100008,-6.9874211059999425,0],[113.85437922000006,-6.9873597629999722,0],[113.85419780800009,-6.9873295639999355,0],[113.85386785900005,-6.9876408099999594,0],[113.85350125100001,-6.9877689719999694,0],[113.85259389300006,-6.987915442999963,0],[113.85256639700003,-6.9877140459999509,0],[113.85252973500008,-6.9874485689999801,0],[113.85252057000002,-6.9871098569999504,0],[113.85244948800005,-6.9868915269999547,0],[113.85241300600001,-6.9865096699999754,0],[113.85233137600005,-6.9863729049999392,0],[113.85232547600003,-6.9861534549999647,0],[113.85214416100007,-6.9860635119999301,0],[113.85202280800002,-6.9859621469999524,0],[113.85184863200004,-6.9857951089999801,0],[113.85187718600002,-6.985809384999925,0],[113.8517929520001,-6.9857265799999482,0],[113.85167873800003,-6.9856751839999447,0],[113.85157451800001,-6.9856352089999518,0],[113.85145316600006,-6.9856023719999598,0],[113.85136464900006,-6.9855338439999741,0],[113.85131325300006,-6.9855181399999537,0],[113.85124044200006,-6.9855167119999351,0],[113.85117191300003,-6.9855395549999457,0],[113.85108482500004,-6.9855495489999271,0],[113.85094491200005,-6.9855481209999652,0],[113.85086639100007,-6.9855481209999652,0],[113.850759315,-6.9855181399999537,0],[113.85073789900002,-6.9855081459999724,0],[113.85066997600006,-6.9854508869999563,0],[113.85066498700007,-6.9854500019999364,0],[113.85063896200006,-6.9855850249999776,0],[113.85064299600003,-6.9857339579999689,0],[113.85064799200006,-6.9859429559999739,0],[113.85057702400002,-6.9861179969999512,0],[113.85053202200004,-6.9862219709999636,0],[113.8504790070001,-6.9862709809999615,0],[113.85033100500004,-6.986370969999939,0],[113.85024396600011,-6.9864900129999796,0],[113.85010502900002,-6.9868180359999315,0],[113.84998399400001,-6.9869750429999726,0],[113.84983097200006,-6.9869599789999484,0],[113.84981600700007,-6.9869759679999675,0],[113.84985500000005,-6.9870860279999647,0],[113.84965302900002,-6.9871019739999269,0],[113.84959198400009,-6.9871179709999751,0],[113.84928202800006,-6.9872790109999414,0],[113.84889959000009,-6.9874831119999499,0],[113.84849501300005,-6.9876990279999518,0],[113.84756100700008,-6.9886809869999524,0],[113.84705002500004,-6.9891869569999585,0],[113.84668602000011,-6.9895960129999253,0],[113.84648901300011,-6.9897919599999341,0],[113.84619228400004,-6.9901468399999658,0],[113.84586772900002,-6.990447354999958,0],[113.84584299700009,-6.9904702559999805,0],[113.84556006500009,-6.9905123949999393,0],[113.84549218300003,-6.9905225049999444,0],[113.84539565800003,-6.9905368809999686,0],[113.84534227800009,-6.9905451849999736,0],[113.84505815500006,-6.9905893819999392,0],[113.84496735500011,-6.9906035059999567,0],[113.84434869500001,-6.9910698799999409,0],[113.84394894700006,-6.9911936119999609,0],[113.84321532700005,-6.9914499379999597,0],[113.8427295680001,-6.9916196609999588,0],[113.84243552900011,-6.991722397999979,0],[113.84236898500001,-6.9917456479999487,0],[113.8422705910001,-6.9917601169999557,0],[113.84172177100004,-6.9918408249999402,0],[113.84151146400006,-6.9919253529999423,0],[113.84100416900003,-6.9921292489999587,0],[113.84073932600006,-6.9922356969999555,0],[113.84069598200006,-6.9923972379999668,0],[113.84068355800002,-6.992443537999975,0],[113.84068013000001,-6.9924563149999699,0],[113.8406612660001,-6.9925266219999571,0],[113.84061843600011,-6.9927205479999657,0],[113.84058869300009,-6.9928859199999351,0],[113.84058988200002,-6.993096502999947,0],[113.84062319500003,-6.993272582999964,0],[113.8406500210001,-6.9933776049999778,0],[113.84067911200009,-6.993491492999965,0],[113.84073615200009,-6.9936455249999767,0],[113.84082963900005,-6.9938979769999605,0],[113.84088484800009,-6.9940258539999718,0],[113.84090502800007,-6.994074034999926,0],[113.84116671800007,-6.9946135129999334,0],[113.84125523400007,-6.9947919729999626,0],[113.84130234800011,-6.9948904819999598,0],[113.84124919100009,-6.995182313999976,0],[113.8411615760001,-6.9957728249999604,0],[113.84114164000005,-6.9959009929999638,0],[113.8409759860001,-6.9969659669999373,0],[113.84087903200009,-6.9975299569999265,0],[113.84088898700008,-6.9976100209999572,0],[113.84092611600011,-6.9977231159999747,0],[113.84093297000004,-6.9977439919999256,0],[113.8410099670001,-6.9978989879999745,0],[113.84106900300003,-6.9980559919999337,0],[113.84111200900008,-6.9980650349999678,0],[113.84119797200003,-6.998050965999937,0],[113.8412010190001,-6.9985419949999255,0],[113.84120598600009,-6.9986849619999703,0],[113.84136916700004,-6.9992856199999665,0],[113.8414460030001,-6.999570035999966,0],[113.84153798700004,-6.9998359609999738,0],[113.84161499200002,-7.0001279949999571,0],[113.8417020170001,-7.000374977999968,0],[113.84175191400004,-7.0004636859999323,0],[113.84194503500009,-7.0008070149999639,0],[113.84219297600009,-7.0009189739999442,0],[113.84224579800002,-7.0009409409999535,0],[113.84276703600005,-7.0011730429999375,0],[113.84317103400008,-7.00139398999994,0],[113.84309096600009,-7.0018149719999769,0],[113.84322559900011,-7.0019347679999555,0],[113.84337001100005,-7.002100994999978,0],[113.84340158400005,-7.0021148999999809,0],[113.84341987400001,-7.0025615509999284,0],[113.84394632100009,-7.0023611209999785,0],[113.8440006620001,-7.0023125199999754,0],[113.84403615500003,-7.0022807749999743,0],[113.84417578600005,-7.0023538839999446,0],[113.84445402300003,-7.0024759979999658,0],[113.84457098100006,-7.0025466719999372,0],[113.84464599100011,-7.0025919979999571,0],[113.84487699500005,-7.0026039679999599,0],[113.84510399300007,-7.0026559819999648,0],[113.84520098600001,-7.0026160089999507,0],[113.84555998400003,-7.0027199759999803,0],[113.84569399400004,-7.0027960379999286,0],[113.8457346130001,-7.0028406399999312,0],[113.84584066700006,-7.0029460609999319,0],[113.84587970300004,-7.0030717599999548,0],[113.84590234200004,-7.0031443369999806,0],[113.84589298200001,-7.0032460409999544,0],[113.84587345700004,-7.0034300669999539,0],[113.8458981980001,-7.0035423489999289,0],[113.84579628400002,-7.0035749069999724,0],[113.84570348500006,-7.0036177369999564,0],[113.84567136200008,-7.0037390899999536,0],[113.84569991600006,-7.0038247499999784,0],[113.84567850000008,-7.0039675179999676,0],[113.84562948400003,-7.0042385379999814,0],[113.84565803700002,-7.0044288949999327,0],[113.84561996600007,-7.0046454259999678,0],[113.84559379200005,-7.004704912999955,0],[113.84536377100005,-7.0048649919999662,0],[113.84532158100001,-7.0050204289999556,0],[113.84526885700006,-7.0051334089999386,0],[113.84522229800007,-7.0054085189999569,0],[113.84527286200012,-7.0056762089999438,0],[113.84527845600007,-7.0057037509999418,0],[113.84531152800002,-7.0058665659999519,0],[113.84522625900001,-7.0058707709999339,0],[113.84511248600006,-7.0058787309999389,0],[113.8450125490001,-7.0063950739999541,0],[113.84476508500006,-7.0065330819999758,0],[113.8446937010001,-7.0066520559999503,0],[113.84498242500001,-7.0069084389999716,0],[113.84493983900006,-7.0069439389999388,0],[113.84446537500003,-7.0073394549999648,0],[113.84449562700001,-7.007362852999961,0],[113.84462717500003,-7.0074402699999609,0],[113.84490965300006,-7.0076065099999596,0],[113.8449101870001,-7.0076260669999328,0],[113.84491164200006,-7.0076793449999286,0],[113.84491266000009,-7.0077166269999793,0],[113.84491439400006,-7.0077801149999459,0],[113.84497699100007,-7.0078185199999439,0],[113.84497376500008,-7.007828017999941,0],[113.84496598300007,-7.0078509319999398,0],[113.8449619590001,-7.0078627809999716,0],[113.8449427270001,-7.0079194089999532,0],[113.84503409900003,-7.008016490999978,0],[113.84502346000011,-7.0080404169999611,0],[113.84489557400002,-7.0083280309999623,0],[113.84487171300009,-7.0084130539999592,0],[113.84485772100004,-7.0084629099999347,0],[113.84481000500011,-7.0086480779999647,0],[113.84466641200004,-7.0092053019999412,0],[113.84472943100002,-7.0092303699999547,0],[113.84492482200005,-7.0093080939999481,0],[113.84500477200004,-7.009348068999941,0],[113.84502585300004,-7.0093654109999761,0],[113.84505753600001,-7.0093914749999726,0],[113.84505448100003,-7.0093966139999679,0],[113.84503508800003,-7.0094292349999705,0],[113.84519498800012,-7.0095434489999775,0],[113.84517357300001,-7.0096148329999437,0],[113.84505532100002,-7.0098047189999306,0],[113.84524423300002,-7.0099923699999636,0],[113.84537886500004,-7.0101261049999266,0],[113.84560919600005,-7.0102269949999254,0],[113.84566699600009,-7.0102542539999604,0],[113.84570980400008,-7.0102241079999317,0],[113.8458262040001,-7.0101421349999669,0],[113.84589745400001,-7.0101070119999349,0],[113.8460796170001,-7.0100172139999586,0],[113.84609083700002,-7.0100132849999568,0],[113.84626068200009,-7.0099538109999457,0],[113.84651631700001,-7.0098378319999597,0],[113.84659803400007,-7.0097805299999436,0],[113.84663674300009,-7.0097690269999475,0],[113.84669102100008,-7.0097756879999338,0],[113.84670201200004,-7.0097770369999353,0],[113.84680731000003,-7.0098307139999747,0],[113.84686643500004,-7.0098881499999379,0],[113.84682279200001,-7.0102337739999712,0],[113.84685215500008,-7.0102518039999495,0],[113.84697752200009,-7.0103287829999772,0],[113.84709118500007,-7.0103624679999257,0],[113.8471647340001,-7.0103788139999779,0],[113.8472199900001,-7.0103729509999653,0],[113.84734848100004,-7.010398648999967,0],[113.84765210100011,-7.0104538519999551,0],[113.84799516800001,-7.0104478139999742,0],[113.84814681500006,-7.0104105039999354,0],[113.84829498000011,-7.0103740509999284,0],[113.84832502400002,-7.0103759279999736,0],[113.84848689500006,-7.0103567699999303,0],[113.8485306770001,-7.0103586739999741,0],[113.84862395200003,-7.0103843719999759,0],[113.84885713900007,-7.010389130999954,0],[113.84893042600004,-7.01039674499998,0],[113.84914838500003,-7.0104519489999575,0],[113.84920263700008,-7.0104652739999551,0],[113.84924371200009,-7.0104849389999799,0],[113.84925849500007,-7.0104920149999543,0],[113.84915563100003,-7.0105939029999718,0],[113.84908281900005,-7.0107281049999415,0],[113.84905854900001,-7.0108466019999582,0],[113.84903159200007,-7.0109255119999716,0],[113.84898002700004,-7.0110764579999341,0],[113.84891720900009,-7.0113177349999773,0],[113.84883725900011,-7.0115218929999514,0],[113.84878871900003,-7.0117460379999557,0],[113.84871447900002,-7.0121400759999801,0],[113.84864024000001,-7.0125284039999656,0],[113.8486385870001,-7.0125381619999416,0],[113.84852221900007,-7.0132251109999402,0],[113.84845369000004,-7.0135734639999328,0],[113.8483989770001,-7.0139020959999812,0],[113.8483950320001,-7.0139217239999425,0],[113.84837263000009,-7.0140331759999412,0],[113.84832175500003,-7.0140192079999792,0],[113.8482756090001,-7.0140065379999328,0],[113.8482146340001,-7.0140293679999672,0],[113.84807376900005,-7.0140274649999697,0],[113.84802998700002,-7.0140274649999697,0],[113.84797859100001,-7.0141169329999684,0],[113.84793100200011,-7.0142140149999364,0],[113.84795574800012,-7.0143263249999563,0],[113.84798239800011,-7.0144119859999705,0],[113.84786628000006,-7.0146132879999641,0],[113.84792949000007,-7.0146189109999568,0],[113.8482801560001,-7.0146501079999553,0],[113.84830539300003,-7.0145573949999402,0],[113.84877512900005,-7.0146572579999429,0],[113.84883663300002,-7.0146686709999813,0],[113.84883336000007,-7.0146902739999746,0],[113.84880736200012,-7.0148618649999435,0],[113.84886758900006,-7.014880077999976,0],[113.8489484270001,-7.0149045239999737,0],[113.84899590800001,-7.0149158399999578,0],[113.84900630400011,-7.0149179729999673,0],[113.84911698000008,-7.0149406749999343,0],[113.84921853300011,-7.0147240049999482,0],[113.84940597500008,-7.0147504089999302,0],[113.84946190700009,-7.0147569289999296,0],[113.84953602000007,-7.0147759649999557,0],[113.84961702100009,-7.0145339279999348,0],[113.84973366100007,-7.0145530379999741,0],[113.84990795700003,-7.0145899199999349,0],[113.85006321700007,-7.0145893249999745,0],[113.85016817500002,-7.0145967039999277,0],[113.85017055500009,-7.0145586319999325,0],[113.850225378,-7.0145593889999418,0],[113.85027623300005,-7.0145600919999538,0],[113.85026454400008,-7.0146454829999811,0],[113.85026335400005,-7.0147299539999608,0],[113.85027895500002,-7.0148129949999429,0],[113.85033418000012,-7.0148004909999599,0],[113.85048073300004,-7.0147673089999785,0],[113.85094710800001,-7.0149329189999321,0],[113.85090202300012,-7.0150107939999771,0],[113.85073771500004,-7.0152945979999686,0],[113.85083045300007,-7.0153228219999733,0],[113.85096899400003,-7.0153649869999413,0],[113.85130688200002,-7.0154678219999482,0],[113.85129207300008,-7.0155027739999696,0],[113.85124216100007,-7.0156205839999757,0],[113.85112794600002,-7.0157895249999456,0],[113.8512661100001,-7.0158530309999492,0],[113.85157496800002,-7.0159949949999714,0],[113.85164996900005,-7.0158089969999651,0],[113.85172413400005,-7.0158396829999674,0],[113.85180862000004,-7.0158746399999359,0],[113.85181576700006,-7.0158775969999283,0],[113.85191771500001,-7.0159197789999439,0],[113.85220573800007,-7.0160389499999383,0],[113.85259817100007,-7.0162013209999259,0],[113.85271867600011,-7.0162266519999434,0],[113.85283996700002,-7.0162602359999369,0],[113.85304083900007,-7.0163432879999732,0],[113.85313133000011,-7.0163639969999281,0],[113.85327997500008,-7.0163980149999361,0],[113.85368295000001,-7.0164936419999435,0],[113.85367172400004,-7.0166158689999634,0],[113.85369499700005,-7.0166265829999475,0],[113.85369355300008,-7.0166338479999695,0],[113.85365002300011,-7.0168528529999321,0],[113.85357269000008,-7.0170848499999465,0],[113.85355781800001,-7.0172811559999673,0],[113.85355187000005,-7.0174834099999543,0],[113.85358391300008,-7.0175211879999324,0],[113.85371377900003,-7.0176742919999811,0],[113.85362920300008,-7.0179027899999369,0],[113.85369696500004,-7.0179779699999472,0],[113.85366489400008,-7.0181912999999554,0],[113.85364974900006,-7.0182296839999481,0],[113.85356971600004,-7.0184325179999405,0],[113.85357317300009,-7.0185033849999741,0],[113.85348478200001,-7.01851372699997,0],[113.85341624000012,-7.0185217469999657,0],[113.8534376560001,-7.0186680839999553,0],[113.85339482500001,-7.0187822989999518,0],[113.85331273400004,-7.0189179279999507,0],[113.85323778100008,-7.0191606329999559,0],[113.8532268670001,-7.019174904999943,0],[113.85314498100001,-7.0192819849999637,0],[113.85352532100001,-7.0195129839999595,0],[113.85355781800001,-7.0195327209999618,0],[113.85370843800001,-7.0197377709999387,0],[113.8539285380001,-7.0198924359999637,0],[113.85389284600001,-7.0200262809999572,0],[113.85385120600006,-7.0203356109999504,0],[113.85383320700009,-7.0204436199999805,0],[113.85375647300009,-7.0209040969999705,0],[113.85374863900006,-7.0209511069999735,0],[113.85390115500002,-7.0210251489999678,0],[113.85404749200006,-7.0210965319999445,0],[113.85442939500001,-7.0212214549999317,0],[113.85460448400011,-7.0212576419999664,0],[113.85451659100011,-7.0217662039999595,0],[113.85450021300005,-7.0218609729999457,0],[113.85466761100008,-7.0218856729999288,0],[113.85483131700005,-7.0219227929999306,0],[113.85492649600008,-7.0219313589999501,0],[113.85499450900011,-7.0219204559999753,0],[113.85505118000003,-7.0219113709999306,0],[113.85518544700005,-7.0219534459999409,0],[113.85524613700011,-7.0218889649999596,0],[113.85524806400008,-7.0218860739999513,0],[113.85529372600001,-7.0218175809999366,0],[113.85532465900008,-7.0215558399999622,0],[113.85568157900002,-7.0216557779999675,0],[113.85572202900005,-7.0215106299999661,0],[113.85608370700004,-7.0215843929999551,0],[113.85615509100001,-7.0215867729999673,0],[113.8563716220001,-7.0216486389999773,0],[113.85689272400009,-7.0217533349999712,0],[113.85674483600008,-7.0222621749999803,0],[113.85669467800005,-7.0224347559999387,0],[113.85643672900005,-7.0230386689999591,0],[113.85631299600004,-7.0232361639999681,0],[113.8559275230001,-7.0238881359999255,0],[113.85559202000002,-7.0244663449999507,0],[113.85514289600007,-7.0252753619999453,0],[113.85484843800009,-7.0257869459999256,0],[113.85494064400007,-7.02581407699995,0],[113.85513669500006,-7.0258717659999661,0],[113.85559200700004,-7.0259979849999468,0],[113.85599013100011,-7.0261423589999481,0],[113.85627598500002,-7.0262460199999737,0],[113.8568560110001,-7.0264939649999292,0],[113.85694646700006,-7.026542003999964,0],[113.85730183100009,-7.0266995979999365,0],[113.8577224500001,-7.026853995999943,0],[113.85779531100002,-7.0267054869999583,0],[113.85785238800008,-7.0267321059999404,0],[113.85821980700007,-7.0269034589999251,0],[113.85820368400005,-7.0269796759999394,0],[113.85815699000011,-7.027200415999971,0],[113.85812046400008,-7.0274504169999545,0],[113.85809964400005,-7.027750823999952,0],[113.85809807900011,-7.0278285399999731,0],[113.85809072100005,-7.0281939989999387,0],[113.85808321900004,-7.0283302829999457,0],[113.85807287500006,-7.0285181999999509,0],[113.85807287500006,-7.0285985069999697,0],[113.85809173200005,-7.0286853849999602,0],[113.85815504300001,-7.0286863429999471,0],[113.85819698300008,-7.0286869769999498,0],[113.85865702400008,-7.0288119869999264,0],[113.85913802800007,-7.0289140159999306,0],[113.85935758000005,-7.0290009689999806,0],[113.85951547900004,-7.0290635049999537,0],[113.85959125000011,-7.0291164279999521,0],[113.85962337300009,-7.0291544989999579,0],[113.85965073700004,-7.0291866219999406,0],[113.85969475700006,-7.0292092269999671,0],[113.85971379300008,-7.0292294519999814,0],[113.85974591500008,-7.0292603849999296,0],[113.85976082500008,-7.0292707069999665,0],[113.85979337000003,-7.0292776899999581,0],[113.85988506600006,-7.0292548799999395,0],[113.85993057700011,-7.0292435589999513,0],[113.85994292900011,-7.029224438999961,0],[113.85993389300006,-7.0291568779999807,0],[113.85992913400003,-7.0291057199999614,0],[113.85992437500011,-7.0290724079999336,0],[113.8599172370001,-7.0290426639999737,0],[113.85991485700004,-7.0290164899999468,0],[113.85991842600004,-7.0289938849999771,0],[113.85994103100006,-7.0289748499999405,0],[113.85996125700001,-7.0289712799999506,0],[113.85998148200008,-7.0289712799999506,0],[113.86000289700007,-7.0289700909999624,0],[113.86002431200006,-7.0289677109999502,0],[113.86006844500002,-7.028974772999959,0],[113.86011603000009,-7.0289899729999661,0],[113.86012696800003,-7.0290349819999278,0],[113.86013897000009,-7.029156043999933,0],[113.86033459400005,-7.0291490259999705,0],[113.86036029200011,-7.0291533089999803,0],[113.86038313500001,-7.0291561649999608,0],[113.86042882100003,-7.0291418879999696,0],[113.86048735500003,-7.0291418879999696,0],[113.86051448100011,-7.0291418879999696,0],[113.86056873300004,-7.0291418879999696,0],[113.86059074800005,-7.0291379039999811,0],[113.86064368600012,-7.029128324999931,0],[113.86065463200009,-7.0290676489999555,0],[113.86066510100011,-7.0289800839999543,0],[113.86067842600005,-7.0289039419999426,0],[113.86068436800008,-7.0288374469999439,0],[113.8606793780001,-7.0288059079999812,0],[113.86066605300005,-7.0287735469999575,0],[113.86066605300005,-7.0287583189999623,0],[113.86066605300005,-7.0287449939999647,0],[113.86067081200008,-7.0287269099999321,0],[113.86067652300005,-7.0287135849999345,0],[113.86068699200007,-7.028710728999954,0],[113.86069365500009,-7.028710728999954,0],[113.86073171300006,-7.0287336289999303,0],[113.86074198100005,-7.0287360229999649,0],[113.86081435700009,-7.0287719939999533,0],[113.86086402400008,-7.0287783059999356,0],[113.8608849630001,-7.0287735469999575,0],[113.86090304700008,-7.0287687879999794,0],[113.86091827600001,-7.0287630779999404,0],[113.86094016700008,-7.0287554629999249,0],[113.86097062400006,-7.0287440419999712,0],[113.86099251500002,-7.0287449939999647,0],[113.86101440600009,-7.0287516559999403,0],[113.86102773100004,-7.0287573669999688,0],[113.86104200800003,-7.028764980999938,0],[113.86107817600009,-7.0287716439999599,0],[113.86112576500011,-7.0287716439999599,0],[113.86116098100001,-7.028776402999938,0],[113.86121999200009,-7.0287878239999486,0],[113.86138302900008,-7.0288529689999564,0],[113.86146312200003,-7.0288805439999464,0],[113.86154645400006,-7.028890616999945,0],[113.86161593400004,-7.0289182179999443,0],[113.86167780000005,-7.0289467719999266,0],[113.8617054020001,-7.0289610489999745,0],[113.8617089710001,-7.0289838919999283,0],[113.8617089710001,-7.029002926999965,0],[113.86170183200011,-7.0290255319999346,0],[113.86169350400007,-7.0290409989999603,0],[113.86168517600004,-7.0290624139999522,0],[113.86167327900012,-7.0290873979999446,0],[113.86163629800001,-7.0292599089999612,0],[113.86164343600001,-7.0293550879999316,0],[113.86164581600008,-7.0294074359999286,0],[113.86163867700009,-7.0294526449999353,0],[113.86162916000001,-7.0294978549999314,0],[113.86163153900009,-7.0295264089999705,0],[113.86163867700009,-7.0295454439999503,0],[113.86165057500011,-7.0295930339999586,0],[113.8616934050001,-7.0296311049999645,0],[113.86176431300009,-7.0296729839999443,0],[113.86179001100004,-7.0296729839999443,0],[113.86181999200005,-7.0296729839999443,0],[113.86184283500006,-7.0296729839999443,0],[113.86188281000011,-7.0296729839999443,0],[113.86190850800006,-7.0296729839999443,0],[113.86192992400004,-7.0296729839999443,0],[113.86198988600006,-7.0296829769999363,0],[113.86202986100011,-7.0296829769999363,0],[113.86204556500002,-7.029687259999946,0],[113.8620512760001,-7.0296929709999745,0],[113.86205698700007,-7.0297043919999282,0],[113.86205738300009,-7.0297253649999334,0],[113.8620584140001,-7.0297800589999611,0],[113.86206412500007,-7.0298057569999628,0],[113.86207411900011,-7.0298457319999557,0],[113.86208554000007,-7.029877140999929,0],[113.86210695500006,-7.0299171159999787,0],[113.86212976200011,-7.0299329049999528,0],[113.86216263500012,-7.0299556629999529,0],[113.86219118800011,-7.0299942109999733,0],[113.86222259700003,-7.0300170539999272,0],[113.8622425850001,-7.0300427519999289,0],[113.86226685500003,-7.0300927199999705,0],[113.86229254700004,-7.0301514719999432,0],[113.86229709800011,-7.0301618789999338,0],[113.86231059700003,-7.0301807879999387,0],[113.86234630900003,-7.0301996859999463,0],[113.86262653500012,-7.0301093829999672,0],[113.86284193000006,-7.030039970999951,0],[113.86285980900004,-7.0300342099999398,0],[113.86286652400008,-7.0300170819999721,0],[113.86287185600008,-7.0300034819999269,0],[113.86283935400002,-7.0299542359999805,0],[113.86280651700008,-7.0299028389999307,0],[113.86279366800011,-7.0298742859999379,0],[113.86277653600007,-7.0298414489999459,0],[113.86276939700008,-7.0298057569999628,0],[113.8627708250001,-7.0297743489999789,0],[113.862786529,-7.0297315179999487,0],[113.86280366200003,-7.0296986819999461,0],[113.86282793200007,-7.029662989999963,0],[113.86287647300003,-7.0296272979999799,0],[113.86290359900011,-7.0296158759999798,0],[113.86295642300001,-7.029594460999931,0],[113.86298069400004,-7.0295887509999488,0],[113.86299497000005,-7.0295887509999488,0],[113.86305032100006,-7.0295882689999303,0],[113.86306635400001,-7.029548775999956,0],[113.86308063100012,-7.029515938999964,0],[113.86309062500004,-7.0294859579999525,0],[113.86310918400011,-7.0294802469999809,0],[113.86313488300004,-7.0294816749999427,0],[113.86316629100008,-7.0294916689999809,0],[113.86320769400004,-7.0295002349999436,0],[113.86324481400004,-7.0295002349999436,0],[113.86329192700009,-7.0294959519999338,0],[113.86332476400003,-7.029494523999972,0],[113.8633590280001,-7.0294873859999711,0],[113.86339329200007,-7.0294673979999516,0],[113.86342327300008,-7.0294702529999427,0],[113.86345325400009,-7.0294988069999249,0],[113.86348466300001,-7.0295202219999737,0],[113.86349894000011,-7.0295302159999551,0],[113.8635339970001,-7.029574886999967,0],[113.86354977300005,-7.029588596999929,0],[113.86361016000001,-7.0296244429999319,0],[113.86361729800001,-7.0296387189999336,0],[113.86361729800001,-7.0296446679999463,0],[113.86361729800001,-7.0296648929999606,0],[113.86359180200009,-7.0297018369999478,0],[113.86358090700003,-7.0297378049999679,0],[113.86354605300005,-7.0298528709999459,0],[113.86355319200004,-7.0298714309999468,0],[113.86358317300005,-7.0298957009999299,0],[113.86361315400006,-7.029891417999977,0],[113.86365455700002,-7.0298799969999664,0],[113.86368453800003,-7.0298899899999583,0],[113.86371023600009,-7.0299056949999681,0],[113.86371880200011,-7.0299199719999592,0],[113.8637330790001,-7.0299542359999805,0],[113.86374307300002,-7.0299813619999441,0],[113.86375306700006,-7.030002776999936,0],[113.86379999100006,-7.0300403159999405,0],[113.86383389700006,-7.0300476969999295,0],[113.86385443200004,-7.0300470349999387,0],[113.86388155700001,-7.0300470349999387,0],[113.86389869000004,-7.0300470349999387,0],[113.86393723700007,-7.0300541729999395,0],[113.86396008000008,-7.0300641669999777,0],[113.86398393400009,-7.0300785169999358,0],[113.86400433800009,-7.0301027139999519,0],[113.86402289700004,-7.0301284119999536,0],[113.86403003600003,-7.0301355509999439,0],[113.86405145100002,-7.0301798089999465,0],[113.86406572800001,-7.0302197839999394,0],[113.86406712400003,-7.0302699289999282,0],[113.86405436200005,-7.0304219239999384,0],[113.86403003600003,-7.0305331589999582,0],[113.86401718700006,-7.0305816999999706,0],[113.86400719300002,-7.0306102529999634,0],[113.86400719300002,-7.0306602219999377,0],[113.8640159790001,-7.030670544999964,0],[113.86403319800002,-7.030673988999979,0],[113.8640785770001,-7.0306830649999483,0],[113.86415281600011,-7.0306844919999776,0],[113.86418422500003,-7.0306844919999776,0],[113.86422991100005,-7.0306873479999581,0],[113.86427845200001,-7.0306930579999403,0],[113.86434126900008,-7.0307044799999403,0],[113.8643869550001,-7.0307044799999403,0],[113.86442835800005,-7.0307073349999314,0],[113.86446404900005,-7.0307101909999687,0],[113.86449545800008,-7.0307116179999412,0],[113.86452544000008,-7.0307244669999704,0],[113.86454685500007,-7.0307344609999518,0],[113.86456684200004,-7.0307530209999527,0],[113.86459396800001,-7.0307701529999349,0],[113.86460396200005,-7.030787284999974,0],[113.86461538300011,-7.0307972789999553,0],[113.86463394300006,-7.0308172659999286,0],[113.86464822000005,-7.0308301149999579,0],[113.86467962900008,-7.0308301149999579,0],[113.86471103800011,-7.0308172659999286,0],[113.86473102500008,-7.0308115559999464,0],[113.86474530200007,-7.0308072729999367,0],[113.86476814500008,-7.0307944229999748,0],[113.86479241500001,-7.030790139999965,0],[113.86480240900005,-7.030790139999965,0],[113.86482810700011,-7.0308015619999651,0],[113.86484523900003,-7.0308144109999375,0],[113.86488093100002,-7.0308315429999766,0],[113.86490234600001,-7.0308401089999393,0],[113.86494374900008,-7.0308472479999296,0],[113.86496373600005,-7.0308529579999686,0],[113.86497658500002,-7.0308600969999588,0],[113.86498657900006,-7.0308758009999792,0],[113.8649821140001,-7.0309176019999313,0],[113.86499086200001,-7.0309429019999357,0],[113.86500228400007,-7.0309514679999552,0],[113.86501798800009,-7.0309643169999276,0],[113.86503369200011,-7.0309685999999374,0],[113.86506081800007,-7.0309785939999756,0],[113.86509651000006,-7.0309900149999294,0],[113.86511649800002,-7.0310014369999294,0],[113.86512934700011,-7.0310057199999392,0],[113.86515361700003,-7.0310085749999303,0],[113.86520202800011,-7.0310052469999391,0],[113.86521848600012,-7.0310084029999302,0],[113.86528639100004,-7.0310214239999596,0],[113.86533493200011,-7.03101285799994,0],[113.86536412100008,-7.030992198999968,0],[113.86543724900002,-7.0309847799999261,0],[113.8655476560001,-7.030988587999957,0],[113.86563331700006,-7.0309962019999261,0],[113.86567329200011,-7.0310152369999628,0],[113.86576656600005,-7.0310190449999368,0],[113.86581415600006,-7.0310114299999782,0],[113.86586555200006,-7.0310247549999758,0],[113.86591504500007,-7.0310266589999628,0],[113.86595692300011,-7.031041886999958,0],[113.86599118800007,-7.031041886999958,0],[113.86601783800006,-7.031041886999958,0],[113.8660959020001,-7.0310622859999512,0],[113.86611587100003,-7.0311156509999364,0],[113.86611777600001,-7.031140412999946,0],[113.86611872700007,-7.0311527699999488,0],[113.86611872700007,-7.031195600999979,0],[113.86612158200001,-7.0312455689999638,0],[113.86612872000001,-7.0312826889999656,0],[113.86614157000008,-7.03131695299993,0],[113.8661572740001,-7.0313626389999513,0],[113.86617155100009,-7.0313926199999628,0],[113.86618440000007,-7.0314126069999361,0],[113.8662229470001,-7.0314668589999769,0],[113.86625258900006,-7.0314885969999636,0],[113.86626577700008,-7.0314982679999503,0],[113.86631431800004,-7.0315268219999325,0],[113.86631574600005,-7.0315496639999537,0],[113.8663186010001,-7.0315896389999466,0],[113.86631289100001,-7.0316153379999378,0],[113.8663043250001,-7.0316410359999395,0],[113.8663043250001,-7.0316738719999421,0],[113.86631431800004,-7.031692431999943,0],[113.86635120000005,-7.031713846999935,0],[113.86639165100007,-7.0317197959999476,0],[113.86643686100001,-7.0317305029999488,0],[113.86645589600005,-7.0317305029999488,0],[113.86647850100007,-7.031732882999961,0],[113.86649872700002,-7.0317424009999741,0],[113.86652133100006,-7.0317578669999534,0],[113.86654512600001,-7.0317673849999665,0],[113.86655940300011,-7.0317769029999795,0],[113.86658557700002,-7.0317935589999365,0],[113.86660104300006,-7.0317995079999491,0],[113.86661888900005,-7.0318006979999268,0],[113.86662364800009,-7.0318006979999268,0],[113.86663197600001,-7.0317983179999715,0],[113.86663792500008,-7.031794748999971,0],[113.86664744300003,-7.031785230999958,0],[113.86666269500006,-7.0317623529999764,0],[113.86667599600003,-7.0317424009999741,0],[113.8666783760001,-7.031713846999935,0],[113.8666783760001,-7.0316983809999556,0],[113.86667956600002,-7.031671016999951,0],[113.8666819450001,-7.0316412739999805,0],[113.8666819450001,-7.0316293759999553,0],[113.86669543100004,-7.0316006919999268,0],[113.86678069300001,-7.0316115299999638,0],[113.86679853900011,-7.0316139099999759,0],[113.86681400500004,-7.0316139099999759,0],[113.86681638500011,-7.0316115299999638,0],[113.86682471300003,-7.031587735999949,0],[113.86682828200003,-7.0315746489999356,0],[113.86682828200003,-7.0315639409999449,0],[113.86682709200011,-7.0315389569999525,0],[113.86682709200011,-7.031525869999939,0],[113.86682828200003,-7.0315020749999348,0],[113.86684374800006,-7.0314592449999509,0],[113.86684839600002,-7.0313838679999776,0],[113.86684866600001,-7.0313117179999267,0],[113.86684676200002,-7.0312698399999363,0],[113.86686579800005,-7.031241285999954,0],[113.8668791230001,-7.0312146359999588,0],[113.86690767700009,-7.0311994079999636,0],[113.86692671200001,-7.0311898899999505,0],[113.86696097700008,-7.0311746609999659,0],[113.86699524100004,-7.0311746609999659,0],[113.86701998700005,-7.0311746609999659,0],[113.86708661200009,-7.0311879859999635,0],[113.86714562300006,-7.0311994079999636,0],[113.86720273000003,-7.0312013109999612,0],[113.86727506500006,-7.0312203469999304,0],[113.86733026900004,-7.031231767999941,0],[113.86737405100007,-7.0312527079999541,0],[113.86740641200004,-7.0312736469999777,0],[113.86740260500005,-7.0312907789999599,0],[113.86739739900008,-7.0313228789999584,0],[113.86739118300011,-7.0313612109999326,0],[113.86738166500004,-7.0313935719999563,0],[113.86737595500006,-7.0314107039999385,0],[113.86739118300011,-7.0314411609999752,0],[113.86744125300004,-7.0314603359999523,0],[113.86773753300008,-7.0315215909999438,0],[113.86777399100004,-7.0315395219999459,0],[113.8678023540001,-7.0315534719999278,0],[113.86796035000009,-7.0316315179999265,0],[113.86804791400004,-7.03168291399993,0],[113.86824525500003,-7.0317605699999604,0],[113.86824318200001,-7.0317736509999804,0],[113.86814510900001,-7.0323924769999735,0],[113.8679936640001,-7.033348076999971,0],[113.86802340700001,-7.0334848959999476,0],[113.86817212300002,-7.0335443829999349,0],[113.86848145300007,-7.033651458999941,0],[113.86868965600002,-7.0337555599999746,0],[113.86871946600002,-7.03379777899994,0],[113.86873582700002,-7.0338518679999424,0],[113.86872436300007,-7.0339094649999652,0],[113.86844274700002,-7.0342873689999692,0],[113.86821431900012,-7.0344967619999466,0],[113.86813817600012,-7.0344967619999466,0],[113.86801920300002,-7.0344967619999466,0],[113.8679858910001,-7.0353724039999292,0],[113.8680001670001,-7.0358625729999744,0],[113.86768132000009,-7.0365383399999359,0],[113.86841990400001,-7.0374787029999766,0],[113.86827713700006,-7.0377666169999316,0],[113.86830093100002,-7.037933179999925,0],[113.86888389900002,-7.0385161479999283,0],[113.87031157600006,-7.0399795159999599,0],[113.87070418700011,-7.0397415699999328,0],[113.87222537500008,-7.0410502399999473,0],[113.87228144800008,-7.0410984789999702,0],[113.87232222000011,-7.0411335549999308,0],[113.87355698100009,-7.0413689689999615,0],[113.87376826400009,-7.0410822329999405,0],[113.87414210000009,-7.0405748929999277,0],[113.8758081310001,-7.0383138929999518,0],[113.87606401700009,-7.0379472869999518,0],[113.87638057200002,-7.0374937609999506,0],[113.87656752300006,-7.0372259179999332,0],[113.87704545100007,-7.036541194999927,0],[113.87773249100007,-7.0362128209999355,0],[113.87822446100006,-7.0359299739999415,0],[113.8783922130001,-7.035847882999974,0],[113.87848739200001,-7.0358193289999349,0],[113.87859684700004,-7.0357996979999484,0],[113.878635497,-7.0357907279999381,0],[113.87869760100011,-7.0357557499999643,0],[113.87885107600005,-7.0355844289999254,0],[113.87931507100006,-7.0351168649999636,0],[113.87935554100011,-7.0350765929999284,0],[113.87982148500009,-7.0346129209999617,0],[113.88004675500008,-7.0343887499999482,0],[113.88023246300008,-7.0342012739999404,0],[113.88057739800001,-7.0338530539999624,0],[113.8807194100001,-7.0337096899999665,0],[113.88097023300008,-7.0334564769999588,0],[113.88117105100002,-7.0332537469999465,0],[113.8818083000001,-7.032600901999956,0],[113.88219184000002,-7.0322079739999594,0],[113.88243818000001,-7.0319499019999512,0],[113.88256660500008,-7.0318153619999748,0],[113.88256660500008,-7.0317546859999425,0],[113.88222753200012,-7.0315084119999369,0],[113.88135308000005,-7.0308695269999362,0],[113.88063210300004,-7.0303448559999424,0],[113.88031801400007,-7.0301556879999794,0],[113.8802394920001,-7.0301592579999692,0],[113.88010029300005,-7.0302199339999447,0],[113.87954349900008,-7.0303734089999352,0],[113.8792294110001,-7.0303983929999276,0],[113.87930079400007,-7.0300985809999474,0],[113.87968626700001,-7.0289278869999521,0],[113.88010029300005,-7.029006408999976,0],[113.88041438200003,-7.0291741609999576,0],[113.88105326700008,-7.0294775419999382,0],[113.88156009300008,-7.0297380929999349,0],[113.88231676100008,-7.0301199969999288,0],[113.88292709300003,-7.0303698399999348,0],[113.88336996400005,-7.0305070869999327,0],[113.88338259800003,-7.0305110019999688,0],[113.88345874100003,-7.0304929179999363,0],[113.88351394500012,-7.0304596059999653,0],[113.88359008700002,-7.0303901259999293,0],[113.88373380700011,-7.0302178529999537,0],[113.88381992100005,-7.0301160819999495,0],[113.88382803400009,-7.0301064939999378,0],[113.88389574500002,-7.030026027999952,0],[113.88394715100003,-7.0299649389999672,0],[113.8840114300001,-7.0298588499999255,0],[113.8840125160001,-7.029853161999938,0],[113.88403266700004,-7.0297476709999387,0],[113.8840850150001,-7.0295220979999726,0],[113.88409738900009,-7.0294983039999579,0],[113.88411928000005,-7.0294783159999383,0],[113.8841592550001,-7.029446906999965,0],[113.88416646700011,-7.0294423169999618,0],[113.88419066300003,-7.0294269199999349,0],[113.88421541000002,-7.0294145469999307,0],[113.88423851400012,-7.0294182289999299,0],[113.88441682700011,-7.0294816799999467,0],[113.88455099100008,-7.029563507999967,0],[113.88467832000003,-7.0296667939999793,0],[113.8849282110001,-7.0298694979999254,0],[113.88508654000009,-7.0299921459999268,0],[113.88521759800005,-7.0300354589999756,0],[113.88529561600001,-7.0300368799999546,0],[113.88537649400007,-7.0300123219999477,0],[113.88553070600005,-7.0299654959999316,0],[113.88576770100008,-7.0298960159999524,0],[113.88587144500002,-7.0298817389999613,0],[113.88596281600007,-7.0298836419999589,0],[113.88611129500009,-7.0299150509999322,0],[113.88633306100007,-7.0300159399999416,0],[113.88652724300005,-7.030178464999949,0],[113.88655068600008,-7.0301970599999777,0],[113.88681014100007,-7.0303832479999642,0],[113.88685171200007,-7.0304130779999809,0],[113.88690393400009,-7.0304338569999345,0],[113.88697041900002,-7.0304603099999667,0],[113.88717511600009,-7.0305114029999345,0],[113.88722175000009,-7.0305230429999597,0],[113.88734218400009,-7.0305696899999361,0],[113.88737405900008,-7.0305820359999416,0],[113.88740227400001,-7.03059882499997,0],[113.88747992100002,-7.0306681899999717,0],[113.88758709500007,-7.0307688469999334,0],[113.88764703700008,-7.0308251429999586,0],[113.88766678000002,-7.0308383659999549,0],[113.88778236500002,-7.0308898749999571,0],[113.88802291700006,-7.0309613789999617,0],[113.8882062670001,-7.0310070359999486,0],[113.88853737900001,-7.0311379329999681,0],[113.88874915500003,-7.0312216529999318,0],[113.88885947600011,-7.031275007999966,0],[113.88889129800009,-7.0312903989999427,0],[113.88908356200011,-7.0313833839999802,0],[113.88927263700009,-7.0314748279999435,0],[113.88932215700004,-7.031503278999935,0],[113.88932323000006,-7.0315038949999575,0],[113.88946838200002,-7.0315872879999688,0],[113.88960063900004,-7.031663273999925,0],[113.88980074700009,-7.031792300999939,0],[113.88985806800008,-7.0318453019999652,0],[113.88989123300007,-7.0318847219999725,0],[113.88992850700004,-7.0319457829999692,0],[113.89001205200009,-7.0320826419999776,0],[113.89007344200002,-7.0321568819999811,0],[113.89013911500001,-7.0322225549999757,0],[113.89020050500005,-7.03226966699998,0],[113.89026760600007,-7.0323010759999534,0],[113.89035248800008,-7.0323329269999704,0],[113.89061667500005,-7.0324461899999733,0],[113.89075977000005,-7.0325539949999438,0],[113.89080977000003,-7.0325973189999331,0],[113.89097180900001,-7.0327377239999578,0],[113.89106498500007,-7.0328184599999304,0],[113.89111258000003,-7.0328549799999678,0],[113.89120290400001,-7.0329377539999314,0],[113.89126840800009,-7.0329977819999385,0],[113.89140260900001,-7.033117706999974,0],[113.89146727600007,-7.0331839909999303,0],[113.89151682300007,-7.0332347769999615,0],[113.89162532600005,-7.0333047329999658,0],[113.89176095700009,-7.0333832559999792,0],[113.8920233450001,-7.0335248829999273,0],[113.89221538100003,-7.0337155369999778,0],[113.89224250700011,-7.0337424669999677,0],[113.89228157000002,-7.033779185999947,0],[113.89238558900001,-7.0339116989999297,0],[113.89243727500002,-7.0339970129999756,0],[113.89249303600002,-7.0340996639999389,0],[113.89253682000003,-7.0341834199999766,0],[113.8926243840001,-7.0343033469999341,0],[113.89265484000009,-7.0343566449999457,0],[113.89266626200003,-7.034402330999967,0],[113.89269671800002,-7.0345489059999409,0],[113.89275953700007,-7.0347944659999371,0],[113.89278030900005,-7.0348482859999422,0],[113.89280141400002,-7.0349029689999725,0],[113.89281956500008,-7.0349334149999549,0],[113.89290612600007,-7.0351135869999553,0],[113.89296925000008,-7.0351952499999584,0],[113.89301314000011,-7.0352520289999347,0],[113.89307215000008,-7.0353167499999358,0],[113.89316161800002,-7.0353852779999784,0],[113.89331009600005,-7.0354709389999357,0],[113.89345667100008,-7.0355470819999368,0],[113.89358259300002,-7.0356168409999782,0],[113.89368466400003,-7.0356769989999748,0],[113.89387153000007,-7.0357657659999404,0],[113.89396004600007,-7.0358143069999528,0],[113.89403428500009,-7.0358756969999376,0],[113.89414136100004,-7.0359656409999616,0],[113.89423416000011,-7.036068433999958,0],[113.89430680400005,-7.0361384359999306,0],[113.89465562000009,-7.0363300959999719,0],[113.89471809600002,-7.0363644229999522,0],[113.89496635000012,-7.0364806159999489,0],[113.89510911800005,-7.0365562829999249,0],[113.89515302600012,-7.036586424999939,0],[113.89533196100001,-7.0367092639999669,0],[113.89537066300011,-7.0367320799999789,0],[113.89552260900007,-7.0368216589999406,0],[113.89568004100011,-7.0369144709999318,0],[113.89595043100007,-7.0370738759999654,0],[113.8963174270001,-7.037268069999925,0],[113.89637450900011,-7.0373048489999519,0],[113.89660523900011,-7.0374279619999811,0],[113.89681653500008,-7.0375745369999549,0],[113.89704686700009,-7.0377477619999809,0],[113.89717877100009,-7.0378558299999554,0],[113.89725152800008,-7.0379154389999599,0],[113.89726493600006,-7.0379024959999583,0],[113.89731487600011,-7.0378542879999486,0],[113.89737662300001,-7.0377946809999798,0],[113.89739420300009,-7.0377531089999366,0],[113.8973986310001,-7.0377055329999507,0],[113.89740131700012,-7.037676653999938,0],[113.89742086900003,-7.037630480999951,0],[113.89742170200009,-7.0376285129999587,0],[113.89742954600001,-7.037618054999939,0],[113.89745968200009,-7.0375772239999606,0],[113.89746642700004,-7.0375680859999648,0],[113.89750747300002,-7.0374996769999711,0],[113.89768890700009,-7.0372319879999736,0],[113.89769279200004,-7.0372264479999558,0],[113.89771842200003,-7.0371898979999514,0],[113.89793460100009,-7.0368816199999742,0],[113.89793607100012,-7.036879522999925,0],[113.89819156800002,-7.0365151749999768,0],[113.89820361800003,-7.0364979109999695,0],[113.89820481900006,-7.0364961909999693,0],[113.89881022800012,-7.035628825999936,0],[113.89936940100006,-7.0348465779999287,0],[113.89980067900001,-7.0342279179999423,0],[113.90006241900005,-7.0338501789999555,0],[113.90044313300007,-7.033314799999971,0],[113.90071677100002,-7.0329043429999274,0],[113.90117266700008,-7.0322536039999477,0],[113.90059663800002,-7.0318507519999685,0],[113.90006554400009,-7.0314767009999741,0],[113.89947734000009,-7.0310569639999585,0],[113.89897808000001,-7.030699125999945,0],[113.89881204100004,-7.0305801199999678,0],[113.89815816600003,-7.0301189799999406,0],[113.89763135400005,-7.0297492119999561,0],[113.89725422100003,-7.0294746599999485,0],[113.89651897500005,-7.0289609339999402,0],[113.89637392600002,-7.0288682929999595,0],[113.8961882860001,-7.0287335969999276,0],[113.89616693400001,-7.0287181039999496,0],[113.89575239600003,-7.0284272889999784,0],[113.89566454100009,-7.0283568759999753,0],[113.89552415300011,-7.0282759739999392,0],[113.8954492690001,-7.028243009999926,0],[113.8953751570001,-7.0282103859999552,0],[113.89533855500008,-7.0281855539999469,0],[113.89494594400003,-7.02790239899997,0],[113.8941297880001,-7.0273027739999634,0],[113.89364675800005,-7.0269648909999773,0],[113.89341119100004,-7.0268149849999304,0],[113.89339929400001,-7.0268292619999784,0],[113.89336122300006,-7.0268387789999451,0],[113.89315658900011,-7.0266841139999769,0],[113.89247844300007,-7.0262201199999481,0],[113.89150535200008,-7.0255180079999491,0],[113.8914809900001,-7.0255024849999472,0],[113.89165223500004,-7.0252988089999349,0],[113.89168060000009,-7.0252650719999679,0],[113.8917907010001,-7.0251084679999281,0],[113.89180985700011,-7.0250828319999528,0],[113.89181818800012,-7.0250693709999723,0],[113.8919766140001,-7.0248133819999339,0],[113.89206227500006,-7.0246934569999553,0],[113.89215903500008,-7.024578187999964,0],[113.89225911000005,-7.0243915339999603,0],[113.89232990000005,-7.024259499999971,0],[113.89240266600007,-7.0242455019999284,0],[113.89246522900009,-7.0242455669999799,0],[113.89259880100008,-7.024018400999978,0],[113.89272445500001,-7.0238047009999605,0],[113.89273529400009,-7.0236417459999529,0],[113.89272557000004,-7.023590573999968,0],[113.89292901400006,-7.0232193779999648,0],[113.89337007100005,-7.0234438019999743,0],[113.89356283800009,-7.0232181679999712,0],[113.89362093700004,-7.0232197109999674,0],[113.89393910900003,-7.0233633429999713,0],[113.89395406200003,-7.0233700929999259,0],[113.8940125580001,-7.0233913859999575,0],[113.89411507200009,-7.0233931739999775,0],[113.89412001400001,-7.0233811129999708,0],[113.89414381300003,-7.0233230249999679,0],[113.89416527900005,-7.0232706319999352,0],[113.8943292240001,-7.0232617089999394,0],[113.89439465900011,-7.0231950839999513,0],[113.89445890400009,-7.0231772379999597,0],[113.89479202900009,-7.0231861609999555,0],[113.89498417000004,-7.0232046019999643,0],[113.89507994400003,-7.0232176889999778,0],[113.89517891000003,-7.0232280589999618,0],[113.8954811210001,-7.023308702999941,0],[113.89550067900007,-7.0233178559999487,0],[113.89562382500003,-7.0233754899999781,0],[113.89566485600005,-7.0233946929999433,0],[113.89574775000006,-7.0234334879999665,0],[113.8958221900001,-7.0234683269999323,0],[113.89586125300002,-7.0234827859999314,0],[113.89596480000012,-7.0235211149999373,0],[113.89609316600001,-7.0235609089999684,0],[113.89619501000004,-7.0235924809999801,0],[113.89627670800007,-7.0236331519999453,0],[113.89635437100003,-7.0236718139999539,0],[113.89641807800001,-7.0237011699999812,0],[113.89656936300003,-7.0237708829999406,0],[113.8965925010001,-7.0237734899999396,0],[113.89661950900006,-7.0237548279999373,0],[113.89663798400011,-7.023724594999976,0],[113.89667190300008,-7.0236383299999261,0],[113.89667258000009,-7.0235679449999679,0],[113.89669941900002,-7.0234990549999452,0],[113.89672270600011,-7.0234392829999592,0],[113.89675406600009,-7.0233639139999582,0],[113.89675453200005,-7.0233627939999792,0],[113.89679301500007,-7.0232703039999365,0],[113.89680183400003,-7.0232479479999483,0],[113.89681596300011,-7.0232121329999586,0],[113.89684570600002,-7.0230776929999479,0],[113.89685165500009,-7.0229265969999801,0],[113.89684464100003,-7.0228634669999792,0],[113.89684451700009,-7.0228623519999474,0],[113.89684808600009,-7.0226172669999301,0],[113.8969932330001,-7.0226363029999561,0],[113.89710863700009,-7.0223602849999338,0],[113.89714670800004,-7.0222591579999403,0],[113.89755359600008,-7.022415012999943,0],[113.89773205600011,-7.021887961999937,0],[113.89790813600007,-7.0219748129999289,0],[113.89797119200011,-7.0217642299999738,0],[113.89800711400005,-7.0216375239999707,0],[113.89802443400004,-7.0215764329999502,0],[113.89803662700001,-7.0215334229999371,0],[113.89794722100009,-7.0214922129999309,0],[113.89788434100001,-7.0214632289999486,0],[113.89798903700012,-7.0211717449999469,0],[113.89804995200006,-7.0209756769999672,0],[113.89808231200004,-7.0208681249999358,0],[113.89813085300011,-7.0207244059999425,0],[113.89819680500011,-7.0205620169999747,0],[113.8982231440001,-7.0204971619999696,0],[113.89823174300011,-7.0204759899999658,0],[113.89823796900009,-7.0204380779999269,0],[113.8981475490001,-7.0204238009999358,0],[113.89799935000008,-7.0204086309999525,0],[113.89784535800004,-7.0203928679999308,0],[113.89764548300002,-7.0203000689999726,0],[113.89751461300011,-7.0202048899999454,0],[113.89742895200004,-7.0201120909999304,0],[113.8972933230001,-7.0199455289999264,0],[113.89720052400003,-7.0197623109999654,0],[113.89720766200003,-7.0196599939999373,0],[113.89727190800011,-7.0194839139999772,0],[113.89735719500004,-7.0192756519999762,0],[113.89737422400003,-7.0192340699999249,0],[113.89745750600002,-7.0190294369999719,0],[113.89753364800004,-7.0188081469999588,0],[113.89755530600007,-7.0187515029999759,0],[113.89759551400005,-7.0186463429999435,0],[113.89766451900005,-7.0185654419999537,0],[113.89775493800005,-7.0185273699999584,0],[113.89783346000002,-7.0185249909999357,0],[113.89789443500001,-7.0185418559999562,0],[113.89794529500011,-7.0185559239999407,0],[113.89800240200009,-7.0185511649999626,0],[113.89804761200003,-7.0185249909999357,0],[113.89808806300005,-7.0184678839999606,0],[113.89809520100005,-7.0183774639999683,0],[113.89807761100008,-7.018239216999973,0],[113.89805113200009,-7.0181569429999513,0],[113.89797855800009,-7.0180165549999742,0],[113.89796940800011,-7.0179621889999453,0],[113.89795833300002,-7.0178963919999546,0],[113.89796547100002,-7.0177881259999708,0],[113.89798807600005,-7.0177107939999814,0],[113.89808682300009,-7.0175347139999644,0],[113.89825933400004,-7.0173384079999437,0],[113.89830460500002,-7.0172779409999748,0],[113.89842946600004,-7.0171111699999642,0],[113.89855557700002,-7.0169886269999324,0],[113.89865789400005,-7.016870843999925,0],[113.89870061200008,-7.0168134929999724,0],[113.89870875300005,-7.0167700789999685,0],[113.89870963700002,-7.0167653649999693,0],[113.89870661800001,-7.0167085749999387,0],[113.89869549000002,-7.0166530439999519,0],[113.89870024800007,-7.016505517999974,0],[113.89875021700004,-7.0164055799999687,0],[113.89882636000004,-7.0163104019999309,0],[113.89889786200001,-7.0162637699999664,0],[113.89893581500007,-7.0162390179999647,0],[113.8990452700001,-7.0161747719999425,0],[113.89911579700004,-7.0160894839999628,0],[113.89914758700002,-7.0160510409999688,0],[113.89919279700007,-7.0159772769999336,0],[113.89926656000011,-7.0158487859999354,0],[113.89929987300002,-7.0157726439999806,0],[113.89936173900003,-7.0156869829999664,0],[113.89944977900007,-7.0155727689999594,0],[113.89953748200003,-7.0153952879999792,0],[113.89962516500009,-7.015217138999958,0],[113.89971439500005,-7.0150565249999772,0],[113.89974156000005,-7.0149840509999422,0],[113.89974512900005,-7.0149554969999599,0],[113.89973521500008,-7.0149078089999648,0],[113.89971142000002,-7.0147680149999587,0],[113.89967198900001,-7.0146706709999762,0],[113.89961624200009,-7.0145330439999611,0],[113.89961921600002,-7.0143397119999804,0],[113.89969654900005,-7.0141463809999323,0],[113.89977456300005,-7.0140293609999276,0],[113.89983336800003,-7.013941152999962,0],[113.89985418800006,-7.0138489479999748,0],[113.89981514100009,-7.0137358709999376,0],[113.89974413800007,-7.0135872079999331,0],[113.89972034300001,-7.0135039269999311,0],[113.89976793200003,-7.0133373639999377,0],[113.89986311100006,-7.0132362369999441,0],[113.89995499000008,-7.0130733319999763,0],[113.90001201200005,-7.0128519999999526,0],[113.9001502640001,-7.0122791469999584,0],[113.90019023900004,-7.0120887899999502,0],[113.90022831100009,-7.0119441189999634,0],[113.90023021400009,-7.0117756529999724,0],[113.90020642000002,-7.0116566799999305,0],[113.90018738400011,-7.0114758409999354,0],[113.90027492900003,-7.0112440479999805,0],[113.9003593000001,-7.0111082139999326,0],[113.9003842840001,-7.0110011379999264,0],[113.9003807150001,-7.0109261849999598,0],[113.90034190300003,-7.0108411679999563,0],[113.90030576200002,-7.0107620019999786,0],[113.90028077800002,-7.0106656339999631,0],[113.90027007000003,-7.0106049579999308,0],[113.90027720900002,-7.0105478509999557,0],[113.90034502300011,-7.0104122219999567,0],[113.90046429600011,-7.0101049249999505,0],[113.90052586100001,-7.009734582999954,0],[113.90054468700009,-7.0094861859999469,0],[113.90053569700001,-7.0093844529999387,0],[113.90051190300005,-7.0092178909999348,0],[113.9005095230001,-7.0090870199999813,0],[113.90052142100001,-7.0090061189999346,0],[113.90057614800003,-7.0088942839999504,0],[113.9006618090001,-7.0086658559999364,0],[113.90073081300011,-7.0085040519999779,0],[113.900785541,-7.0083422489999521,0],[113.9007933580001,-7.008190329999934,0],[113.90076924100003,-7.0080783269999642,0],[113.90069309900002,-7.0079260419999514,0],[113.90068358100007,-7.0077642379999361,0],[113.9007026160001,-7.0076643009999771,0],[113.90073592900001,-7.0075786399999629,0],[113.90087393800002,-7.0074501499999542,0],[113.90101194600004,-7.0072835869999608,0],[113.90112140200006,-7.0071265429999698,0],[113.90116899100008,-7.0070503999999687,0],[113.90121200200008,-7.0066880089999586,0],[113.90120307400002,-7.0064422019999597,0],[113.90115844200011,-7.0059892399999626,0],[113.9011608620001,-7.0059568149999336,0],[113.9011762880001,-7.0057501039999579,0],[113.90120841100008,-7.0054752759999701,0],[113.90126908700006,-7.005232570999965,0],[113.90131191700004,-7.005075526999974,0],[113.90139043900001,-7.0048970669999449,0],[113.90142969700003,-7.0047861209999382,0],[113.90147253100008,-7.0046650699999304,0],[113.90147011600004,-7.0045400209999684,0],[113.90146906400003,-7.004485529999954,0],[113.90145468500009,-7.004436640999927,0],[113.90141899300011,-7.0042617509999445,0],[113.90135117800003,-7.004151105999938,0],[113.90131548600004,-7.0040333229999305,0],[113.90128096400008,-7.0039297569999803,0],[113.90126908700006,-7.0038941239999417,0],[113.90126551800006,-7.0038048949999734,0],[113.90129050200005,-7.0037442179999516,0],[113.90132121200008,-7.0037196499999368,0],[113.90136188600002,-7.0036871109999765,0],[113.9014332700001,-7.0036300039999446,0],[113.90156889900004,-7.0035157899999376,0],[113.90157443900011,-7.0035108649999529,0],[113.90169739000009,-7.0034015759999306,0],[113.90187584400007,-7.0032735329999696,0],[113.90193748700005,-7.003164088999938,0],[113.90196233200004,-7.0030494049999561,0],[113.90194005000001,-7.0029418989999499,0],[113.90187615400009,-7.0028692629999796,0],[113.90167197800008,-7.0027459659999636,0],[113.90165394400003,-7.0027265459999626,0],[113.90145196900005,-7.0025090399999499,0],[113.90144195500011,-7.0024384889999283,0],[113.90144384900009,-7.0024006059999806,0],[113.90144623800006,-7.0023528289999604,0],[113.90147836000006,-7.0022707369999466,0],[113.90154260600002,-7.0021529539999392,0],[113.9016175590001,-7.0020565859999806,0],[113.90173520200005,-7.0019249369999557,0],[113.90178088200003,-7.0018738179999787,0],[113.9020009840001,-7.0014990519999287,0],[113.90206960900002,-7.001378956999929,0],[113.90208615500001,-7.0012203929999259,0],[113.90211440100006,-7.0009497109999757,0],[113.90211749300011,-7.0009200799999576,0],[113.90210754400005,-7.0008775249999644,0],[113.90199602500002,-7.0004789939999341,0],[113.90199261300006,-7.0004690439999422,0],[113.90194744500002,-7.0003926029999661,0],[113.90193197500002,-7.0003332959999511,0],[113.90190615400002,-7.0002384799999504,0],[113.90189349700006,-7.00019199999997,0],[113.90189206900004,-7.0001577359999487,0],[113.90189635200011,-7.0001091949999363,0],[113.90190186900008,-7.0000687339999672,0],[113.90190491800001,-7.0000463769999328,0],[113.90192071800004,-6.9999780069999815,0],[113.90193738500011,-6.99993038599996,0],[113.90197053200006,-6.9998356809999791,0],[113.90198904100009,-6.9997528929999362,0],[113.90199229900009,-6.9996861949999811,0],[113.90196656600006,-6.9996425159999376,0],[113.90194880400009,-6.9996363939999355,0],[113.90194196500011,-6.9996340369999643,0],[113.9018900320001,-6.9996204789999297,0],[113.90167896600008,-6.9995350359999406,0],[113.90165765100005,-6.9995103509999694,0],[113.9016289760001,-6.9994771439999681,0],[113.9015899740001,-6.9994319799999403,0],[113.9015291180001,-6.9993965699999308,0],[113.90152299800002,-6.99939300799997,0],[113.90146882800002,-6.999375792999956,0],[113.90139344900001,-6.9993475509999712,0],[113.90134496300004,-6.9993240119999314,0],[113.90132251400007,-6.9992993649999562,0],[113.90129301400009,-6.999266974999955,0],[113.90123503300003,-6.9991509899999755,0],[113.90116703000001,-6.9990300099999558,0],[113.90114201100005,-6.9989270079999528,0],[113.90114099600009,-6.9988229559999695,0],[113.90116002900004,-6.9987660229999733,0],[113.90119602000004,-6.9987020289999577,0],[113.90124097300009,-6.998592002999942,0],[113.90127703200005,-6.9985029879999274,0],[113.90129500300009,-6.9984550049999257,0],[113.90129100900003,-6.9984239559999537,0],[113.90125499600003,-6.9983879569999772,0],[113.90122698100004,-6.9983549789999415,0],[113.9012080010001,-6.9982999969999469,0],[113.9012020130001,-6.99826001699995,0],[113.9011680000001,-6.9982459549999589,0],[113.90113500700011,-6.9982520299999464,0],[113.90107399600004,-6.99826098799997,0],[113.90105531200004,-6.998252989999969,0],[113.9010658950001,-6.9981810279999763,0],[113.90106927800002,-6.9981117229999654,0],[113.90106999800003,-6.9980969769999319,0],[113.90105402000006,-6.9980210209999427,0],[113.90104201700001,-6.9979849619999754,0],[113.90097183900002,-6.9979426169999783,0],[113.90092424900001,-6.9978974069999254,0],[113.90089331600007,-6.9978379199999381,0],[113.90089998500002,-6.9977089849999743,0],[113.90089358500006,-6.9976744069999768,0],[113.90088700400008,-6.9975630019999358,0],[113.90090283400002,-6.9973667869999758,0],[113.9008837990001,-6.9973406129999489,0],[113.90078862000007,-6.997345371999927,0],[113.90065061100006,-6.99732871599997,0],[113.90054115600003,-6.9973049209999658,0],[113.90050070500001,-6.9972525729999688,0],[113.90048642900001,-6.9972049839999499,0],[113.90051022300008,-6.9971312199999716,0],[113.9005506740001,-6.9969265869999617,0],[113.90055762000009,-6.9968903119999482,0],[113.90057208900009,-6.9968147519999775,0],[113.90056971000001,-6.9966815019999444,0],[113.90058160700005,-6.9966196359999344,0],[113.90066488800005,-6.9964911449999363,0],[113.90071723600011,-6.9964102439999465,0],[113.90075409300005,-6.9962671539999519,0],[113.90074698800004,-6.9961889829999677,0],[113.90073451000001,-6.9960598689999642,0],[113.90072494700007,-6.9959609229999273,0],[113.90072701000008,-6.9958880439999689,0],[113.90071697900009,-6.9958089769999674,0],[113.90070097900002,-6.9957659889999491,0],[113.90066097700003,-6.9957239619999427,0],[113.90060901000004,-6.9956999849999306,0],[113.90054803600003,-6.9957029799999759,0],[113.90047500900005,-6.9956980109999449,0],[113.90045697900007,-6.995663977999925,0],[113.90045603100009,-6.9956190019999553,0],[113.90048698800001,-6.995560998999963,0],[113.90050240100004,-6.9955168759999538,0],[113.90048402000002,-6.9954287359999512,0],[113.90044835700007,-6.9953787469999611,0],[113.90035198900011,-6.9952859479999461,0],[113.90031629700002,-6.9951895799999306,0],[113.90032700500001,-6.9949968439999566,0],[113.90034842000011,-6.994814814999927,0],[113.90033799300011,-6.9946400289999815,0],[113.90027700200005,-6.9946040029999494,0],[113.90018797700009,-6.9945799829999373,0],[113.90011273000005,-6.994583491999947,0],[113.9000593080001,-6.9945859799999539,0],[113.89992802900008,-6.9945519589999776,0],[113.89987598300002,-6.9944790239999293,0],[113.89981400500005,-6.9944280069999536,0],[113.89974103000009,-6.9944069589999458,0],[113.89965597200001,-6.9943979989999434,0],[113.89960901500001,-6.9942799599999717,0],[113.89962996400004,-6.9941950109999311,0],[113.89963821800006,-6.9941073909999432,0],[113.89962489800007,-6.9941069099999709,0],[113.89962296600004,-6.9941000289999806,0],[113.89959303500007,-6.9940949739999496,0],[113.89948700000002,-6.9940998669999317,0],[113.89948355000001,-6.9941000259999555,0],[113.89946147700005,-6.9941009609999583,0],[113.89945667500001,-6.9941011639999715,0],[113.89928380100002,-6.9941084799999658,0],[113.8991886230001,-6.9940627939999445,0],[113.89909154100008,-6.9939866519999327,0],[113.89900397700001,-6.9939504839999813,0],[113.89890499100011,-6.9938914729999624,0],[113.89883455900008,-6.9938610159999257,0],[113.89877935600009,-6.993798197999979,0],[113.89873367000007,-6.9937391879999495,0],[113.89868798400005,-6.9936782729999436,0],[113.89870321300009,-6.9936402019999377,0],[113.89876222400005,-6.9936021309999319,0],[113.89880981300007,-6.9935716739999521,0],[113.89886501600006,-6.993567865999978,0],[113.89886882300004,-6.9935164699999746,0],[113.89882504100001,-6.993446037999945,0],[113.89890118400001,-6.9933584739999333,0],[113.89892165600008,-6.9933669449999343,0],[113.89901159100009,-6.9934041589999651,0],[113.89896400200007,-6.9934936269999639,0],[113.89894877300003,-6.9935716739999521,0],[113.89896590500007,-6.9935983239999473,0],[113.89903253000011,-6.9936497199999508,0],[113.89905537300001,-6.9936592379999638,0],[113.89919243000008,-6.9936078409999709,0],[113.89920920700001,-6.9935433619999685,0],[113.89923003600006,-6.9935340149999661,0],[113.8992999940001,-6.9935490299999401,0],[113.89930502100003,-6.9935060029999363,0],[113.89929902800009,-6.9934770439999738,0],[113.89929100800009,-6.9934219959999382,0],[113.8993239780001,-6.993388007999954,0],[113.89932215800002,-6.9931746839999391,0],[113.89936784400004,-6.9930718919999322,0],[113.89941543300006,-6.9930185919999417,0],[113.89945151000006,-6.9930138859999715,0],[113.89950299700001,-6.9930071699999417,0],[113.89954837800008,-6.992959558999928,0],[113.89959436900006,-6.9929081849999761,0],[113.89964957200004,-6.9929005699999607,0],[113.89973503200008,-6.9928799989999675,0],[113.89984564000008,-6.9929276959999811,0],[113.89998126900002,-6.9929990799999473,0],[113.9000490840001,-6.9930918789999623,0],[113.90010262100009,-6.993102586999953,0],[113.90018098900009,-6.993085998999959,0],[113.90025609700001,-6.9929276959999811,0],[113.90029763300004,-6.9928247589999728,0],[113.90033818800009,-6.9927242519999595,0],[113.90035960300008,-6.9926421609999352,0],[113.90035960300008,-6.9925457929999766,0],[113.90028108100012,-6.9924815469999544,0],[113.90012760600007,-6.9923459179999554,0],[113.90009548300009,-6.9922138579999569,0],[113.90007049900009,-6.9921246279999423,0],[113.90000798400001,-6.992073990999927,0],[113.89990799900011,-6.9920799809999608,0],[113.89979864500003,-6.9919372459999636,0],[113.89980221500002,-6.9918658619999405,0],[113.89966658500009,-6.9917873399999735,0],[113.89930966600002,-6.9916231569999354,0],[113.89897773100006,-6.9915946029999532,0],[113.89891493100004,-6.9915837549999651,0],[113.89865723100002,-6.9915392409999413,0],[113.8984999700001,-6.9916190379999534,0],[113.89841103500009,-6.9916459609999606,0],[113.89831100700007,-6.9917360019999251,0],[113.89819802500006,-6.9917690349999475,0],[113.89798567500009,-6.9916794899999672,0],[113.89788752200002,-6.9916913879999356,0],[113.89780721500006,-6.9916467729999567,0],[113.89778639500003,-6.9915783629999737,0],[113.89773880500002,-6.9914564159999486,0],[113.8976257810001,-6.9913225709999551,0],[113.89758791300005,-6.9912902109999777,0],[113.89746219300002,-6.9911827779999385,0],[113.89729069900011,-6.9910734569999704,0],[113.89722267100001,-6.9910632519999467,0],[113.89714793100006,-6.9910520409999322,0],[113.89705513200011,-6.9910520409999322,0],[113.89697899000009,-6.9910972509999283,0],[113.89686715500011,-6.9911091489999535,0],[113.89667510200002,-6.9911033869999528,0],[113.89662920900003,-6.9911020099999632,0],[113.89647237700001,-6.9910753769999587,0],[113.89640040800009,-6.9910420919999297,0],[113.89627667600007,-6.9909683289999407,0],[113.89622985200003,-6.9909663269999669,0],[113.89616246200001,-6.9909945029999676,0],[113.89613152900006,-6.9910349539999288,0],[113.89609345800011,-6.9911229939999657,0],[113.89607024700001,-6.9911956199999281,0],[113.89600541800007,-6.9912681409999777,0],[113.89590327500002,-6.9912685389999751,0],[113.89586721900002,-6.9912686779999262,0],[113.89576474400008,-6.9912523469999428,0],[113.89563098300005,-6.991231030999927,0],[113.89559891200008,-6.9912165999999729,0],[113.89537827100003,-6.9911271179999517,0],[113.89534495900011,-6.991081908999945,0],[113.89528071300003,-6.9910010069999657,0],[113.89518791400008,-6.9909129669999288,0],[113.89515809700004,-6.9908184869999559,0],[113.89500469600011,-6.9907392659999346,0],[113.89500707500008,-6.9906440879999536,0],[113.89485211700003,-6.9906116769999471,0],[113.89478136500009,-6.9908606459999305,0],[113.89471854800001,-6.9910519539999427,0],[113.89476312300008,-6.9910740409999335,0],[113.89485405800008,-6.9911190999999349,0],[113.89486833500007,-6.9911298069999361,0],[113.89487484800009,-6.9911745969999401,0],[113.89510318800001,-6.991306298999973,0],[113.89509691000001,-6.9913376869999411,0],[113.89506130900008,-6.991515690999961,0],[113.89498717400011,-6.9916753679999601,0],[113.89491923100002,-6.9917752739999628,0],[113.89490083800001,-6.991802320999966,0],[113.8948386190001,-6.9917827459999558,0],[113.89477377500009,-6.9917623459999731,0],[113.89474950400006,-6.9917780509999261,0],[113.89473319700005,-6.9918923489999543,0],[113.89472675000002,-6.9919375389999345,0],[113.89466401200002,-6.9919240169999739,0],[113.89464490500006,-6.9919060719999493,0],[113.89455001800002,-6.9918169569999691,0],[113.89450603400007,-6.9917940119999571,0],[113.89445200400007,-6.9917740209999693,0],[113.89439902300001,-6.9917550179999353,0],[113.89431997500003,-6.991632023999955,0],[113.89432402400007,-6.991562986999952,0],[113.89432499000009,-6.9915260379999609,0],[113.89431697400005,-6.9915080209999587,0],[113.8942929860001,-6.991499044999955,0],[113.89426102900006,-6.9915040289999411,0],[113.89420802800009,-6.9915059799999426,0],[113.89416702400001,-6.9915189689999693,0],[113.89410800000007,-6.9915479679999635,0],[113.89394099500009,-6.991562000999977,0],[113.89384697200001,-6.9915739589999362,0],[113.89382400600005,-6.9914769979999392,0],[113.89386681300005,-6.9913754699999799,0],[113.89388898700008,-6.9913380339999662,0],[113.89389903800009,-6.9912990419999801,0],[113.89389398700007,-6.9912660109999365,0],[113.89384100100006,-6.9912099739999576,0],[113.89377597500004,-6.9911599689999662,0],[113.89369399700001,-6.9910819779999542,0],[113.89366713100003,-6.9910602009999252,0],[113.89362184900006,-6.9910216009999431,0],[113.8935227500001,-6.9909371249999595,0],[113.89350561700007,-6.9909028609999382,0],[113.89364966200003,-6.990572158999953,0],[113.89361983200001,-6.990552604999948,0],[113.89355891700006,-6.9905126299999552,0],[113.89342566800008,-6.9904136439999434,0],[113.89341365100006,-6.9904070589999492,0],[113.89328670700002,-6.9903375009999422,0],[113.89308683200011,-6.9901680839999472,0],[113.89317630000005,-6.9900367369999685,0],[113.89286422700002,-6.9899146219999579,0],[113.89282604300001,-6.9898996799999509,0],[113.89269804000003,-6.9901269649999449,0],[113.89269786300008,-6.9901267309999753,0],[113.8926159880001,-6.9900649969999336,0],[113.8925400280001,-6.9899950079999371,0],[113.89250700400009,-6.9899359549999645,0],[113.89250698500007,-6.9898599899999567,0],[113.8925059930001,-6.9897469939999723,0],[113.8925239670001,-6.9896629679999478,0],[113.89253999700009,-6.9895660369999746,0],[113.89251796500002,-6.9895119749999708,0],[113.89244500300003,-6.9894689749999657,0],[113.89236296900003,-6.9894420189999664,0],[113.89222496900004,-6.9894320269999639,0],[113.89221201400005,-6.9894109719999733,0],[113.89222500200003,-6.9893890329999522,0],[113.89226799100004,-6.9893109939999363,0],[113.89229503400009,-6.9892830059999369,0],[113.8922889800001,-6.9892320079999308,0],[113.89226399100005,-6.9890970289999359,0],[113.89222999200001,-6.9890850459999569,0],[113.8921540230001,-6.9890500119999501,0],[113.89206198500005,-6.9890210389999652,0],[113.89198096900009,-6.9889779979999389,0],[113.89191501000005,-6.9889220379999415,0],[113.89184503000001,-6.9888790199999562,0],[113.89179003100003,-6.9888470199999801,0],[113.89172496500009,-6.9888390189999541,0],[113.89169300500009,-6.9888309949999439,0],[113.891687004,-6.9886800029999563,0],[113.8916970250001,-6.9886120139999548,0],[113.89173999700006,-6.9886039819999723,0],[113.89178899700005,-6.9885820029999763,0],[113.89181003200008,-6.9885470059999761,0],[113.89180700700001,-6.9885279649999461,0],[113.89179099300009,-6.9884819959999618,0],[113.89175497000008,-6.9884440079999308,0],[113.89171669900009,-6.9884155389999592,0],[113.89171197400003,-6.9884120239999561,0],[113.89166803500007,-6.9883720079999421,0],[113.8916380280001,-6.9883179949999317,0],[113.89162197400003,-6.9882779889999256,0],[113.89161897300005,-6.9881780139999705,0],[113.89164499100002,-6.9880559979999362,0],[113.891705978,-6.987910013999965,0],[113.89178398800004,-6.9878040309999392,0],[113.89158798300002,-6.9876489659999379,0],[113.89163501400003,-6.9875130049999257,0],[113.89154102000009,-6.9874809719999575,0],[113.89141598800006,-6.9874579819999667,0],[113.89130523400001,-6.987437277999959,0],[113.89123399900006,-6.9874239639999587,0],[113.89115800400009,-6.987396968999974,0],[113.89115001700009,-6.9873349609999309,0],[113.89115198000002,-6.9872540149999622,0],[113.89116198500005,-6.9871349919999375,0],[113.8912129900001,-6.986977956999965,0],[113.89121997200004,-6.986889031999965,0],[113.89121200500006,-6.9867089639999449,0],[113.89119298700007,-6.9866959829999473,0],[113.89106302000005,-6.9866340039999386,0],[113.89094901200008,-6.9865850209999394,0],[113.89087099700009,-6.9865689689999613,0],[113.8907970140001,-6.9865900199999373,0],[113.89069598600008,-6.9866150269999707,0],[113.89063899500002,-6.9866229649999809,0],[113.89061802200001,-6.9865950009999551,0],[113.89060257900007,-6.9863944139999603,0],[113.89058497100007,-6.9861656929999754,0],[113.89057799300008,-6.9860750429999712,0],[113.89047003100006,-6.9860150059999455,0],[113.89051899500009,-6.9859139869999467,0],[113.89055512700008,-6.9858493609999641,0],[113.89057098800004,-6.9858209909999687,0],[113.89060000300003,-6.9857620079999379,0],[113.89064500100005,-6.9856470159999731,0],[113.89068200000008,-6.9855769629999713,0],[113.89073703500003,-6.9855420309999658,0],[113.89083601900006,-6.9854880379999713,0],[113.89091203600003,-6.9854460199999266,0],[113.89090003400008,-6.985421975999941,0],[113.89088398300009,-6.9853460179999729,0],[113.89089001500008,-6.9852720009999416,0],[113.8909280260001,-6.9852330169999277,0],[113.89095999000006,-6.9852050019999297,0],[113.89102197400007,-6.9851850189999709,0],[113.89119201800008,-6.9851799999999571,0],[113.89122303500005,-6.9851799899999492,0],[113.8912670090001,-6.985177010999962,0],[113.89133502800007,-6.9851680119999742,0],[113.8913949680001,-6.9851670119999767,0],[113.89142803600009,-6.985184965999963,0],[113.89146896500006,-6.9852090119999275,0],[113.89152503500009,-6.9852210449999461,0],[113.89158296300002,-6.985219964999942,0],[113.89162500000009,-6.9852049839999495,0],[113.89168098300001,-6.985166971999945,0],[113.89170699100009,-6.9851040359999388,0],[113.89171300700002,-6.9849789819999728,0],[113.89170998000009,-6.9848869559999684,0],[113.89169999900002,-6.9848160199999256,0],[113.89164702200003,-6.9847609719999468,0],[113.89158600500002,-6.9846960389999708,0],[113.89165502500009,-6.9845709619999639,0],[113.89169999300009,-6.9844630139999708,0],[113.89176400100007,-6.9843109589999699,0],[113.89175003500009,-6.9842830439999375,0],[113.89171799200005,-6.9842010419999383,0],[113.89171902100009,-6.9840529849999484,0],[113.8917209760001,-6.9839949829999455,0],[113.89174699200009,-6.9838969959999417,0],[113.89177503500002,-6.9837530209999272,0],[113.89177897400009,-6.9836900369999739,0],[113.89177800500011,-6.9836626939999746,0],[113.89177301800009,-6.9835219719999486,0],[113.89178703300001,-6.9833880189999604,0],[113.89179603400009,-6.9832390119999559,0],[113.89179498300007,-6.9831530259999681,0],[113.89177799900006,-6.9830830339999466,0],[113.8917580000001,-6.9830070099999375,0],[113.89174796400005,-6.9829030119999516,0],[113.89174097700004,-6.9827729819999718,0],[113.89176197400002,-6.9827200109999694,0],[113.89181303300006,-6.9826929599999517,0],[113.89197303100002,-6.9826310059999628,0],[113.89205601500009,-6.9825699769999687,0],[113.89210801400009,-6.9825020009999434,0],[113.89213097000004,-6.9824159569999438,0],[113.89178753900001,-6.9823629779999692,0],[113.89174675700008,-6.982382485999949,0],[113.89170107200005,-6.9824067559999321,0],[113.89162112200006,-6.9824795679999738,0],[113.89160120800011,-6.9825002129999802,0],[113.89146550500004,-6.9826408949999745,0],[113.89135700100007,-6.9826708759999292,0],[113.89125770700002,-6.9826590429999555,0],[113.89120052700002,-6.9826148589999661,0],[113.89117514100008,-6.9825952429999347,0],[113.89107558400008,-6.982627243999957,0],[113.89100857900007,-6.9826487809999662,0],[113.89084796500003,-6.9826606789999346,0],[113.89087579200009,-6.9826351709999699,0],[113.89099073300008,-6.9825298079999811,0],[113.89094364000005,-6.9825131869999382,0],[113.89088960600009,-6.9824941159999412,0],[113.89088200300012,-6.9824206219999496,0],[113.8908717600001,-6.9823216049999814,0],[113.89075652000008,-6.982346813999925,0],[113.89049104600008,-6.9824048869999729,0],[113.8902709460001,-6.9823751429999561,0],[113.89022930500005,-6.9823335029999498,0],[113.89022619700006,-6.9823215889999801,0],[113.89019361400005,-6.9821966839999732,0],[113.89014007600008,-6.9821193509999375,0],[113.89010369100004,-6.9821557359999815,0],[113.89003894900009,-6.9822204779999311,0],[113.8899199760001,-6.9822442729999352,0],[113.88981290000004,-6.9824108349999392,0],[113.88967608100006,-6.9824108349999392,0],[113.88945598100008,-6.9823572969999645,0],[113.88928941800009,-6.9825536029999284,0],[113.88912285600009,-6.9825298079999811,0],[113.88905742100008,-6.9824405779999665,0],[113.888756048,-6.9824143739999727,0],[113.88874931800001,-6.9824137889999633,0],[113.88871430600011,-6.9824903279999262,0],[113.8886881520001,-6.9825475009999423,0],[113.88845988000003,-6.9827397849999784,0],[113.88838552200002,-6.9827278879999426,0],[113.8878458260001,-6.9826125889999275,0],[113.88773117000005,-6.9825880939999365,0],[113.88763646900009,-6.9827824909999663,0],[113.88750214700008,-6.9827368109999384,0],[113.8874486090001,-6.9828438859999551,0],[113.88738912300005,-6.982805219999932,0],[113.88712440800009,-6.9827159899999742,0],[113.88704499800008,-6.9829122339999685,0],[113.88691739500007,-6.9832275739999545,0],[113.8865978020001,-6.983124916999941,0],[113.88644804800003,-6.9831803159999595,0],[113.88584435300004,-6.9829460299999369,0],[113.88551271100005,-6.9829625929999679,0],[113.88521423500003,-6.9829957169999375,0],[113.88515000000007,-6.9830456199999276,0],[113.88512245700008,-6.9830670139999711,0],[113.88506499700009,-6.9831116539999698,0],[113.88504481200005,-6.9831375339999795,0],[113.88501149900003,-6.9831541899999365,0],[113.88498532500012,-6.9831648979999272,0],[113.88496153100004,-6.9831708469999398,0],[113.88491870000007,-6.9831756059999748,0],[113.88489847500011,-6.9831732259999626,0],[113.88486040400005,-6.9831696569999622,0],[113.88483898900006,-6.9831696569999622,0],[113.88481638400003,-6.98316727699995,0],[113.88479853800004,-6.9831660879999617,0],[113.88478902000008,-6.9831625189999613,0],[113.88474381000003,-6.9831494309999584,0],[113.88470217000008,-6.9831541899999365,0],[113.88469265200001,-6.9831541899999365,0],[113.88467956500006,-6.9831577599999264,0],[113.88464268300004,-6.9831827439999756,0],[113.88462518400001,-6.9831980549999457,0],[113.88462364700001,-6.9831993999999327,0],[113.88460580100002,-6.9832362819999503,0],[113.88459451200004,-6.98350775199998,0],[113.88458856300008,-6.9836981089999313,0],[113.88458135700012,-6.9837405199999694,0],[113.88456535100011,-6.983834715999933,0],[113.88452252000002,-6.983848992999981,0],[113.88450943300006,-6.9838608899999599,0],[113.88449872600006,-6.9838704079999729,0],[113.88449158700007,-6.9838763569999287,0],[113.88448325900004,-6.9838799259999291,0],[113.8844202030001,-6.9839013409999779,0],[113.88439878800011,-6.9838942029999771,0],[113.88438213200004,-6.9838775469999632,0],[113.88433454300002,-6.9838608899999599,0],[113.88431105900008,-6.9838549109999803,0],[113.8842691530001,-6.9838593369999558,0],[113.88426078000009,-6.9838668389999725,0],[113.88424055400003,-6.9838775469999632,0],[113.88423341600003,-6.9838799259999291,0],[113.88421438000012,-6.9838894439999422,0],[113.88415965200011,-6.983906099999956,0],[113.88414299600004,-6.9839156179999691,0],[113.88411206300009,-6.9839298949999602,0],[113.8840906480001,-6.9839358429999265,0],[113.88405495600011,-6.9839513099999522,0],[113.88403473100004,-6.9839572589999648,0],[113.88400855700002,-6.983958447999953,0],[113.88398476200007,-6.9839572589999648,0],[113.88397524400011,-6.9839548789999526,0],[113.88394074200005,-6.9839513099999522,0],[113.88393360400005,-6.9839441709999619,0],[113.88393003400006,-6.9839322739999261,0],[113.88393003400006,-6.9839251359999253,0],[113.88391813700002,-6.9839168079999467,0],[113.8839098090001,-6.9839084799999682,0],[113.88385742600008,-6.9838915749999728,0],[113.88363492200006,-6.9838931329999809,0],[113.88350817700007,-6.9839621829999601,0],[113.88345251800001,-6.9839925049999465,0],[113.88341303600009,-6.9840516609999668,0],[113.88335302600001,-6.9841415679999272,0],[113.8829550590001,-6.9841084409999326,0],[113.88290709400007,-6.9841563479999422,0],[113.88289334600006,-6.9841700809999452,0],[113.88278923900009,-6.9842740659999549,0],[113.88259025400009,-6.9842906279999397,0],[113.88246161200004,-6.9844048409999573,0],[113.88217090300009,-6.9844750839999392,0],[113.88211479900008,-6.9844574219999345,0],[113.8820761290001,-6.9844452479999291,0],[113.88167093600009,-6.9842380119999348,0],[113.88160856500008,-6.9842061119999812,0],[113.88150148900002,-6.9842917729999385,0],[113.88124984500007,-6.9843358749999425,0],[113.88121275200001,-6.9844941719999269,0],[113.88115600800006,-6.9847363349999796,0],[113.88087813900006,-6.9847173669999734,0],[113.8807419530001,-6.9847080699999538,0],[113.8807153030001,-6.9846985519999407,0],[113.88066961800007,-6.9846947449999561,0],[113.88064106400009,-6.9846871299999407,0],[113.88059968100004,-6.9846748689999458,0],[113.88055695100002,-6.9846663969999554,0],[113.88053827100009,-6.9846680949999609,0],[113.8805097180001,-6.9846680949999609,0],[113.88049564300002,-6.984672264999972,0],[113.88045832200009,-6.9846833229999561,0],[113.88042596100001,-6.9846985519999407,0],[113.88038598600008,-6.9846985519999407,0],[113.88032628000008,-6.9846948199999588,0],[113.88032507200001,-6.9846947449999561,0],[113.88030032500001,-6.9846795159999715,0],[113.88024321800003,-6.9846757089999301,0],[113.88019015600003,-6.9846703549999347,0],[113.88014994300011,-6.9846663179999382,0],[113.88012329300011,-6.9846720289999666,0],[113.87996032100011,-6.9846443729999805,0],[113.87975947400002,-6.9846102899999778,0],[113.87967168300008,-6.9845953919999602,0],[113.87944413900004,-6.984580580999932,0],[113.8793082090001,-6.9845717329999388,0],[113.87927846600007,-6.9845479399999704,0],[113.87925169700009,-6.984518196999943,0],[113.87917733900008,-6.9845033249999346,0],[113.87910298100007,-6.9844944019999389,0],[113.87901727200006,-6.9844381239999507,0],[113.87894220600003,-6.9844231279999462,0],[113.87874606100002,-6.9844051719999811,0],[113.87865980600009,-6.9844051719999811,0],[113.87863006300006,-6.9843962489999285,0],[113.87855570400006,-6.9843903009999622,0],[113.87851109000007,-6.984378402999937,0],[113.87846944900002,-6.984378402999937,0],[113.87838319400009,-6.984378402999937,0],[113.87828504100003,-6.984378402999937,0],[113.87811310400002,-6.9843568769999251,0],[113.87808678900001,-6.9843520979999312,0],[113.8779690880001,-6.9843581979999385,0],[113.87790008400009,-6.9843439209999474,0],[113.87785249400008,-6.984340351999947,0],[113.87782513100001,-6.9843391619999693,0],[113.87777159300003,-6.9843308339999339,0],[113.87770615800002,-6.9843082289999643,0],[113.87767522500008,-6.9842915729999504,0],[113.87764191200006,-6.9842784859999369,0],[113.8776359630001,-6.9842725369999812,0],[113.87762406600007,-6.9842618299999799,0],[113.87761930700003,-6.984257070999945,0],[113.87761705900004,-6.9842539239999724,0],[113.87760741000011,-6.9842404139999417,0],[113.87760384100011,-6.9842368449999412,0],[113.8775526820001,-6.9842059119999362,0],[113.87753126700011,-6.9842047219999586,0],[113.87751223200007,-6.9842059119999362,0],[113.87748724700009,-6.9842023429999358,0],[113.87744084800011,-6.9841809279999438,0],[113.87741705300004,-6.9841714099999308,0],[113.87739920700005,-6.9841690309999649,0],[113.87735397900008,-6.9841690509999808,0],[113.87731592600005,-6.98416427199993,0],[113.87730283900009,-6.9841809279999438,0],[113.87729451100006,-6.9842011529999581,0],[113.87728737200007,-6.9842285169999627,0],[113.87728380300007,-6.9842463629999543,0],[113.87728023400007,-6.9842630189999682,0],[113.8772778550001,-6.9842820549999374,0],[113.87727547500003,-6.9842999009999289,0],[113.87725321400001,-6.9844158279999533,0],[113.8772474430001,-6.9844458819999318,0],[113.87716420900006,-6.9844056679999653,0],[113.87707802600005,-6.9843640289999485,0],[113.87687815100003,-6.9843278609999402,0],[113.87669921600002,-6.9843430899999248,0],[113.87645555900008,-6.9844173289999389,0],[113.87639877200002,-6.9844734469999707,0],[113.87637227000005,-6.9844798799999808,0],[113.87605107800005,-6.9845578439999372,0],[113.87601813200001,-6.9844355939999332,0],[113.8759070210001,-6.9841711289999466,0],[113.87582834500006,-6.9839838639999812,0],[113.87574870800006,-6.9838264369999479,0],[113.87573763600005,-6.9838045489999558,0],[113.87572512600002,-6.9837798199999384,0],[113.87565741900005,-6.9836459749999449,0],[113.87559796100004,-6.9835581829999569,0],[113.87545873300007,-6.9834608359999493,0],[113.87539676800009,-6.9834519939999495,0],[113.87516965300006,-6.983382143999961,0],[113.87507804400002,-6.9833428829999775,0],[113.87505187000011,-6.9833131399999502,0],[113.87501974700001,-6.9832738789999667,0],[113.87501022900005,-6.983248893999928,0],[113.87500785000009,-6.9832191509999575,0],[113.87501855700009,-6.9831703719999609,0],[113.87502688500001,-6.9831239729999766,0],[113.87504693800008,-6.9830979569999272,0],[113.87507090500003,-6.9830668649999552,0],[113.87507923400005,-6.9830502089999413,0],[113.87508161300002,-6.9830406909999283,0],[113.87507923400005,-6.983029983999927,0],[113.8750732850001,-6.9830204659999708,0],[113.87505187000011,-6.9830097579999801,0],[113.87503080800002,-6.9830133769999634,0],[113.87496956300004,-6.9830238989999316,0],[113.87494438700003,-6.9830328799999393,0],[113.87489479800001,-6.9830324159999577,0],[113.87481868300006,-6.9829931019999663,0],[113.87469138100005,-6.9829585999999608,0],[113.87459739300004,-6.9829229079999777,0],[113.8744974550001,-6.98288959599995,0],[113.87442488200008,-6.9828550929999551,0],[113.87437201800003,-6.9828028019999806,0],[113.87437058300009,-6.9827598209999451,0],[113.87433565200001,-6.9826195269999403,0],[113.87432494400002,-6.982600490999971,0],[113.87426902700008,-6.9825739709999652,0],[113.87421192000011,-6.9825564709999526,0],[113.87419169500004,-6.9825564709999526,0],[113.87413458700007,-6.9825374349999265,0],[113.87407715900008,-6.9825182499999414,0],[113.87404750600001,-6.9824412469999402,0],[113.87409861600008,-6.9823187339999322,0],[113.87407817200005,-6.9821655879999298,0]]]},"properties":{"OBJECTID":4020,"NAMOBJ":"Kota Sumenep","FCODE":"BA03070040","REMARK":null,"METADATA":"TASWIL1000020260612KECAMATAN_AR","SRS_ID":"4326","KDBBPS":null,"KDCBPS":null,"KDCPUM":"35.29.01","KDEBPS":null,"KDEPUM":null,"KDPBPS":null,"KDPKAB":"35.29","KDPPUM":"35","LUASWH":29.580195042575298,"TIPADM":3,"WADMKC":"Kota Sumenep","WADMKD":null,"WADMKK":"Sumenep","WADMPR":"Jawa Timur","WIADKC":null,"WIADKK":null,"WIADPR":null,"WIADKD":null,"UUPP":null,"SHAPE_Length":0.28866939604858488,"SHAPE_Area":0.0024207273554418792}}]}